<?xml version="1.0" encoding="UTF-8"?>
<gpx creator="StravaGPX" version="1.1" xmlns="http://www.topografix.com/GPX/1/1" xmlns:xsi="http://www.w3.org/2001/XMLSchema-instance" xsi:schemaLocation="http://www.topografix.com/GPX/1/1 http://www.topografix.com/GPX/1/1/gpx.xsd">
 <metadata>
  <name>ppp b4 miworu</name>
  <author>
   <name>Reino Albrecht [KLLKTV]</name>
   <link href="https://www.strava.com/athletes/10462611"/>
  </author>
  <copyright author="OpenStreetMap contributors">
   <year>2020</year>
   <license>https://www.openstreetmap.org/copyright</license>
  </copyright>
  <link href="https://www.strava.com/routes/3479443343875190560"/>
 </metadata>
 <trk>
  <name>ppp b4 miworu</name>
  <link href="https://www.strava.com/routes/3479443343875190560"/>
  <type>cycling</type>
  <trkseg>
   <trkpt lat="50.83272" lon="12.905690000000002">
    <ele>327.56</ele>
   </trkpt>
   <trkpt lat="50.832890005939284" lon="12.90686999562779">
    <ele>326.04</ele>
   </trkpt>
   <trkpt lat="50.83306" lon="12.908050000000001">
    <ele>324.22</ele>
   </trkpt>
   <trkpt lat="50.83255999989682" lon="12.908225001956579">
    <ele>324.99</ele>
   </trkpt>
   <trkpt lat="50.832060000000006" lon="12.9084">
    <ele>325.43000000000006</ele>
   </trkpt>
   <trkpt lat="50.83166000000001" lon="12.908520000000001">
    <ele>324.97</ele>
   </trkpt>
   <trkpt lat="50.83151" lon="12.908610000000001">
    <ele>324.77</ele>
   </trkpt>
   <trkpt lat="50.830890000000004" lon="12.909270000000001">
    <ele>319.44</ele>
   </trkpt>
   <trkpt lat="50.83019500216534" lon="12.909980010559714">
    <ele>314.64000000000004</ele>
   </trkpt>
   <trkpt lat="50.8295" lon="12.91069">
    <ele>309.20000000000005</ele>
   </trkpt>
   <trkpt lat="50.82887" lon="12.911420000000001">
    <ele>303.62</ele>
   </trkpt>
   <trkpt lat="50.82865" lon="12.911560000000001">
    <ele>302.25</ele>
   </trkpt>
   <trkpt lat="50.82851" lon="12.911610000000001">
    <ele>301.79</ele>
   </trkpt>
   <trkpt lat="50.82838" lon="12.911690000000002">
    <ele>301.51</ele>
   </trkpt>
   <trkpt lat="50.828230000000005" lon="12.91182">
    <ele>301.47</ele>
   </trkpt>
   <trkpt lat="50.827980000000004" lon="12.912090000000001">
    <ele>301.68</ele>
   </trkpt>
   <trkpt lat="50.82788000000001" lon="12.91214">
    <ele>301.69</ele>
   </trkpt>
   <trkpt lat="50.827850000000005" lon="12.912130000000001">
    <ele>301.69</ele>
   </trkpt>
   <trkpt lat="50.827560000000005" lon="12.91238">
    <ele>301.95000000000005</ele>
   </trkpt>
   <trkpt lat="50.827540000000006" lon="12.912410000000001">
    <ele>301.95000000000005</ele>
   </trkpt>
   <trkpt lat="50.827540000000006" lon="12.91253">
    <ele>302.34</ele>
   </trkpt>
   <trkpt lat="50.82728" lon="12.91276">
    <ele>303.36</ele>
   </trkpt>
   <trkpt lat="50.82706" lon="12.913010000000002">
    <ele>304.97</ele>
   </trkpt>
   <trkpt lat="50.82687000000001" lon="12.913380000000002">
    <ele>306.16</ele>
   </trkpt>
   <trkpt lat="50.82677" lon="12.91365">
    <ele>306.16</ele>
   </trkpt>
   <trkpt lat="50.82667000000001" lon="12.914250000000001">
    <ele>307.19</ele>
   </trkpt>
   <trkpt lat="50.82687000000001" lon="12.914380000000001">
    <ele>306.93</ele>
   </trkpt>
   <trkpt lat="50.826730000000005" lon="12.915130000000001">
    <ele>307.27000000000004</ele>
   </trkpt>
   <trkpt lat="50.82656" lon="12.9159">
    <ele>306.56</ele>
   </trkpt>
   <trkpt lat="50.82631000000001" lon="12.91675">
    <ele>304.74</ele>
   </trkpt>
   <trkpt lat="50.82597500437634" lon="12.91776000719601">
    <ele>302.58</ele>
   </trkpt>
   <trkpt lat="50.82564000000001" lon="12.91877">
    <ele>302.87</ele>
   </trkpt>
   <trkpt lat="50.825480000000006" lon="12.91951">
    <ele>302.59000000000003</ele>
   </trkpt>
   <trkpt lat="50.82544000000001" lon="12.919910000000002">
    <ele>302.29</ele>
   </trkpt>
   <trkpt lat="50.82544000000001" lon="12.920000000000002">
    <ele>302.29</ele>
   </trkpt>
   <trkpt lat="50.82546000000001" lon="12.92007">
    <ele>302.18</ele>
   </trkpt>
   <trkpt lat="50.825480000000006" lon="12.920090000000002">
    <ele>302.18</ele>
   </trkpt>
   <trkpt lat="50.82549" lon="12.92017">
    <ele>302.18</ele>
   </trkpt>
   <trkpt lat="50.82547" lon="12.92054">
    <ele>301.51</ele>
   </trkpt>
   <trkpt lat="50.82522" lon="12.92065">
    <ele>301.18</ele>
   </trkpt>
   <trkpt lat="50.82513" lon="12.920670000000001">
    <ele>301.18</ele>
   </trkpt>
   <trkpt lat="50.825160000000004" lon="12.920770000000001">
    <ele>301.15000000000003</ele>
   </trkpt>
   <trkpt lat="50.8252" lon="12.92149">
    <ele>301.35</ele>
   </trkpt>
   <trkpt lat="50.825190000000006" lon="12.92163">
    <ele>301.35</ele>
   </trkpt>
   <trkpt lat="50.82520500334668" lon="12.9225149996938">
    <ele>301.56000000000006</ele>
   </trkpt>
   <trkpt lat="50.82522" lon="12.9234">
    <ele>301.79</ele>
   </trkpt>
   <trkpt lat="50.8252" lon="12.92378">
    <ele>302.37</ele>
   </trkpt>
   <trkpt lat="50.82511" lon="12.924370000000001">
    <ele>302.50000000000006</ele>
   </trkpt>
   <trkpt lat="50.82506000000001" lon="12.925">
    <ele>302.72</ele>
   </trkpt>
   <trkpt lat="50.824980000000004" lon="12.925030000000001">
    <ele>302.75</ele>
   </trkpt>
   <trkpt lat="50.82495" lon="12.925070000000002">
    <ele>302.75</ele>
   </trkpt>
   <trkpt lat="50.82450000000001" lon="12.925220000000001">
    <ele>303.45</ele>
   </trkpt>
   <trkpt lat="50.824380000000005" lon="12.925310000000001">
    <ele>303.9</ele>
   </trkpt>
   <trkpt lat="50.824160000000006" lon="12.925370000000001">
    <ele>304.4</ele>
   </trkpt>
   <trkpt lat="50.82381" lon="12.92552">
    <ele>305.34</ele>
   </trkpt>
   <trkpt lat="50.82343" lon="12.92566">
    <ele>306.3</ele>
   </trkpt>
   <trkpt lat="50.823240000000006" lon="12.92567">
    <ele>306.97</ele>
   </trkpt>
   <trkpt lat="50.823220000000006" lon="12.92557">
    <ele>307.09000000000003</ele>
   </trkpt>
   <trkpt lat="50.82314" lon="12.92548">
    <ele>307.09000000000003</ele>
   </trkpt>
   <trkpt lat="50.823040000000006" lon="12.92552">
    <ele>307.76000000000005</ele>
   </trkpt>
   <trkpt lat="50.82300000000001" lon="12.92561">
    <ele>307.76000000000005</ele>
   </trkpt>
   <trkpt lat="50.82300000000001" lon="12.92571">
    <ele>307.76000000000005</ele>
   </trkpt>
   <trkpt lat="50.82302000000001" lon="12.9258">
    <ele>308.37</ele>
   </trkpt>
   <trkpt lat="50.82269" lon="12.92599">
    <ele>309.64000000000004</ele>
   </trkpt>
   <trkpt lat="50.82256" lon="12.92604">
    <ele>310.4</ele>
   </trkpt>
   <trkpt lat="50.8218800001321" lon="12.925809996618668">
    <ele>313.12</ele>
   </trkpt>
   <trkpt lat="50.821200000000005" lon="12.925580000000002">
    <ele>314.97</ele>
   </trkpt>
   <trkpt lat="50.82096000000001" lon="12.92547">
    <ele>315.29</ele>
   </trkpt>
   <trkpt lat="50.820460000000004" lon="12.925220000000001">
    <ele>315.63</ele>
   </trkpt>
   <trkpt lat="50.819900000000004" lon="12.924900000000001">
    <ele>315.77000000000004</ele>
   </trkpt>
   <trkpt lat="50.81938500006677" lon="12.924634996957366">
    <ele>315.74</ele>
   </trkpt>
   <trkpt lat="50.818870000000004" lon="12.924370000000001">
    <ele>315.49000000000007</ele>
   </trkpt>
   <trkpt lat="50.81838500011399" lon="12.924154997730026">
    <ele>315.47</ele>
   </trkpt>
   <trkpt lat="50.8179" lon="12.923940000000002">
    <ele>315.38000000000005</ele>
   </trkpt>
   <trkpt lat="50.81741" lon="12.923670000000001">
    <ele>315.48</ele>
   </trkpt>
   <trkpt lat="50.81723" lon="12.92359">
    <ele>315.65000000000003</ele>
   </trkpt>
   <trkpt lat="50.81714" lon="12.923560000000002">
    <ele>315.65000000000003</ele>
   </trkpt>
   <trkpt lat="50.816689999942774" lon="12.923570000097643">
    <ele>315.98</ele>
   </trkpt>
   <trkpt lat="50.81624000000001" lon="12.923580000000001">
    <ele>316.21000000000004</ele>
   </trkpt>
   <trkpt lat="50.815450000000006" lon="12.92351">
    <ele>316.64000000000004</ele>
   </trkpt>
   <trkpt lat="50.814870000000006" lon="12.923490000000001">
    <ele>317.07</ele>
   </trkpt>
   <trkpt lat="50.81465000000001" lon="12.92345">
    <ele>317.07</ele>
   </trkpt>
   <trkpt lat="50.814440000000005" lon="12.923390000000001">
    <ele>317.07</ele>
   </trkpt>
   <trkpt lat="50.81376000104779" lon="12.923043323249582">
    <ele>317.3</ele>
   </trkpt>
   <trkpt lat="50.81308000106833" lon="12.922696656593565">
    <ele>317.83</ele>
   </trkpt>
   <trkpt lat="50.812400000000004" lon="12.922350000000002">
    <ele>320.65999999999997</ele>
   </trkpt>
   <trkpt lat="50.81219" lon="12.922310000000001">
    <ele>321.26000000000005</ele>
   </trkpt>
   <trkpt lat="50.81197" lon="12.922310000000001">
    <ele>323.95</ele>
   </trkpt>
   <trkpt lat="50.811730000000004" lon="12.92238">
    <ele>323.95</ele>
   </trkpt>
   <trkpt lat="50.81103" lon="12.922820000000002">
    <ele>325.62</ele>
   </trkpt>
   <trkpt lat="50.81051" lon="12.923100000000002">
    <ele>326.57</ele>
   </trkpt>
   <trkpt lat="50.80992500058392" lon="12.923455004418297">
    <ele>328.15000000000003</ele>
   </trkpt>
   <trkpt lat="50.809340000000006" lon="12.923810000000001">
    <ele>330.11</ele>
   </trkpt>
   <trkpt lat="50.809110000000004" lon="12.92393">
    <ele>330.73</ele>
   </trkpt>
   <trkpt lat="50.808890000000005" lon="12.924000000000001">
    <ele>331.11</ele>
   </trkpt>
   <trkpt lat="50.80852" lon="12.924030000000002">
    <ele>331.91</ele>
   </trkpt>
   <trkpt lat="50.808310000000006" lon="12.92398">
    <ele>332.19000000000005</ele>
   </trkpt>
   <trkpt lat="50.808060000000005" lon="12.92388">
    <ele>332.19000000000005</ele>
   </trkpt>
   <trkpt lat="50.80724000000001" lon="12.923480000000001">
    <ele>333.43</ele>
   </trkpt>
   <trkpt lat="50.80713" lon="12.92346">
    <ele>333.93</ele>
   </trkpt>
   <trkpt lat="50.80702" lon="12.923470000000002">
    <ele>333.93</ele>
   </trkpt>
   <trkpt lat="50.80679000000001" lon="12.92355">
    <ele>334.1</ele>
   </trkpt>
   <trkpt lat="50.80597" lon="12.92387">
    <ele>335.83</ele>
   </trkpt>
   <trkpt lat="50.80592000000001" lon="12.923750000000002">
    <ele>335.74</ele>
   </trkpt>
   <trkpt lat="50.80584" lon="12.923710000000002">
    <ele>335.74</ele>
   </trkpt>
   <trkpt lat="50.805800000000005" lon="12.923720000000001">
    <ele>335.74</ele>
   </trkpt>
   <trkpt lat="50.80575" lon="12.923760000000001">
    <ele>335.74</ele>
   </trkpt>
   <trkpt lat="50.805710000000005" lon="12.92388">
    <ele>336.28000000000003</ele>
   </trkpt>
   <trkpt lat="50.80572" lon="12.92402">
    <ele>336.28000000000003</ele>
   </trkpt>
   <trkpt lat="50.80525" lon="12.9242">
    <ele>336.91</ele>
   </trkpt>
   <trkpt lat="50.80465" lon="12.92435">
    <ele>337.53000000000003</ele>
   </trkpt>
   <trkpt lat="50.80422" lon="12.92459">
    <ele>337.99</ele>
   </trkpt>
   <trkpt lat="50.80382" lon="12.92486">
    <ele>339.22</ele>
   </trkpt>
   <trkpt lat="50.80332000000001" lon="12.925270000000001">
    <ele>340.56</ele>
   </trkpt>
   <trkpt lat="50.80259000195954" lon="12.925960010851352">
    <ele>342.35</ele>
   </trkpt>
   <trkpt lat="50.801860000000005" lon="12.92665">
    <ele>342.45000000000005</ele>
   </trkpt>
   <trkpt lat="50.80144000000001" lon="12.927090000000002">
    <ele>342.38</ele>
   </trkpt>
   <trkpt lat="50.801350000000006" lon="12.927230000000002">
    <ele>342.38</ele>
   </trkpt>
   <trkpt lat="50.801260000000006" lon="12.92735">
    <ele>342.26</ele>
   </trkpt>
   <trkpt lat="50.801120000000004" lon="12.92764">
    <ele>342.0</ele>
   </trkpt>
   <trkpt lat="50.80094000221527" lon="12.928360002775383">
    <ele>341.92</ele>
   </trkpt>
   <trkpt lat="50.800760000000004" lon="12.92908">
    <ele>341.43</ele>
   </trkpt>
   <trkpt lat="50.800670000000004" lon="12.92936">
    <ele>341.27000000000004</ele>
   </trkpt>
   <trkpt lat="50.800160000000005" lon="12.930510000000002">
    <ele>339.57000000000005</ele>
   </trkpt>
   <trkpt lat="50.80001000000001" lon="12.93083">
    <ele>339.57000000000005</ele>
   </trkpt>
   <trkpt lat="50.799730000000004" lon="12.93129">
    <ele>339.16</ele>
   </trkpt>
   <trkpt lat="50.79922500291044" lon="12.932120009025493">
    <ele>338.15</ele>
   </trkpt>
   <trkpt lat="50.79872" lon="12.932950000000002">
    <ele>336.01000000000005</ele>
   </trkpt>
   <trkpt lat="50.79863" lon="12.93302">
    <ele>335.59000000000003</ele>
   </trkpt>
   <trkpt lat="50.79854" lon="12.933050000000001">
    <ele>335.59000000000003</ele>
   </trkpt>
   <trkpt lat="50.798460000000006" lon="12.93302">
    <ele>334.38</ele>
   </trkpt>
   <trkpt lat="50.798300000000005" lon="12.932870000000001">
    <ele>333.68</ele>
   </trkpt>
   <trkpt lat="50.798210000000005" lon="12.932720000000002">
    <ele>333.58000000000004</ele>
   </trkpt>
   <trkpt lat="50.798210000000005" lon="12.93261">
    <ele>333.45000000000005</ele>
   </trkpt>
   <trkpt lat="50.798170000000006" lon="12.93252">
    <ele>333.45000000000005</ele>
   </trkpt>
   <trkpt lat="50.798100000000005" lon="12.932490000000001">
    <ele>333.45000000000005</ele>
   </trkpt>
   <trkpt lat="50.798030000000004" lon="12.932530000000002">
    <ele>333.22</ele>
   </trkpt>
   <trkpt lat="50.798" lon="12.93266">
    <ele>332.9800000000001</ele>
   </trkpt>
   <trkpt lat="50.79795000000001" lon="12.93274">
    <ele>332.90000000000003</ele>
   </trkpt>
   <trkpt lat="50.79791" lon="12.932920000000001">
    <ele>332.90000000000003</ele>
   </trkpt>
   <trkpt lat="50.797900000000006" lon="12.933010000000001">
    <ele>332.86</ele>
   </trkpt>
   <trkpt lat="50.79787" lon="12.933180000000002">
    <ele>332.86</ele>
   </trkpt>
   <trkpt lat="50.797570005048115" lon="12.93426500690598">
    <ele>332.81000000000006</ele>
   </trkpt>
   <trkpt lat="50.797270000000005" lon="12.935350000000001">
    <ele>332.62</ele>
   </trkpt>
   <trkpt lat="50.79724" lon="12.935390000000002">
    <ele>332.62</ele>
   </trkpt>
   <trkpt lat="50.797050000000006" lon="12.935340000000002">
    <ele>332.19000000000005</ele>
   </trkpt>
   <trkpt lat="50.796760000000006" lon="12.93537">
    <ele>332.03000000000003</ele>
   </trkpt>
   <trkpt lat="50.79661" lon="12.93542">
    <ele>331.67</ele>
   </trkpt>
   <trkpt lat="50.79632" lon="12.935590000000001">
    <ele>331.07000000000005</ele>
   </trkpt>
   <trkpt lat="50.79608" lon="12.93585">
    <ele>331.07000000000005</ele>
   </trkpt>
   <trkpt lat="50.795860000000005" lon="12.936190000000002">
    <ele>330.59000000000003</ele>
   </trkpt>
   <trkpt lat="50.795545001976244" lon="12.93686000439346">
    <ele>330.08000000000004</ele>
   </trkpt>
   <trkpt lat="50.795230000000004" lon="12.93753">
    <ele>330.0</ele>
   </trkpt>
   <trkpt lat="50.79514" lon="12.93763">
    <ele>329.73</ele>
   </trkpt>
   <trkpt lat="50.79471" lon="12.93786">
    <ele>329.63000000000005</ele>
   </trkpt>
   <trkpt lat="50.794540000000005" lon="12.93904">
    <ele>328.11</ele>
   </trkpt>
   <trkpt lat="50.794560000000004" lon="12.939910000000001">
    <ele>328.18</ele>
   </trkpt>
   <trkpt lat="50.794630000000005" lon="12.94025">
    <ele>328.34000000000003</ele>
   </trkpt>
   <trkpt lat="50.79486000000001" lon="12.940760000000001">
    <ele>328.73</ele>
   </trkpt>
   <trkpt lat="50.79493" lon="12.94109">
    <ele>329.13000000000005</ele>
   </trkpt>
   <trkpt lat="50.79493" lon="12.94139">
    <ele>329.6</ele>
   </trkpt>
   <trkpt lat="50.79484" lon="12.941740000000001">
    <ele>329.78000000000003</ele>
   </trkpt>
   <trkpt lat="50.79471" lon="12.942100000000002">
    <ele>329.87000000000006</ele>
   </trkpt>
   <trkpt lat="50.794560000000004" lon="12.94241">
    <ele>330.40000000000003</ele>
   </trkpt>
   <trkpt lat="50.794430000000006" lon="12.94265">
    <ele>331.0</ele>
   </trkpt>
   <trkpt lat="50.79433" lon="12.942770000000001">
    <ele>331.04</ele>
   </trkpt>
   <trkpt lat="50.79431" lon="12.942730000000001">
    <ele>331.04</ele>
   </trkpt>
   <trkpt lat="50.79424" lon="12.942670000000001">
    <ele>331.04</ele>
   </trkpt>
   <trkpt lat="50.79421000000001" lon="12.942670000000001">
    <ele>331.04</ele>
   </trkpt>
   <trkpt lat="50.794160000000005" lon="12.9427">
    <ele>331.22</ele>
   </trkpt>
   <trkpt lat="50.79411" lon="12.942770000000001">
    <ele>331.22</ele>
   </trkpt>
   <trkpt lat="50.79410000000001" lon="12.942950000000002">
    <ele>331.22</ele>
   </trkpt>
   <trkpt lat="50.7939" lon="12.943130000000002">
    <ele>331.08000000000004</ele>
   </trkpt>
   <trkpt lat="50.79352" lon="12.943670000000001">
    <ele>330.18</ele>
   </trkpt>
   <trkpt lat="50.793025003303775" lon="12.944555009451172">
    <ele>329.58000000000004</ele>
   </trkpt>
   <trkpt lat="50.792530000000006" lon="12.945440000000001">
    <ele>329.43</ele>
   </trkpt>
   <trkpt lat="50.79212000234101" lon="12.946190006694534">
    <ele>329.97</ele>
   </trkpt>
   <trkpt lat="50.79171" lon="12.946940000000001">
    <ele>330.18</ele>
   </trkpt>
   <trkpt lat="50.791140000000006" lon="12.947680000000002">
    <ele>330.92</ele>
   </trkpt>
   <trkpt lat="50.7907" lon="12.948110000000002">
    <ele>331.68</ele>
   </trkpt>
   <trkpt lat="50.790400000000005" lon="12.948350000000001">
    <ele>332.16</ele>
   </trkpt>
   <trkpt lat="50.789930000000005" lon="12.94875">
    <ele>333.57000000000005</ele>
   </trkpt>
   <trkpt lat="50.78965" lon="12.94893">
    <ele>334.07000000000005</ele>
   </trkpt>
   <trkpt lat="50.78934" lon="12.949190000000002">
    <ele>334.81000000000006</ele>
   </trkpt>
   <trkpt lat="50.788960000751054" lon="12.949640003793569">
    <ele>335.57000000000005</ele>
   </trkpt>
   <trkpt lat="50.78858" lon="12.950090000000001">
    <ele>335.93</ele>
   </trkpt>
   <trkpt lat="50.78784" lon="12.950830000000002">
    <ele>335.83</ele>
   </trkpt>
   <trkpt lat="50.78709500194761" lon="12.951510010862622">
    <ele>335.12</ele>
   </trkpt>
   <trkpt lat="50.786350000000006" lon="12.952190000000002">
    <ele>334.83</ele>
   </trkpt>
   <trkpt lat="50.78609" lon="12.95246">
    <ele>334.66</ele>
   </trkpt>
   <trkpt lat="50.785740000000004" lon="12.953000000000001">
    <ele>334.41</ele>
   </trkpt>
   <trkpt lat="50.78544" lon="12.95354">
    <ele>334.51000000000005</ele>
   </trkpt>
   <trkpt lat="50.785230000000006" lon="12.954020000000002">
    <ele>334.65</ele>
   </trkpt>
   <trkpt lat="50.7852" lon="12.95419">
    <ele>334.65</ele>
   </trkpt>
   <trkpt lat="50.7852" lon="12.954440000000002">
    <ele>334.65</ele>
   </trkpt>
   <trkpt lat="50.785470000000004" lon="12.955240000000002">
    <ele>334.56</ele>
   </trkpt>
   <trkpt lat="50.785650000000004" lon="12.95587">
    <ele>334.42</ele>
   </trkpt>
   <trkpt lat="50.78569" lon="12.956240000000001">
    <ele>334.28000000000003</ele>
   </trkpt>
   <trkpt lat="50.78566000000001" lon="12.957260000000002">
    <ele>334.25000000000006</ele>
   </trkpt>
   <trkpt lat="50.785610006790314" lon="12.958520001249678">
    <ele>334.37</ele>
   </trkpt>
   <trkpt lat="50.785560000000004" lon="12.95978">
    <ele>334.62</ele>
   </trkpt>
   <trkpt lat="50.785520000000005" lon="12.960070000000002">
    <ele>334.74</ele>
   </trkpt>
   <trkpt lat="50.78544" lon="12.960500000000001">
    <ele>334.82</ele>
   </trkpt>
   <trkpt lat="50.7852" lon="12.96147">
    <ele>335.33</ele>
   </trkpt>
   <trkpt lat="50.785000000000004" lon="12.962060000000001">
    <ele>335.55</ele>
   </trkpt>
   <trkpt lat="50.784890000000004" lon="12.962340000000001">
    <ele>335.94</ele>
   </trkpt>
   <trkpt lat="50.78460000117136" lon="12.962885003565177">
    <ele>336.46000000000004</ele>
   </trkpt>
   <trkpt lat="50.784310000000005" lon="12.96343">
    <ele>337.15</ele>
   </trkpt>
   <trkpt lat="50.78421" lon="12.9638">
    <ele>337.62</ele>
   </trkpt>
   <trkpt lat="50.78417" lon="12.96399">
    <ele>337.62</ele>
   </trkpt>
   <trkpt lat="50.78408501680937" lon="12.965135006289499">
    <ele>338.45000000000005</ele>
   </trkpt>
   <trkpt lat="50.78400002241022" lon="12.966280008416412">
    <ele>338.91</ele>
   </trkpt>
   <trkpt lat="50.7839150168026" lon="12.967425006380216">
    <ele>339.46000000000004</ele>
   </trkpt>
   <trkpt lat="50.78383" lon="12.968570000000001">
    <ele>340.04</ele>
   </trkpt>
   <trkpt lat="50.78365" lon="12.96977">
    <ele>340.57000000000005</ele>
   </trkpt>
   <trkpt lat="50.783260000000006" lon="12.97089">
    <ele>341.09</ele>
   </trkpt>
   <trkpt lat="50.782970000000006" lon="12.971390000000001">
    <ele>341.65</ele>
   </trkpt>
   <trkpt lat="50.782650000000004" lon="12.971860000000001">
    <ele>341.65</ele>
   </trkpt>
   <trkpt lat="50.782160000000005" lon="12.9723">
    <ele>342.09</ele>
   </trkpt>
   <trkpt lat="50.78188" lon="12.972470000000001">
    <ele>342.32</ele>
   </trkpt>
   <trkpt lat="50.781650000000006" lon="12.97258">
    <ele>342.46000000000004</ele>
   </trkpt>
   <trkpt lat="50.781040000000004" lon="12.972700000000001">
    <ele>342.89000000000004</ele>
   </trkpt>
   <trkpt lat="50.780680000000004" lon="12.972700000000001">
    <ele>343.13000000000005</ele>
   </trkpt>
   <trkpt lat="50.78049000000001" lon="12.97268">
    <ele>343.22</ele>
   </trkpt>
   <trkpt lat="50.780280000000005" lon="12.972610000000001">
    <ele>343.12</ele>
   </trkpt>
   <trkpt lat="50.780100000000004" lon="12.97253">
    <ele>343.12</ele>
   </trkpt>
   <trkpt lat="50.77991" lon="12.9724">
    <ele>343.07000000000005</ele>
   </trkpt>
   <trkpt lat="50.77934000103215" lon="12.971884993630866">
    <ele>343.22</ele>
   </trkpt>
   <trkpt lat="50.77877" lon="12.97137">
    <ele>343.63000000000005</ele>
   </trkpt>
   <trkpt lat="50.77843000000001" lon="12.97108">
    <ele>343.63000000000005</ele>
   </trkpt>
   <trkpt lat="50.77825000000001" lon="12.970970000000001">
    <ele>343.84000000000003</ele>
   </trkpt>
   <trkpt lat="50.77801" lon="12.9709">
    <ele>343.84000000000003</ele>
   </trkpt>
   <trkpt lat="50.77718" lon="12.970910000000002">
    <ele>344.22</ele>
   </trkpt>
   <trkpt lat="50.776990000000005" lon="12.97085">
    <ele>344.22</ele>
   </trkpt>
   <trkpt lat="50.77664000000001" lon="12.9707">
    <ele>344.52000000000004</ele>
   </trkpt>
   <trkpt lat="50.77644" lon="12.970690000000001">
    <ele>344.52000000000004</ele>
   </trkpt>
   <trkpt lat="50.776180000000004" lon="12.970770000000002">
    <ele>344.52000000000004</ele>
   </trkpt>
   <trkpt lat="50.77588" lon="12.970970000000001">
    <ele>344.56</ele>
   </trkpt>
   <trkpt lat="50.7753" lon="12.971540000000001">
    <ele>344.49</ele>
   </trkpt>
   <trkpt lat="50.77516000000001" lon="12.97174">
    <ele>344.5</ele>
   </trkpt>
   <trkpt lat="50.775020000000005" lon="12.972030000000002">
    <ele>344.74000000000007</ele>
   </trkpt>
   <trkpt lat="50.774910000000006" lon="12.97234">
    <ele>345.18</ele>
   </trkpt>
   <trkpt lat="50.77476000000001" lon="12.97259">
    <ele>345.38</ele>
   </trkpt>
   <trkpt lat="50.77459" lon="12.97273">
    <ele>345.62</ele>
   </trkpt>
   <trkpt lat="50.774460000000005" lon="12.97282">
    <ele>345.67</ele>
   </trkpt>
   <trkpt lat="50.77385" lon="12.973740000000001">
    <ele>345.78000000000003</ele>
   </trkpt>
   <trkpt lat="50.773540000000004" lon="12.974160000000001">
    <ele>346.16</ele>
   </trkpt>
   <trkpt lat="50.773390000000006" lon="12.974300000000001">
    <ele>346.31</ele>
   </trkpt>
   <trkpt lat="50.77324" lon="12.974380000000002">
    <ele>346.49</ele>
   </trkpt>
   <trkpt lat="50.77299000000001" lon="12.974440000000001">
    <ele>346.74000000000007</ele>
   </trkpt>
   <trkpt lat="50.77247500009631" lon="12.974429999891761">
    <ele>347.62</ele>
   </trkpt>
   <trkpt lat="50.77196000000001" lon="12.97442">
    <ele>348.11</ele>
   </trkpt>
   <trkpt lat="50.77149000000001" lon="12.974430000000002">
    <ele>348.13000000000005</ele>
   </trkpt>
   <trkpt lat="50.77122000000001" lon="12.974400000000001">
    <ele>348.26</ele>
   </trkpt>
   <trkpt lat="50.77093000000001" lon="12.974290000000002">
    <ele>348.58</ele>
   </trkpt>
   <trkpt lat="50.77075000000001" lon="12.97418">
    <ele>348.62000000000006</ele>
   </trkpt>
   <trkpt lat="50.770340000000004" lon="12.97381">
    <ele>348.82</ele>
   </trkpt>
   <trkpt lat="50.77019000000001" lon="12.97366">
    <ele>349.07000000000005</ele>
   </trkpt>
   <trkpt lat="50.77009" lon="12.97352">
    <ele>349.07000000000005</ele>
   </trkpt>
   <trkpt lat="50.76993" lon="12.97319">
    <ele>349.46999999999997</ele>
   </trkpt>
   <trkpt lat="50.769830000000006" lon="12.973080000000001">
    <ele>349.46999999999997</ele>
   </trkpt>
   <trkpt lat="50.76977" lon="12.97306">
    <ele>349.46999999999997</ele>
   </trkpt>
   <trkpt lat="50.769450000000006" lon="12.97315">
    <ele>349.96999999999997</ele>
   </trkpt>
   <trkpt lat="50.76859" lon="12.973450000000001">
    <ele>350.88</ele>
   </trkpt>
   <trkpt lat="50.76827" lon="12.973510000000001">
    <ele>351.04</ele>
   </trkpt>
   <trkpt lat="50.76775000000001" lon="12.97348">
    <ele>351.67</ele>
   </trkpt>
   <trkpt lat="50.76702" lon="12.973400000000002">
    <ele>352.40000000000003</ele>
   </trkpt>
   <trkpt lat="50.766160000000006" lon="12.973320000000001">
    <ele>352.99</ele>
   </trkpt>
   <trkpt lat="50.76587000000001" lon="12.973310000000001">
    <ele>352.90999999999997</ele>
   </trkpt>
   <trkpt lat="50.765820000000005" lon="12.973680000000002">
    <ele>352.88</ele>
   </trkpt>
   <trkpt lat="50.76576000000001" lon="12.974">
    <ele>352.94</ele>
   </trkpt>
   <trkpt lat="50.76568" lon="12.97422">
    <ele>353.21000000000004</ele>
   </trkpt>
   <trkpt lat="50.765550000000005" lon="12.97442">
    <ele>353.46000000000004</ele>
   </trkpt>
   <trkpt lat="50.76500000086377" lon="12.974880005441602">
    <ele>355.84000000000003</ele>
   </trkpt>
   <trkpt lat="50.764450000000004" lon="12.975340000000001">
    <ele>357.86</ele>
   </trkpt>
   <trkpt lat="50.764100000000006" lon="12.97591">
    <ele>358.75</ele>
   </trkpt>
   <trkpt lat="50.76367500099008" lon="12.976385004286053">
    <ele>358.91</ele>
   </trkpt>
   <trkpt lat="50.763250000000006" lon="12.97686">
    <ele>358.87</ele>
   </trkpt>
   <trkpt lat="50.76296000000001" lon="12.97713">
    <ele>358.79</ele>
   </trkpt>
   <trkpt lat="50.76268" lon="12.97737">
    <ele>358.45000000000005</ele>
   </trkpt>
   <trkpt lat="50.76229000000001" lon="12.97765">
    <ele>358.24</ele>
   </trkpt>
   <trkpt lat="50.762080000000005" lon="12.97774">
    <ele>358.04</ele>
   </trkpt>
   <trkpt lat="50.76191000000001" lon="12.9778">
    <ele>357.96000000000004</ele>
   </trkpt>
   <trkpt lat="50.761610000000005" lon="12.97779">
    <ele>357.79</ele>
   </trkpt>
   <trkpt lat="50.761140000103566" lon="12.977724999358962">
    <ele>358.14</ele>
   </trkpt>
   <trkpt lat="50.760670000000005" lon="12.97766">
    <ele>358.68000000000006</ele>
   </trkpt>
   <trkpt lat="50.76034000000001" lon="12.97756">
    <ele>360.43</ele>
   </trkpt>
   <trkpt lat="50.75967500034985" lon="12.977309996478448">
    <ele>364.2</ele>
   </trkpt>
   <trkpt lat="50.75901" lon="12.977060000000002">
    <ele>368.21000000000004</ele>
   </trkpt>
   <trkpt lat="50.758750000000006" lon="12.97705">
    <ele>368.79</ele>
   </trkpt>
   <trkpt lat="50.75849" lon="12.977070000000001">
    <ele>368.92</ele>
   </trkpt>
   <trkpt lat="50.75786" lon="12.977240000000002">
    <ele>368.86</ele>
   </trkpt>
   <trkpt lat="50.75762" lon="12.977340000000002">
    <ele>368.25</ele>
   </trkpt>
   <trkpt lat="50.75735" lon="12.977530000000002">
    <ele>367.4</ele>
   </trkpt>
   <trkpt lat="50.75682000088007" lon="12.977965004867848">
    <ele>366.53000000000003</ele>
   </trkpt>
   <trkpt lat="50.75629000000001" lon="12.9784">
    <ele>366.28000000000003</ele>
   </trkpt>
   <trkpt lat="50.755900000000004" lon="12.97882">
    <ele>365.9</ele>
   </trkpt>
   <trkpt lat="50.75548500105056" lon="12.97929500411345">
    <ele>364.64</ele>
   </trkpt>
   <trkpt lat="50.75507" lon="12.97977">
    <ele>364.49</ele>
   </trkpt>
   <trkpt lat="50.754695001125405" lon="12.980260003796747">
    <ele>364.71000000000004</ele>
   </trkpt>
   <trkpt lat="50.75432000000001" lon="12.98075">
    <ele>364.61</ele>
   </trkpt>
   <trkpt lat="50.75404" lon="12.98126">
    <ele>364.26000000000005</ele>
   </trkpt>
   <trkpt lat="50.753960000000006" lon="12.98135">
    <ele>364.26000000000005</ele>
   </trkpt>
   <trkpt lat="50.753780000000006" lon="12.98145">
    <ele>363.74</ele>
   </trkpt>
   <trkpt lat="50.75359" lon="12.98145">
    <ele>363.22</ele>
   </trkpt>
   <trkpt lat="50.75347000000001" lon="12.981420000000002">
    <ele>363.1</ele>
   </trkpt>
   <trkpt lat="50.7533" lon="12.981340000000001">
    <ele>363.01000000000005</ele>
   </trkpt>
   <trkpt lat="50.75296" lon="12.98108">
    <ele>363.11</ele>
   </trkpt>
   <trkpt lat="50.75238" lon="12.980480000000002">
    <ele>363.07</ele>
   </trkpt>
   <trkpt lat="50.75215000000001" lon="12.980160000000001">
    <ele>362.90000000000003</ele>
   </trkpt>
   <trkpt lat="50.75179000000001" lon="12.97943">
    <ele>363.1</ele>
   </trkpt>
   <trkpt lat="50.751670000000004" lon="12.97924">
    <ele>363.24</ele>
   </trkpt>
   <trkpt lat="50.751400000000004" lon="12.978900000000001">
    <ele>363.48</ele>
   </trkpt>
   <trkpt lat="50.75088" lon="12.978430000000001">
    <ele>363.86</ele>
   </trkpt>
   <trkpt lat="50.750435000714226" lon="12.978049996470347">
    <ele>364.06000000000006</ele>
   </trkpt>
   <trkpt lat="50.749990000000004" lon="12.977670000000002">
    <ele>364.22</ele>
   </trkpt>
   <trkpt lat="50.74983" lon="12.97761">
    <ele>364.36</ele>
   </trkpt>
   <trkpt lat="50.749750000000006" lon="12.977620000000002">
    <ele>364.50000000000006</ele>
   </trkpt>
   <trkpt lat="50.749680000000005" lon="12.97766">
    <ele>364.50000000000006</ele>
   </trkpt>
   <trkpt lat="50.749610000000004" lon="12.97774">
    <ele>364.50000000000006</ele>
   </trkpt>
   <trkpt lat="50.74945" lon="12.978040000000002">
    <ele>365.19</ele>
   </trkpt>
   <trkpt lat="50.74931" lon="12.97845">
    <ele>365.71000000000004</ele>
   </trkpt>
   <trkpt lat="50.749380003863074" lon="12.97939999863658">
    <ele>367.9</ele>
   </trkpt>
   <trkpt lat="50.74945" lon="12.980350000000001">
    <ele>370.18</ele>
   </trkpt>
   <trkpt lat="50.74945" lon="12.980540000000001">
    <ele>370.18</ele>
   </trkpt>
   <trkpt lat="50.74942" lon="12.98089">
    <ele>371.3</ele>
   </trkpt>
   <trkpt lat="50.749340000000004" lon="12.981240000000001">
    <ele>371.88000000000005</ele>
   </trkpt>
   <trkpt lat="50.74904" lon="12.982080000000002">
    <ele>373.50000000000006</ele>
   </trkpt>
   <trkpt lat="50.7488" lon="12.983010000000002">
    <ele>375.02000000000004</ele>
   </trkpt>
   <trkpt lat="50.74844" lon="12.98399">
    <ele>379.03000000000003</ele>
   </trkpt>
   <trkpt lat="50.74812000000001" lon="12.984710000000002">
    <ele>381.8</ele>
   </trkpt>
   <trkpt lat="50.748020000000004" lon="12.98501">
    <ele>382.65000000000003</ele>
   </trkpt>
   <trkpt lat="50.747690000000006" lon="12.986320000000001">
    <ele>385.76000000000005</ele>
   </trkpt>
   <trkpt lat="50.747550000000004" lon="12.986580000000002">
    <ele>386.77000000000004</ele>
   </trkpt>
   <trkpt lat="50.74743" lon="12.9867">
    <ele>387.13</ele>
   </trkpt>
   <trkpt lat="50.74720000000001" lon="12.9869">
    <ele>388.71000000000004</ele>
   </trkpt>
   <trkpt lat="50.74712" lon="12.987020000000001">
    <ele>389.3</ele>
   </trkpt>
   <trkpt lat="50.74707" lon="12.98713">
    <ele>390.66</ele>
   </trkpt>
   <trkpt lat="50.74705" lon="12.987300000000001">
    <ele>390.66</ele>
   </trkpt>
   <trkpt lat="50.74714" lon="12.98867">
    <ele>398.12</ele>
   </trkpt>
   <trkpt lat="50.74714" lon="12.98906">
    <ele>400.24</ele>
   </trkpt>
   <trkpt lat="50.74712" lon="12.98919">
    <ele>400.24</ele>
   </trkpt>
   <trkpt lat="50.74701" lon="12.989600000000001">
    <ele>403.08000000000004</ele>
   </trkpt>
   <trkpt lat="50.746880000000004" lon="12.9899">
    <ele>404.64000000000004</ele>
   </trkpt>
   <trkpt lat="50.74650000212085" lon="12.990605005730169">
    <ele>410.81</ele>
   </trkpt>
   <trkpt lat="50.746120000000005" lon="12.99131">
    <ele>415.52000000000004</ele>
   </trkpt>
   <trkpt lat="50.74597000000001" lon="12.99169">
    <ele>417.93</ele>
   </trkpt>
   <trkpt lat="50.745900002492654" lon="12.992455001249615">
    <ele>419.85</ele>
   </trkpt>
   <trkpt lat="50.745830000000005" lon="12.99322">
    <ele>421.59000000000003</ele>
   </trkpt>
   <trkpt lat="50.74577000000001" lon="12.993500000000001">
    <ele>422.79</ele>
   </trkpt>
   <trkpt lat="50.74570000000001" lon="12.99369">
    <ele>423.66</ele>
   </trkpt>
   <trkpt lat="50.745470000000005" lon="12.994100000000001">
    <ele>426.01000000000005</ele>
   </trkpt>
   <trkpt lat="50.745250000000006" lon="12.994380000000001">
    <ele>428.11</ele>
   </trkpt>
   <trkpt lat="50.74459" lon="12.99505">
    <ele>433.57</ele>
   </trkpt>
   <trkpt lat="50.74416" lon="12.995370000000001">
    <ele>436.44000000000005</ele>
   </trkpt>
   <trkpt lat="50.74372000035675" lon="12.995580001893117">
    <ele>437.00000000000006</ele>
   </trkpt>
   <trkpt lat="50.743280000000006" lon="12.995790000000001">
    <ele>437.58000000000004</ele>
   </trkpt>
   <trkpt lat="50.74309" lon="12.99591">
    <ele>438.33000000000004</ele>
   </trkpt>
   <trkpt lat="50.742850000000004" lon="12.99613">
    <ele>439.68</ele>
   </trkpt>
   <trkpt lat="50.742300001501796" lon="12.99670500666174">
    <ele>445.55000000000007</ele>
   </trkpt>
   <trkpt lat="50.74175" lon="12.997280000000002">
    <ele>451.87000000000006</ele>
   </trkpt>
   <trkpt lat="50.74156000000001" lon="12.99745">
    <ele>451.87000000000006</ele>
   </trkpt>
   <trkpt lat="50.74136000000001" lon="12.997580000000001">
    <ele>455.45</ele>
   </trkpt>
   <trkpt lat="50.74116" lon="12.997650000000002">
    <ele>457.35</ele>
   </trkpt>
   <trkpt lat="50.740950000000005" lon="12.997650000000002">
    <ele>458.96000000000004</ele>
   </trkpt>
   <trkpt lat="50.740300000000005" lon="12.997580000000001">
    <ele>465.21</ele>
   </trkpt>
   <trkpt lat="50.740210000000005" lon="12.99764">
    <ele>465.97</ele>
   </trkpt>
   <trkpt lat="50.74013" lon="12.99773">
    <ele>465.97</ele>
   </trkpt>
   <trkpt lat="50.740140000000004" lon="12.997720000000001">
    <ele>465.97</ele>
   </trkpt>
   <trkpt lat="50.74009" lon="12.997860000000001">
    <ele>466.47</ele>
   </trkpt>
   <trkpt lat="50.740080000000006" lon="12.998030000000002">
    <ele>467.63000000000005</ele>
   </trkpt>
   <trkpt lat="50.740210000000005" lon="12.999070000000001">
    <ele>472.86000000000007</ele>
   </trkpt>
   <trkpt lat="50.740210000000005" lon="12.99932">
    <ele>474.24000000000007</ele>
   </trkpt>
   <trkpt lat="50.740170000000006" lon="12.99957">
    <ele>474.72</ele>
   </trkpt>
   <trkpt lat="50.739990000000006" lon="13.000070000000001">
    <ele>476.07000000000005</ele>
   </trkpt>
   <trkpt lat="50.73964" lon="13.00088">
    <ele>476.85</ele>
   </trkpt>
   <trkpt lat="50.739520000000006" lon="13.001100000000001">
    <ele>476.53000000000003</ele>
   </trkpt>
   <trkpt lat="50.73912000000001" lon="13.001560000000001">
    <ele>475.09</ele>
   </trkpt>
   <trkpt lat="50.73888" lon="13.001190000000001">
    <ele>474.04</ele>
   </trkpt>
   <trkpt lat="50.73836000000001" lon="13.00196">
    <ele>472.86000000000007</ele>
   </trkpt>
   <trkpt lat="50.73809000000001" lon="13.00233">
    <ele>470.1</ele>
   </trkpt>
   <trkpt lat="50.73763" lon="13.00289">
    <ele>466.86000000000007</ele>
   </trkpt>
   <trkpt lat="50.73734" lon="13.003160000000001">
    <ele>465.38</ele>
   </trkpt>
   <trkpt lat="50.736560000000004" lon="13.003120000000001">
    <ele>460.5400000000001</ele>
   </trkpt>
   <trkpt lat="50.736520000000006" lon="13.003190000000002">
    <ele>460.28000000000003</ele>
   </trkpt>
   <trkpt lat="50.73641000000001" lon="13.003670000000001">
    <ele>458.92</ele>
   </trkpt>
   <trkpt lat="50.736250000000005" lon="13.00417">
    <ele>457.76000000000005</ele>
   </trkpt>
   <trkpt lat="50.73613" lon="13.004360000000002">
    <ele>457.48</ele>
   </trkpt>
   <trkpt lat="50.736000000000004" lon="13.00464">
    <ele>457.22</ele>
   </trkpt>
   <trkpt lat="50.73583000000001" lon="13.005040000000001">
    <ele>456.47</ele>
   </trkpt>
   <trkpt lat="50.73554000000001" lon="13.00613">
    <ele>456.1000000000001</ele>
   </trkpt>
   <trkpt lat="50.73541" lon="13.00655">
    <ele>455.12</ele>
   </trkpt>
   <trkpt lat="50.735200000000006" lon="13.006870000000001">
    <ele>454.41</ele>
   </trkpt>
   <trkpt lat="50.734910000000006" lon="13.00783">
    <ele>452.05000000000007</ele>
   </trkpt>
   <trkpt lat="50.73474" lon="13.008600000000001">
    <ele>450.71000000000004</ele>
   </trkpt>
   <trkpt lat="50.734480000000005" lon="13.00952">
    <ele>446.39</ele>
   </trkpt>
   <trkpt lat="50.73436" lon="13.010060000000001">
    <ele>444.27000000000004</ele>
   </trkpt>
   <trkpt lat="50.734350000000006" lon="13.010340000000001">
    <ele>442.75</ele>
   </trkpt>
   <trkpt lat="50.734370000000006" lon="13.010810000000001">
    <ele>441.79</ele>
   </trkpt>
   <trkpt lat="50.73446500243174" lon="13.011564998422505">
    <ele>440.42</ele>
   </trkpt>
   <trkpt lat="50.73456" lon="13.01232">
    <ele>437.7300000000001</ele>
   </trkpt>
   <trkpt lat="50.73461" lon="13.012580000000002">
    <ele>437.70000000000005</ele>
   </trkpt>
   <trkpt lat="50.734770000000005" lon="13.01312">
    <ele>435.83000000000004</ele>
   </trkpt>
   <trkpt lat="50.73487" lon="13.013580000000001">
    <ele>433.55</ele>
   </trkpt>
   <trkpt lat="50.735015004241625" lon="13.014574996975165">
    <ele>428.58</ele>
   </trkpt>
   <trkpt lat="50.73516000000001" lon="13.01557">
    <ele>425.17</ele>
   </trkpt>
   <trkpt lat="50.73512000779897" lon="13.016920000962973">
    <ele>422.74000000000007</ele>
   </trkpt>
   <trkpt lat="50.73508" lon="13.018270000000001">
    <ele>419.2</ele>
   </trkpt>
   <trkpt lat="50.73501" lon="13.01867">
    <ele>419.2</ele>
   </trkpt>
   <trkpt lat="50.73498000000001" lon="13.020050000000001">
    <ele>414.73</ele>
   </trkpt>
   <trkpt lat="50.73503" lon="13.020570000000001">
    <ele>412.72</ele>
   </trkpt>
   <trkpt lat="50.73509000000001" lon="13.02078">
    <ele>411.49</ele>
   </trkpt>
   <trkpt lat="50.73519" lon="13.021070000000002">
    <ele>410.98</ele>
   </trkpt>
   <trkpt lat="50.735440000000004" lon="13.021540000000002">
    <ele>408.54</ele>
   </trkpt>
   <trkpt lat="50.73554000000001" lon="13.02181">
    <ele>408.04</ele>
   </trkpt>
   <trkpt lat="50.73565000000001" lon="13.02227">
    <ele>406.19000000000005</ele>
   </trkpt>
   <trkpt lat="50.73568" lon="13.02256">
    <ele>404.62</ele>
   </trkpt>
   <trkpt lat="50.735850000000006" lon="13.023320000000002">
    <ele>401.81000000000006</ele>
   </trkpt>
   <trkpt lat="50.73588" lon="13.023670000000001">
    <ele>400.85</ele>
   </trkpt>
   <trkpt lat="50.7359" lon="13.02425">
    <ele>400.0</ele>
   </trkpt>
   <trkpt lat="50.735910000000004" lon="13.02505">
    <ele>398.15000000000003</ele>
   </trkpt>
   <trkpt lat="50.73586" lon="13.02598">
    <ele>396.59000000000003</ele>
   </trkpt>
   <trkpt lat="50.73574500497377" lon="13.027060002782788">
    <ele>394.71</ele>
   </trkpt>
   <trkpt lat="50.73563000000001" lon="13.02814">
    <ele>392.84000000000003</ele>
   </trkpt>
   <trkpt lat="50.73554000000001" lon="13.0287">
    <ele>390.79</ele>
   </trkpt>
   <trkpt lat="50.73531334061847" lon="13.029623342295222">
    <ele>388.73</ele>
   </trkpt>
   <trkpt lat="50.73508667394561" lon="13.030546675653662">
    <ele>387.91</ele>
   </trkpt>
   <trkpt lat="50.734860000000005" lon="13.03147">
    <ele>386.58000000000004</ele>
   </trkpt>
   <trkpt lat="50.734840000000005" lon="13.03175">
    <ele>385.35</ele>
   </trkpt>
   <trkpt lat="50.73489000000001" lon="13.03246">
    <ele>384.12</ele>
   </trkpt>
   <trkpt lat="50.73489000000001" lon="13.032860000000001">
    <ele>383.67</ele>
   </trkpt>
   <trkpt lat="50.73483000313656" lon="13.033720001475919">
    <ele>382.76000000000005</ele>
   </trkpt>
   <trkpt lat="50.734770000000005" lon="13.034580000000002">
    <ele>381.58000000000004</ele>
   </trkpt>
   <trkpt lat="50.734730000000006" lon="13.03485">
    <ele>381.37000000000006</ele>
   </trkpt>
   <trkpt lat="50.73453000000001" lon="13.035470000000002">
    <ele>380.13</ele>
   </trkpt>
   <trkpt lat="50.7341300024332" lon="13.036205006050634">
    <ele>378.65000000000003</ele>
   </trkpt>
   <trkpt lat="50.73373" lon="13.036940000000001">
    <ele>377.36</ele>
   </trkpt>
   <trkpt lat="50.73359000000001" lon="13.037270000000001">
    <ele>376.82000000000005</ele>
   </trkpt>
   <trkpt lat="50.73349" lon="13.037560000000001">
    <ele>376.22</ele>
   </trkpt>
   <trkpt lat="50.733410000000006" lon="13.03809">
    <ele>375.85</ele>
   </trkpt>
   <trkpt lat="50.733380000000004" lon="13.03847">
    <ele>375.51</ele>
   </trkpt>
   <trkpt lat="50.73337" lon="13.039040000000002">
    <ele>374.45</ele>
   </trkpt>
   <trkpt lat="50.73333" lon="13.039320000000002">
    <ele>373.6700000000001</ele>
   </trkpt>
   <trkpt lat="50.733270000000005" lon="13.03954">
    <ele>373.38000000000005</ele>
   </trkpt>
   <trkpt lat="50.73312000000001" lon="13.039750000000002">
    <ele>372.51</ele>
   </trkpt>
   <trkpt lat="50.73249500046543" lon="13.040075004329257">
    <ele>368.41</ele>
   </trkpt>
   <trkpt lat="50.73187" lon="13.040400000000002">
    <ele>364.84000000000003</ele>
   </trkpt>
   <trkpt lat="50.73152" lon="13.04091">
    <ele>362.59000000000003</ele>
   </trkpt>
   <trkpt lat="50.731320000000004" lon="13.041060000000002">
    <ele>361.36</ele>
   </trkpt>
   <trkpt lat="50.731120000000004" lon="13.041110000000002">
    <ele>361.36</ele>
   </trkpt>
   <trkpt lat="50.730940000000004" lon="13.04119">
    <ele>359.52</ele>
   </trkpt>
   <trkpt lat="50.73078" lon="13.04123">
    <ele>359.52</ele>
   </trkpt>
   <trkpt lat="50.73064" lon="13.04132">
    <ele>356.83000000000004</ele>
   </trkpt>
   <trkpt lat="50.73046" lon="13.041540000000001">
    <ele>356.83000000000004</ele>
   </trkpt>
   <trkpt lat="50.73006500259914" lon="13.04231500647456">
    <ele>355.1</ele>
   </trkpt>
   <trkpt lat="50.729670000000006" lon="13.043090000000001">
    <ele>355.64</ele>
   </trkpt>
   <trkpt lat="50.729400000000005" lon="13.04367">
    <ele>357.42</ele>
   </trkpt>
   <trkpt lat="50.7293" lon="13.043940000000001">
    <ele>357.42</ele>
   </trkpt>
   <trkpt lat="50.729130000000005" lon="13.044530000000002">
    <ele>358.83000000000004</ele>
   </trkpt>
   <trkpt lat="50.729040000000005" lon="13.04504">
    <ele>358.71000000000004</ele>
   </trkpt>
   <trkpt lat="50.72901" lon="13.045280000000002">
    <ele>358.59000000000003</ele>
   </trkpt>
   <trkpt lat="50.729020000000006" lon="13.04555">
    <ele>358.19</ele>
   </trkpt>
   <trkpt lat="50.729060000000004" lon="13.04583">
    <ele>358.00000000000006</ele>
   </trkpt>
   <trkpt lat="50.729305005145505" lon="13.04692999411754">
    <ele>352.83000000000004</ele>
   </trkpt>
   <trkpt lat="50.72955" lon="13.04803">
    <ele>348.2</ele>
   </trkpt>
   <trkpt lat="50.72973" lon="13.048910000000001">
    <ele>347.7</ele>
   </trkpt>
   <trkpt lat="50.72975" lon="13.049090000000001">
    <ele>347.89000000000004</ele>
   </trkpt>
   <trkpt lat="50.72974000000001" lon="13.049270000000002">
    <ele>347.89000000000004</ele>
   </trkpt>
   <trkpt lat="50.72968" lon="13.04959">
    <ele>348.52000000000004</ele>
   </trkpt>
   <trkpt lat="50.729580000000006" lon="13.04987">
    <ele>349.19000000000005</ele>
   </trkpt>
   <trkpt lat="50.72948" lon="13.050070000000002">
    <ele>350.33000000000004</ele>
   </trkpt>
   <trkpt lat="50.72932" lon="13.050270000000001">
    <ele>350.63000000000005</ele>
   </trkpt>
   <trkpt lat="50.729040000000005" lon="13.05048">
    <ele>351.1</ele>
   </trkpt>
   <trkpt lat="50.728820000000006" lon="13.05056">
    <ele>350.84000000000003</ele>
   </trkpt>
   <trkpt lat="50.72827" lon="13.05066">
    <ele>349.52000000000004</ele>
   </trkpt>
   <trkpt lat="50.72777000000001" lon="13.050860000000002">
    <ele>348.07000000000005</ele>
   </trkpt>
   <trkpt lat="50.727500000000006" lon="13.051020000000001">
    <ele>347.64</ele>
   </trkpt>
   <trkpt lat="50.72733" lon="13.051160000000001">
    <ele>347.48</ele>
   </trkpt>
   <trkpt lat="50.72719000000001" lon="13.05132">
    <ele>347.42</ele>
   </trkpt>
   <trkpt lat="50.727050000000006" lon="13.051530000000001">
    <ele>347.41</ele>
   </trkpt>
   <trkpt lat="50.726960000000005" lon="13.0517">
    <ele>347.41</ele>
   </trkpt>
   <trkpt lat="50.726800000000004" lon="13.05206">
    <ele>347.54</ele>
   </trkpt>
   <trkpt lat="50.72675" lon="13.052230000000002">
    <ele>347.46999999999997</ele>
   </trkpt>
   <trkpt lat="50.72654000000001" lon="13.05325">
    <ele>344.72</ele>
   </trkpt>
   <trkpt lat="50.72648" lon="13.053830000000001">
    <ele>342.46000000000004</ele>
   </trkpt>
   <trkpt lat="50.726470000000006" lon="13.05433">
    <ele>340.94</ele>
   </trkpt>
   <trkpt lat="50.726490000000005" lon="13.054990000000002">
    <ele>340.42</ele>
   </trkpt>
   <trkpt lat="50.726490000000005" lon="13.05498">
    <ele>340.42</ele>
   </trkpt>
   <trkpt lat="50.726510000000005" lon="13.055370000000002">
    <ele>340.45000000000005</ele>
   </trkpt>
   <trkpt lat="50.7265" lon="13.05625">
    <ele>340.66</ele>
   </trkpt>
   <trkpt lat="50.72648" lon="13.05644">
    <ele>341.17</ele>
   </trkpt>
   <trkpt lat="50.726440000000004" lon="13.056560000000001">
    <ele>341.17</ele>
   </trkpt>
   <trkpt lat="50.72618000000001" lon="13.056210000000002">
    <ele>341.52000000000004</ele>
   </trkpt>
   <trkpt lat="50.726130000000005" lon="13.0561">
    <ele>341.65</ele>
   </trkpt>
   <trkpt lat="50.72608" lon="13.055880000000002">
    <ele>341.99</ele>
   </trkpt>
   <trkpt lat="50.726060000000004" lon="13.05536">
    <ele>343.61</ele>
   </trkpt>
   <trkpt lat="50.725930000000005" lon="13.054110000000001">
    <ele>346.13000000000005</ele>
   </trkpt>
   <trkpt lat="50.72594000338571" lon="13.053220000339534">
    <ele>348.63000000000005</ele>
   </trkpt>
   <trkpt lat="50.725950000000005" lon="13.052330000000001">
    <ele>351.59000000000003</ele>
   </trkpt>
   <trkpt lat="50.726000000000006" lon="13.051950000000001">
    <ele>351.95000000000005</ele>
   </trkpt>
   <trkpt lat="50.72612" lon="13.051430000000002">
    <ele>354.24000000000007</ele>
   </trkpt>
   <trkpt lat="50.72626" lon="13.05099">
    <ele>355.13000000000005</ele>
   </trkpt>
   <trkpt lat="50.72657" lon="13.050460000000001">
    <ele>358.05</ele>
   </trkpt>
   <trkpt lat="50.727030000000006" lon="13.049850000000001">
    <ele>360.09000000000003</ele>
   </trkpt>
   <trkpt lat="50.72724" lon="13.049640000000002">
    <ele>360.46</ele>
   </trkpt>
   <trkpt lat="50.7276" lon="13.049470000000001">
    <ele>362.37</ele>
   </trkpt>
   <trkpt lat="50.727810000000005" lon="13.0493">
    <ele>363.00000000000006</ele>
   </trkpt>
   <trkpt lat="50.72791" lon="13.049140000000001">
    <ele>363.3</ele>
   </trkpt>
   <trkpt lat="50.72813000000001" lon="13.048630000000001">
    <ele>365.2300000000001</ele>
   </trkpt>
   <trkpt lat="50.72827" lon="13.048150000000001">
    <ele>366.56000000000006</ele>
   </trkpt>
   <trkpt lat="50.728280000000005" lon="13.04798">
    <ele>366.56000000000006</ele>
   </trkpt>
   <trkpt lat="50.72824000000001" lon="13.047740000000001">
    <ele>367.4</ele>
   </trkpt>
   <trkpt lat="50.728000001497065" lon="13.04713999682021">
    <ele>368.37</ele>
   </trkpt>
   <trkpt lat="50.72776" lon="13.04654">
    <ele>369.76000000000005</ele>
   </trkpt>
   <trkpt lat="50.727590000000006" lon="13.046000000000001">
    <ele>370.49</ele>
   </trkpt>
   <trkpt lat="50.727520000000005" lon="13.045430000000001">
    <ele>371.02</ele>
   </trkpt>
   <trkpt lat="50.72749" lon="13.044340000000002">
    <ele>373.09000000000003</ele>
   </trkpt>
   <trkpt lat="50.727540000000005" lon="13.043500000000002">
    <ele>374.00000000000006</ele>
   </trkpt>
   <trkpt lat="50.727630000000005" lon="13.04274">
    <ele>376.3</ele>
   </trkpt>
   <trkpt lat="50.72769" lon="13.042420000000002">
    <ele>377.67</ele>
   </trkpt>
   <trkpt lat="50.72773" lon="13.042280000000002">
    <ele>377.86</ele>
   </trkpt>
   <trkpt lat="50.72815000000001" lon="13.041210000000001">
    <ele>379.70000000000005</ele>
   </trkpt>
   <trkpt lat="50.728190000000005" lon="13.04104">
    <ele>380.18</ele>
   </trkpt>
   <trkpt lat="50.728190000000005" lon="13.04085">
    <ele>380.33000000000004</ele>
   </trkpt>
   <trkpt lat="50.72816" lon="13.04067">
    <ele>380.43000000000006</ele>
   </trkpt>
   <trkpt lat="50.728100000000005" lon="13.04057">
    <ele>380.46000000000004</ele>
   </trkpt>
   <trkpt lat="50.72802" lon="13.040490000000002">
    <ele>380.46000000000004</ele>
   </trkpt>
   <trkpt lat="50.72758" lon="13.040270000000001">
    <ele>380.81</ele>
   </trkpt>
   <trkpt lat="50.72739000000001" lon="13.0401">
    <ele>380.87000000000006</ele>
   </trkpt>
   <trkpt lat="50.727160000000005" lon="13.039750000000002">
    <ele>381.17</ele>
   </trkpt>
   <trkpt lat="50.72695" lon="13.0393">
    <ele>381.48</ele>
   </trkpt>
   <trkpt lat="50.72684" lon="13.03902">
    <ele>381.54</ele>
   </trkpt>
   <trkpt lat="50.72677" lon="13.0387">
    <ele>381.6</ele>
   </trkpt>
   <trkpt lat="50.72673" lon="13.038380000000002">
    <ele>381.71999999999997</ele>
   </trkpt>
   <trkpt lat="50.72674000000001" lon="13.037840000000001">
    <ele>381.91</ele>
   </trkpt>
   <trkpt lat="50.726800000000004" lon="13.037210000000002">
    <ele>382.37000000000006</ele>
   </trkpt>
   <trkpt lat="50.72677" lon="13.03672">
    <ele>383.35</ele>
   </trkpt>
   <trkpt lat="50.72672000000001" lon="13.03654">
    <ele>383.65000000000003</ele>
   </trkpt>
   <trkpt lat="50.72664" lon="13.036370000000002">
    <ele>383.78000000000003</ele>
   </trkpt>
   <trkpt lat="50.726560000000006" lon="13.036290000000001">
    <ele>383.74</ele>
   </trkpt>
   <trkpt lat="50.72636000000001" lon="13.03621">
    <ele>383.58000000000004</ele>
   </trkpt>
   <trkpt lat="50.72574" lon="13.036280000000001">
    <ele>382.74</ele>
   </trkpt>
   <trkpt lat="50.7252" lon="13.03625">
    <ele>382.32000000000005</ele>
   </trkpt>
   <trkpt lat="50.72473" lon="13.03607">
    <ele>382.23</ele>
   </trkpt>
   <trkpt lat="50.724520000000005" lon="13.03597">
    <ele>382.27000000000004</ele>
   </trkpt>
   <trkpt lat="50.72433" lon="13.035820000000001">
    <ele>382.25</ele>
   </trkpt>
   <trkpt lat="50.724120000000006" lon="13.035590000000001">
    <ele>382.3</ele>
   </trkpt>
   <trkpt lat="50.723940000000006" lon="13.03528">
    <ele>382.39</ele>
   </trkpt>
   <trkpt lat="50.72386" lon="13.035070000000001">
    <ele>382.31000000000006</ele>
   </trkpt>
   <trkpt lat="50.72382" lon="13.03484">
    <ele>382.04</ele>
   </trkpt>
   <trkpt lat="50.72379" lon="13.034530000000002">
    <ele>381.90000000000003</ele>
   </trkpt>
   <trkpt lat="50.723890000000004" lon="13.033320000000002">
    <ele>381.52000000000004</ele>
   </trkpt>
   <trkpt lat="50.72390000000001" lon="13.03274">
    <ele>381.77000000000004</ele>
   </trkpt>
   <trkpt lat="50.723870000000005" lon="13.03255">
    <ele>381.77000000000004</ele>
   </trkpt>
   <trkpt lat="50.72382" lon="13.032390000000001">
    <ele>381.82000000000005</ele>
   </trkpt>
   <trkpt lat="50.72377" lon="13.03227">
    <ele>382.13</ele>
   </trkpt>
   <trkpt lat="50.723560000000006" lon="13.031970000000001">
    <ele>382.83</ele>
   </trkpt>
   <trkpt lat="50.723090000000006" lon="13.031550000000001">
    <ele>383.28000000000003</ele>
   </trkpt>
   <trkpt lat="50.72292" lon="13.031350000000002">
    <ele>383.28000000000003</ele>
   </trkpt>
   <trkpt lat="50.722280000000005" lon="13.030380000000001">
    <ele>383.07</ele>
   </trkpt>
   <trkpt lat="50.722080000000005" lon="13.029980000000002">
    <ele>383.01</ele>
   </trkpt>
   <trkpt lat="50.721790000000006" lon="13.029240000000001">
    <ele>382.78000000000003</ele>
   </trkpt>
   <trkpt lat="50.721700000000006" lon="13.028830000000001">
    <ele>382.53000000000003</ele>
   </trkpt>
   <trkpt lat="50.72164" lon="13.028410000000001">
    <ele>382.03000000000003</ele>
   </trkpt>
   <trkpt lat="50.72162" lon="13.02804">
    <ele>381.49000000000007</ele>
   </trkpt>
   <trkpt lat="50.721650000000004" lon="13.02758">
    <ele>381.43000000000006</ele>
   </trkpt>
   <trkpt lat="50.72176" lon="13.027030000000002">
    <ele>381.6</ele>
   </trkpt>
   <trkpt lat="50.72189" lon="13.0266">
    <ele>381.91</ele>
   </trkpt>
   <trkpt lat="50.72218" lon="13.025830000000001">
    <ele>381.98</ele>
   </trkpt>
   <trkpt lat="50.72231000000001" lon="13.025430000000002">
    <ele>382.05000000000007</ele>
   </trkpt>
   <trkpt lat="50.72242000000001" lon="13.02495">
    <ele>381.96000000000004</ele>
   </trkpt>
   <trkpt lat="50.722460000000005" lon="13.02458">
    <ele>381.90000000000003</ele>
   </trkpt>
   <trkpt lat="50.72243" lon="13.024320000000001">
    <ele>381.90000000000003</ele>
   </trkpt>
   <trkpt lat="50.722390000000004" lon="13.024170000000002">
    <ele>381.79</ele>
   </trkpt>
   <trkpt lat="50.72225" lon="13.023900000000001">
    <ele>381.81</ele>
   </trkpt>
   <trkpt lat="50.722170000000006" lon="13.023810000000001">
    <ele>381.81</ele>
   </trkpt>
   <trkpt lat="50.72198" lon="13.023650000000002">
    <ele>381.81</ele>
   </trkpt>
   <trkpt lat="50.72139500044738" lon="13.023294995512641">
    <ele>381.84000000000003</ele>
   </trkpt>
   <trkpt lat="50.72081000000001" lon="13.02294">
    <ele>381.75</ele>
   </trkpt>
   <trkpt lat="50.72064" lon="13.02274">
    <ele>381.51</ele>
   </trkpt>
   <trkpt lat="50.72059" lon="13.02256">
    <ele>381.51</ele>
   </trkpt>
   <trkpt lat="50.720600000000005" lon="13.022250000000001">
    <ele>381.37000000000006</ele>
   </trkpt>
   <trkpt lat="50.72075" lon="13.022250000000001">
    <ele>380.74</ele>
   </trkpt>
   <trkpt lat="50.72101000000001" lon="13.02218">
    <ele>380.24</ele>
   </trkpt>
   <trkpt lat="50.72108" lon="13.022150000000002">
    <ele>380.61</ele>
   </trkpt>
   <trkpt lat="50.72193000000001" lon="13.021980000000001">
    <ele>391.63000000000005</ele>
   </trkpt>
   <trkpt lat="50.72214" lon="13.021960000000002">
    <ele>394.62</ele>
   </trkpt>
   <trkpt lat="50.72232" lon="13.021960000000002">
    <ele>396.46000000000004</ele>
   </trkpt>
   <trkpt lat="50.72240000000001" lon="13.021980000000001">
    <ele>396.36</ele>
   </trkpt>
   <trkpt lat="50.722570000000005" lon="13.022060000000002">
    <ele>397.65000000000003</ele>
   </trkpt>
   <trkpt lat="50.72274" lon="13.02218">
    <ele>401.23</ele>
   </trkpt>
   <trkpt lat="50.72289000000001" lon="13.02236">
    <ele>402.6</ele>
   </trkpt>
   <trkpt lat="50.72303" lon="13.022570000000002">
    <ele>404.93</ele>
   </trkpt>
   <trkpt lat="50.723380000000006" lon="13.02331">
    <ele>411.83000000000004</ele>
   </trkpt>
   <trkpt lat="50.72361" lon="13.02425">
    <ele>416.08000000000004</ele>
   </trkpt>
   <trkpt lat="50.72377" lon="13.024560000000001">
    <ele>417.97</ele>
   </trkpt>
   <trkpt lat="50.72388" lon="13.02471">
    <ele>418.58</ele>
   </trkpt>
   <trkpt lat="50.72393" lon="13.024750000000001">
    <ele>418.58</ele>
   </trkpt>
   <trkpt lat="50.724090000000004" lon="13.024790000000001">
    <ele>418.71000000000004</ele>
   </trkpt>
   <trkpt lat="50.724230000000006" lon="13.02472">
    <ele>418.7</ele>
   </trkpt>
   <trkpt lat="50.72435" lon="13.024610000000001">
    <ele>418.35</ele>
   </trkpt>
   <trkpt lat="50.72446000000001" lon="13.02443">
    <ele>418.35</ele>
   </trkpt>
   <trkpt lat="50.724560000000004" lon="13.0242">
    <ele>418.14</ele>
   </trkpt>
   <trkpt lat="50.72471" lon="13.02373">
    <ele>417.62000000000006</ele>
   </trkpt>
   <trkpt lat="50.72491" lon="13.022660000000002">
    <ele>417.57000000000005</ele>
   </trkpt>
   <trkpt lat="50.72498" lon="13.022490000000001">
    <ele>417.14</ele>
   </trkpt>
   <trkpt lat="50.72507" lon="13.022340000000002">
    <ele>416.66</ele>
   </trkpt>
   <trkpt lat="50.725150000000006" lon="13.02228">
    <ele>416.58000000000004</ele>
   </trkpt>
   <trkpt lat="50.72527" lon="13.022240000000002">
    <ele>416.51000000000005</ele>
   </trkpt>
   <trkpt lat="50.72552" lon="13.022210000000001">
    <ele>416.96000000000004</ele>
   </trkpt>
   <trkpt lat="50.725660000000005" lon="13.022150000000002">
    <ele>417.64</ele>
   </trkpt>
   <trkpt lat="50.725750000000005" lon="13.022060000000002">
    <ele>418.87</ele>
   </trkpt>
   <trkpt lat="50.72585" lon="13.0219">
    <ele>419.62000000000006</ele>
   </trkpt>
   <trkpt lat="50.72603" lon="13.021500000000001">
    <ele>422.43</ele>
   </trkpt>
   <trkpt lat="50.72619" lon="13.02133">
    <ele>424.33000000000004</ele>
   </trkpt>
   <trkpt lat="50.726440000000004" lon="13.02115">
    <ele>425.99</ele>
   </trkpt>
   <trkpt lat="50.726890000000004" lon="13.020900000000001">
    <ele>429.77000000000004</ele>
   </trkpt>
   <trkpt lat="50.72706" lon="13.020710000000001">
    <ele>432.34000000000003</ele>
   </trkpt>
   <trkpt lat="50.72719000000001" lon="13.020480000000001">
    <ele>432.34000000000003</ele>
   </trkpt>
   <trkpt lat="50.72751" lon="13.019530000000001">
    <ele>436.92</ele>
   </trkpt>
   <trkpt lat="50.72775000307573" lon="13.018690004099081">
    <ele>439.81</ele>
   </trkpt>
   <trkpt lat="50.727990000000005" lon="13.017850000000001">
    <ele>443.59000000000003</ele>
   </trkpt>
   <trkpt lat="50.72811" lon="13.01759">
    <ele>445.70000000000005</ele>
   </trkpt>
   <trkpt lat="50.72843000153248" lon="13.016990004111474">
    <ele>449.70000000000005</ele>
   </trkpt>
   <trkpt lat="50.728750000000005" lon="13.016390000000001">
    <ele>450.41</ele>
   </trkpt>
   <trkpt lat="50.72918000000001" lon="13.01603">
    <ele>455.32000000000005</ele>
   </trkpt>
   <trkpt lat="50.72992000000001" lon="13.015740000000001">
    <ele>458.18</ele>
   </trkpt>
   <trkpt lat="50.7299" lon="13.01575">
    <ele>458.12</ele>
   </trkpt>
   <trkpt lat="50.73042500001022" lon="13.015545002363645">
    <ele>461.6</ele>
   </trkpt>
   <trkpt lat="50.73095000000001" lon="13.015340000000002">
    <ele>462.94</ele>
   </trkpt>
   <trkpt lat="50.73116" lon="13.01523">
    <ele>463.22</ele>
   </trkpt>
   <trkpt lat="50.731280000000005" lon="13.01518">
    <ele>463.27</ele>
   </trkpt>
   <trkpt lat="50.731735000496506" lon="13.014870002952831">
    <ele>459.39</ele>
   </trkpt>
   <trkpt lat="50.73219" lon="13.014560000000001">
    <ele>455.25000000000006</ele>
   </trkpt>
   <trkpt lat="50.732440000000004" lon="13.014360000000002">
    <ele>451.81000000000006</ele>
   </trkpt>
   <trkpt lat="50.73306" lon="13.01373">
    <ele>445.85</ele>
   </trkpt>
   <trkpt lat="50.733630000000005" lon="13.013150000000001">
    <ele>441.12</ele>
   </trkpt>
   <trkpt lat="50.73389" lon="13.012820000000001">
    <ele>439.06000000000006</ele>
   </trkpt>
   <trkpt lat="50.73411" lon="13.01261">
    <ele>438.78000000000003</ele>
   </trkpt>
   <trkpt lat="50.734460000000006" lon="13.012360000000001">
    <ele>437.86</ele>
   </trkpt>
   <trkpt lat="50.73456" lon="13.01232">
    <ele>437.7300000000001</ele>
   </trkpt>
   <trkpt lat="50.734465002443365" lon="13.011564998514846">
    <ele>440.42</ele>
   </trkpt>
   <trkpt lat="50.734370000000006" lon="13.010810000000001">
    <ele>441.79</ele>
   </trkpt>
   <trkpt lat="50.734350000000006" lon="13.010340000000001">
    <ele>444.27000000000004</ele>
   </trkpt>
   <trkpt lat="50.73436" lon="13.010060000000001">
    <ele>444.81</ele>
   </trkpt>
   <trkpt lat="50.734410000000004" lon="13.0098">
    <ele>445.71000000000004</ele>
   </trkpt>
   <trkpt lat="50.73474" lon="13.008600000000001">
    <ele>450.71000000000004</ele>
   </trkpt>
   <trkpt lat="50.734910000000006" lon="13.00783">
    <ele>452.38000000000005</ele>
   </trkpt>
   <trkpt lat="50.735200000000006" lon="13.006870000000001">
    <ele>454.41</ele>
   </trkpt>
   <trkpt lat="50.73541" lon="13.00655">
    <ele>455.59000000000003</ele>
   </trkpt>
   <trkpt lat="50.73554000000001" lon="13.00613">
    <ele>456.1000000000001</ele>
   </trkpt>
   <trkpt lat="50.73583000000001" lon="13.005040000000001">
    <ele>456.47</ele>
   </trkpt>
   <trkpt lat="50.736000000000004" lon="13.00464">
    <ele>457.22</ele>
   </trkpt>
   <trkpt lat="50.73613" lon="13.004360000000002">
    <ele>457.48</ele>
   </trkpt>
   <trkpt lat="50.736250000000005" lon="13.00417">
    <ele>457.76000000000005</ele>
   </trkpt>
   <trkpt lat="50.73641000000001" lon="13.003670000000001">
    <ele>458.92</ele>
   </trkpt>
   <trkpt lat="50.736520000000006" lon="13.003190000000002">
    <ele>460.5400000000001</ele>
   </trkpt>
   <trkpt lat="50.736560000000004" lon="13.003120000000001">
    <ele>460.5400000000001</ele>
   </trkpt>
   <trkpt lat="50.73724000000001" lon="13.003160000000001">
    <ele>465.17</ele>
   </trkpt>
   <trkpt lat="50.73734" lon="13.003160000000001">
    <ele>465.38</ele>
   </trkpt>
   <trkpt lat="50.737390000000005" lon="13.00313">
    <ele>465.38</ele>
   </trkpt>
   <trkpt lat="50.73763" lon="13.00289">
    <ele>466.86000000000007</ele>
   </trkpt>
   <trkpt lat="50.73809000000001" lon="13.00233">
    <ele>470.1</ele>
   </trkpt>
   <trkpt lat="50.73836000000001" lon="13.00196">
    <ele>472.86000000000007</ele>
   </trkpt>
   <trkpt lat="50.73888" lon="13.001190000000001">
    <ele>474.04</ele>
   </trkpt>
   <trkpt lat="50.73928" lon="13.00182">
    <ele>475.28000000000003</ele>
   </trkpt>
   <trkpt lat="50.73955" lon="13.002160000000002">
    <ele>476.07000000000005</ele>
   </trkpt>
   <trkpt lat="50.739650000000005" lon="13.00224">
    <ele>476.07000000000005</ele>
   </trkpt>
   <trkpt lat="50.74013000032195" lon="13.0025349969454">
    <ele>478.07000000000005</ele>
   </trkpt>
   <trkpt lat="50.740610000000004" lon="13.002830000000001">
    <ele>478.98</ele>
   </trkpt>
   <trkpt lat="50.74087" lon="13.00308">
    <ele>479.28000000000003</ele>
   </trkpt>
   <trkpt lat="50.741240000000005" lon="13.003570000000002">
    <ele>480.06000000000006</ele>
   </trkpt>
   <trkpt lat="50.741290000000006" lon="13.003490000000001">
    <ele>480.06000000000006</ele>
   </trkpt>
   <trkpt lat="50.74191500348398" lon="13.004384988138442">
    <ele>480.59000000000003</ele>
   </trkpt>
   <trkpt lat="50.742540000000005" lon="13.00528">
    <ele>480.01000000000005</ele>
   </trkpt>
   <trkpt lat="50.7428950007919" lon="13.00575999609953">
    <ele>478.29</ele>
   </trkpt>
   <trkpt lat="50.74325" lon="13.006240000000002">
    <ele>477.49</ele>
   </trkpt>
   <trkpt lat="50.74325" lon="13.00623">
    <ele>477.5</ele>
   </trkpt>
   <trkpt lat="50.74354" lon="13.006630000000001">
    <ele>477.15000000000003</ele>
   </trkpt>
   <trkpt lat="50.744040000000005" lon="13.00735">
    <ele>476.68000000000006</ele>
   </trkpt>
   <trkpt lat="50.744400000000006" lon="13.00777">
    <ele>477.12000000000006</ele>
   </trkpt>
   <trkpt lat="50.74483000000001" lon="13.008160000000002">
    <ele>478.55</ele>
   </trkpt>
   <trkpt lat="50.74546" lon="13.008610000000001">
    <ele>479.99</ele>
   </trkpt>
   <trkpt lat="50.746040000884285" lon="13.008943325036721">
    <ele>480.79</ele>
   </trkpt>
   <trkpt lat="50.7466200008184" lon="13.009276658332059">
    <ele>481.89000000000004</ele>
   </trkpt>
   <trkpt lat="50.74720000000001" lon="13.00961">
    <ele>483.52000000000004</ele>
   </trkpt>
   <trkpt lat="50.74796333527948" lon="13.010086651124492">
    <ele>484.59000000000003</ele>
   </trkpt>
   <trkpt lat="50.748726668615966" lon="13.010563317792819">
    <ele>487.26</ele>
   </trkpt>
   <trkpt lat="50.74949" lon="13.011040000000001">
    <ele>488.77000000000004</ele>
   </trkpt>
   <trkpt lat="50.75012" lon="13.01135">
    <ele>489.9100000000001</ele>
   </trkpt>
   <trkpt lat="50.75065000000001" lon="13.01152">
    <ele>490.77000000000004</ele>
   </trkpt>
   <trkpt lat="50.75128" lon="13.01158">
    <ele>493.04</ele>
   </trkpt>
   <trkpt lat="50.75212333338398" lon="13.011583333213425">
    <ele>495.86</ele>
   </trkpt>
   <trkpt lat="50.75296666676788" lon="13.011586666546958">
    <ele>497.33000000000004</ele>
   </trkpt>
   <trkpt lat="50.75381" lon="13.011590000000002">
    <ele>499.02</ele>
   </trkpt>
   <trkpt lat="50.75463000007096" lon="13.01161999947687">
    <ele>500.82000000000005</ele>
   </trkpt>
   <trkpt lat="50.75545" lon="13.011650000000001">
    <ele>502.50000000000006</ele>
   </trkpt>
   <trkpt lat="50.75591499990137" lon="13.011645000050738">
    <ele>503.4700000000001</ele>
   </trkpt>
   <trkpt lat="50.75638000000001" lon="13.011640000000002">
    <ele>505.16</ele>
   </trkpt>
   <trkpt lat="50.75721" lon="13.01177">
    <ele>506.6400000000001</ele>
   </trkpt>
   <trkpt lat="50.757600000000004" lon="13.011980000000001">
    <ele>506.81000000000006</ele>
   </trkpt>
   <trkpt lat="50.75818" lon="13.012390000000002">
    <ele>506.34</ele>
   </trkpt>
   <trkpt lat="50.75864000000001" lon="13.01284">
    <ele>505.77000000000004</ele>
   </trkpt>
   <trkpt lat="50.75900000000001" lon="13.013040000000002">
    <ele>506.61</ele>
   </trkpt>
   <trkpt lat="50.75898" lon="13.013150000000001">
    <ele>506.62000000000006</ele>
   </trkpt>
   <trkpt lat="50.75894" lon="13.013140000000002">
    <ele>506.56</ele>
   </trkpt>
   <trkpt lat="50.75889" lon="13.013150000000001">
    <ele>506.56</ele>
   </trkpt>
   <trkpt lat="50.75882000000001" lon="13.013230000000002">
    <ele>506.37</ele>
   </trkpt>
   <trkpt lat="50.7588" lon="13.013300000000001">
    <ele>506.37</ele>
   </trkpt>
   <trkpt lat="50.758790000000005" lon="13.01345">
    <ele>505.71</ele>
   </trkpt>
   <trkpt lat="50.758840000000006" lon="13.013580000000001">
    <ele>505.71</ele>
   </trkpt>
   <trkpt lat="50.75892" lon="13.01364">
    <ele>505.71</ele>
   </trkpt>
   <trkpt lat="50.75896" lon="13.01364">
    <ele>505.46000000000004</ele>
   </trkpt>
   <trkpt lat="50.75905" lon="13.013580000000001">
    <ele>505.46000000000004</ele>
   </trkpt>
   <trkpt lat="50.75918" lon="13.01382">
    <ele>504.8</ele>
   </trkpt>
   <trkpt lat="50.759330000000006" lon="13.01416">
    <ele>503.73</ele>
   </trkpt>
   <trkpt lat="50.75973000560248" lon="13.01530499020514">
    <ele>501.17</ele>
   </trkpt>
   <trkpt lat="50.760130000000004" lon="13.01645">
    <ele>498.33000000000004</ele>
   </trkpt>
   <trkpt lat="50.76037" lon="13.017030000000002">
    <ele>495.01000000000005</ele>
   </trkpt>
   <trkpt lat="50.76077333905494" lon="13.01784998580765">
    <ele>489.68000000000006</ele>
   </trkpt>
   <trkpt lat="50.761176672360406" lon="13.018669985750797">
    <ele>483.71000000000004</ele>
   </trkpt>
   <trkpt lat="50.76158" lon="13.019490000000001">
    <ele>477.62000000000006</ele>
   </trkpt>
   <trkpt lat="50.76182000000001" lon="13.020130000000002">
    <ele>474.31000000000006</ele>
   </trkpt>
   <trkpt lat="50.76198" lon="13.02082">
    <ele>471.62</ele>
   </trkpt>
   <trkpt lat="50.762010000000004" lon="13.02106">
    <ele>470.80000000000007</ele>
   </trkpt>
   <trkpt lat="50.76254" lon="13.020930000000002">
    <ele>470.65</ele>
   </trkpt>
   <trkpt lat="50.76305000000001" lon="13.02105">
    <ele>471.77000000000004</ele>
   </trkpt>
   <trkpt lat="50.763580000219584" lon="13.021219998105174">
    <ele>475.17</ele>
   </trkpt>
   <trkpt lat="50.76411" lon="13.02139">
    <ele>478.55</ele>
   </trkpt>
   <trkpt lat="50.76437000000001" lon="13.021440000000002">
    <ele>479.05</ele>
   </trkpt>
   <trkpt lat="50.76455000000001" lon="13.02143">
    <ele>480.45000000000005</ele>
   </trkpt>
   <trkpt lat="50.76469" lon="13.02138">
    <ele>480.45000000000005</ele>
   </trkpt>
   <trkpt lat="50.764880000000005" lon="13.021220000000001">
    <ele>482.25</ele>
   </trkpt>
   <trkpt lat="50.76561000228113" lon="13.020470011829168">
    <ele>487.37</ele>
   </trkpt>
   <trkpt lat="50.76634000000001" lon="13.019720000000001">
    <ele>491.15000000000003</ele>
   </trkpt>
   <trkpt lat="50.766690000000004" lon="13.019390000000001">
    <ele>494.2900000000001</ele>
   </trkpt>
   <trkpt lat="50.767230000000005" lon="13.01898">
    <ele>497.56000000000006</ele>
   </trkpt>
   <trkpt lat="50.76783000077346" lon="13.018570005220885">
    <ele>500.74000000000007</ele>
   </trkpt>
   <trkpt lat="50.76843" lon="13.018160000000002">
    <ele>505.65000000000003</ele>
   </trkpt>
   <trkpt lat="50.768750000000004" lon="13.01791">
    <ele>508.41</ele>
   </trkpt>
   <trkpt lat="50.769330000000004" lon="13.01721">
    <ele>512.0400000000001</ele>
   </trkpt>
   <trkpt lat="50.7695" lon="13.01693">
    <ele>513.0600000000001</ele>
   </trkpt>
   <trkpt lat="50.769805001474914" lon="13.016345003791438">
    <ele>512.42</ele>
   </trkpt>
   <trkpt lat="50.77011" lon="13.01576">
    <ele>510.34000000000003</ele>
   </trkpt>
   <trkpt lat="50.770473338178085" lon="13.015006678384804">
    <ele>506.4700000000001</ele>
   </trkpt>
   <trkpt lat="50.77083667150393" lon="13.014253345067186">
    <ele>502.33000000000004</ele>
   </trkpt>
   <trkpt lat="50.77120000000001" lon="13.0135">
    <ele>499.87</ele>
   </trkpt>
   <trkpt lat="50.77145" lon="13.012960000000001">
    <ele>498.24</ele>
   </trkpt>
   <trkpt lat="50.771510000000006" lon="13.012780000000001">
    <ele>498.24</ele>
   </trkpt>
   <trkpt lat="50.77163" lon="13.012070000000001">
    <ele>493.54</ele>
   </trkpt>
   <trkpt lat="50.771510000000006" lon="13.010710000000001">
    <ele>486.81</ele>
   </trkpt>
   <trkpt lat="50.771420000000006" lon="13.01026">
    <ele>485.33000000000004</ele>
   </trkpt>
   <trkpt lat="50.77141" lon="13.009920000000001">
    <ele>484.76</ele>
   </trkpt>
   <trkpt lat="50.77149000000001" lon="13.00961">
    <ele>484.45000000000005</ele>
   </trkpt>
   <trkpt lat="50.77167000000001" lon="13.009240000000002">
    <ele>485.40000000000003</ele>
   </trkpt>
   <trkpt lat="50.77178000000001" lon="13.00909">
    <ele>486.15000000000003</ele>
   </trkpt>
   <trkpt lat="50.772020000000005" lon="13.00886">
    <ele>488.27000000000004</ele>
   </trkpt>
   <trkpt lat="50.77225000000001" lon="13.00871">
    <ele>489.12000000000006</ele>
   </trkpt>
   <trkpt lat="50.77241" lon="13.00853">
    <ele>490.92</ele>
   </trkpt>
   <trkpt lat="50.772540000000006" lon="13.00843">
    <ele>490.92</ele>
   </trkpt>
   <trkpt lat="50.77266" lon="13.008310000000002">
    <ele>491.8</ele>
   </trkpt>
   <trkpt lat="50.77313000351055" lon="13.00767334606744">
    <ele>494.07000000000005</ele>
   </trkpt>
   <trkpt lat="50.77360000355548" lon="13.007036679340114">
    <ele>495.41</ele>
   </trkpt>
   <trkpt lat="50.77407" lon="13.006400000000001">
    <ele>496.04</ele>
   </trkpt>
   <trkpt lat="50.77443500129704" lon="13.005880003856994">
    <ele>495.90000000000003</ele>
   </trkpt>
   <trkpt lat="50.774800000000006" lon="13.005360000000001">
    <ele>495.25</ele>
   </trkpt>
   <trkpt lat="50.77516500109209" lon="13.004890003477628">
    <ele>494.44000000000005</ele>
   </trkpt>
   <trkpt lat="50.77553" lon="13.004420000000001">
    <ele>492.1</ele>
   </trkpt>
   <trkpt lat="50.77591500259475" lon="13.0036350065427">
    <ele>486.11</ele>
   </trkpt>
   <trkpt lat="50.776300000000006" lon="13.00285">
    <ele>483.92</ele>
   </trkpt>
   <trkpt lat="50.776710003137374" lon="13.001995007469828">
    <ele>479.90000000000003</ele>
   </trkpt>
   <trkpt lat="50.777120000000004" lon="13.001140000000001">
    <ele>478.52000000000004</ele>
   </trkpt>
   <trkpt lat="50.7775" lon="12.999920000000001">
    <ele>480.15000000000003</ele>
   </trkpt>
   <trkpt lat="50.777590000000004" lon="12.999450000000001">
    <ele>480.98</ele>
   </trkpt>
   <trkpt lat="50.77761" lon="12.99919">
    <ele>482.08000000000004</ele>
   </trkpt>
   <trkpt lat="50.777440000000006" lon="12.998270000000002">
    <ele>483.83000000000004</ele>
   </trkpt>
   <trkpt lat="50.77741" lon="12.99782">
    <ele>484.66</ele>
   </trkpt>
   <trkpt lat="50.777480000000004" lon="12.997250000000001">
    <ele>485.43</ele>
   </trkpt>
   <trkpt lat="50.77760000000001" lon="12.99671">
    <ele>486.51000000000005</ele>
   </trkpt>
   <trkpt lat="50.7777" lon="12.996440000000002">
    <ele>486.85</ele>
   </trkpt>
   <trkpt lat="50.77783" lon="12.996170000000001">
    <ele>486.84000000000003</ele>
   </trkpt>
   <trkpt lat="50.77796000000001" lon="12.995970000000002">
    <ele>486.77000000000004</ele>
   </trkpt>
   <trkpt lat="50.778110000000005" lon="12.995780000000002">
    <ele>486.56000000000006</ele>
   </trkpt>
   <trkpt lat="50.778220000000005" lon="12.995690000000002">
    <ele>486.25</ele>
   </trkpt>
   <trkpt lat="50.77835" lon="12.99562">
    <ele>486.12000000000006</ele>
   </trkpt>
   <trkpt lat="50.77854000000001" lon="12.995560000000001">
    <ele>485.88000000000005</ele>
   </trkpt>
   <trkpt lat="50.77864" lon="12.995550000000001">
    <ele>485.65000000000003</ele>
   </trkpt>
   <trkpt lat="50.779125000049426" lon="12.99556499984593">
    <ele>485.26</ele>
   </trkpt>
   <trkpt lat="50.779610000000005" lon="12.99558">
    <ele>484.84000000000003</ele>
   </trkpt>
   <trkpt lat="50.779810000000005" lon="12.995610000000001">
    <ele>484.82</ele>
   </trkpt>
   <trkpt lat="50.77984000000001" lon="12.995550000000001">
    <ele>484.82</ele>
   </trkpt>
   <trkpt lat="50.779880000000006" lon="12.99552">
    <ele>484.82</ele>
   </trkpt>
   <trkpt lat="50.780060000000006" lon="12.995550000000001">
    <ele>484.50000000000006</ele>
   </trkpt>
   <trkpt lat="50.7805150011582" lon="12.995025005131469">
    <ele>483.45000000000005</ele>
   </trkpt>
   <trkpt lat="50.78097" lon="12.9945">
    <ele>483.41</ele>
   </trkpt>
   <trkpt lat="50.78144" lon="12.99393">
    <ele>483.57000000000005</ele>
   </trkpt>
   <trkpt lat="50.781740000000006" lon="12.99365">
    <ele>483.83000000000004</ele>
   </trkpt>
   <trkpt lat="50.78182" lon="12.993580000000001">
    <ele>483.83000000000004</ele>
   </trkpt>
   <trkpt lat="50.782590000000006" lon="12.99319">
    <ele>485.43</ele>
   </trkpt>
   <trkpt lat="50.78291" lon="12.99299">
    <ele>486.45000000000005</ele>
   </trkpt>
   <trkpt lat="50.78351500082482" lon="12.992525006093235">
    <ele>488.19</ele>
   </trkpt>
   <trkpt lat="50.78412" lon="12.99206">
    <ele>488.19</ele>
   </trkpt>
   <trkpt lat="50.784670000000006" lon="12.991710000000001">
    <ele>487.39000000000004</ele>
   </trkpt>
   <trkpt lat="50.785030000000006" lon="12.991550000000002">
    <ele>487.32</ele>
   </trkpt>
   <trkpt lat="50.785900000000005" lon="12.991380000000001">
    <ele>487.03000000000003</ele>
   </trkpt>
   <trkpt lat="50.786635000028234" lon="12.991399999686296">
    <ele>487.2</ele>
   </trkpt>
   <trkpt lat="50.78737" lon="12.991420000000002">
    <ele>488.90000000000003</ele>
   </trkpt>
   <trkpt lat="50.787890000000004" lon="12.991380000000001">
    <ele>488.97</ele>
   </trkpt>
   <trkpt lat="50.78801000000001" lon="12.991330000000001">
    <ele>488.74000000000007</ele>
   </trkpt>
   <trkpt lat="50.78813" lon="12.99125">
    <ele>488.44000000000005</ele>
   </trkpt>
   <trkpt lat="50.788340000000005" lon="12.99103">
    <ele>487.03000000000003</ele>
   </trkpt>
   <trkpt lat="50.789030003203806" lon="12.990160012881168">
    <ele>483.72</ele>
   </trkpt>
   <trkpt lat="50.78972" lon="12.98929">
    <ele>479.38</ele>
   </trkpt>
   <trkpt lat="50.78999" lon="12.988900000000001">
    <ele>478.47</ele>
   </trkpt>
   <trkpt lat="50.79023" lon="12.988600000000002">
    <ele>477.08000000000004</ele>
   </trkpt>
   <trkpt lat="50.790595001034255" lon="12.988135003490735">
    <ele>477.08000000000004</ele>
   </trkpt>
   <trkpt lat="50.790960000000005" lon="12.987670000000001">
    <ele>473.55</ele>
   </trkpt>
   <trkpt lat="50.791360000000005" lon="12.987300000000001">
    <ele>471.73</ele>
   </trkpt>
   <trkpt lat="50.79215000000001" lon="12.986720000000002">
    <ele>467.15000000000003</ele>
   </trkpt>
   <trkpt lat="50.79274" lon="12.986250000000002">
    <ele>463.23</ele>
   </trkpt>
   <trkpt lat="50.792930000000005" lon="12.98605">
    <ele>462.52000000000004</ele>
   </trkpt>
   <trkpt lat="50.793240000000004" lon="12.985550000000002">
    <ele>459.74</ele>
   </trkpt>
   <trkpt lat="50.7938000089972" lon="12.98452335795977">
    <ele>457.54</ele>
   </trkpt>
   <trkpt lat="50.79436000898384" lon="12.983496691318098">
    <ele>456.43000000000006</ele>
   </trkpt>
   <trkpt lat="50.794920000000005" lon="12.982470000000001">
    <ele>455.67</ele>
   </trkpt>
   <trkpt lat="50.795285001637886" lon="12.981835005108085">
    <ele>455.44</ele>
   </trkpt>
   <trkpt lat="50.79565" lon="12.981200000000001">
    <ele>456.09000000000003</ele>
   </trkpt>
   <trkpt lat="50.795840000000005" lon="12.981010000000001">
    <ele>456.33</ele>
   </trkpt>
   <trkpt lat="50.79601" lon="12.980900000000002">
    <ele>456.36</ele>
   </trkpt>
   <trkpt lat="50.79659" lon="12.980730000000001">
    <ele>455.96000000000004</ele>
   </trkpt>
   <trkpt lat="50.79675" lon="12.98066">
    <ele>455.68</ele>
   </trkpt>
   <trkpt lat="50.7969" lon="12.980550000000001">
    <ele>455.3</ele>
   </trkpt>
   <trkpt lat="50.79697" lon="12.98046">
    <ele>454.94</ele>
   </trkpt>
   <trkpt lat="50.797070000000005" lon="12.98023">
    <ele>454.13000000000005</ele>
   </trkpt>
   <trkpt lat="50.79710000000001" lon="12.980110000000002">
    <ele>454.13000000000005</ele>
   </trkpt>
   <trkpt lat="50.79711" lon="12.979830000000002">
    <ele>453.81000000000006</ele>
   </trkpt>
   <trkpt lat="50.797290000000004" lon="12.979820000000002">
    <ele>453.67</ele>
   </trkpt>
   <trkpt lat="50.797430000000006" lon="12.979840000000001">
    <ele>453.09000000000003</ele>
   </trkpt>
   <trkpt lat="50.797720000000005" lon="12.98">
    <ele>451.70000000000005</ele>
   </trkpt>
   <trkpt lat="50.79784" lon="12.98009">
    <ele>451.05000000000007</ele>
   </trkpt>
   <trkpt lat="50.79838500121376" lon="12.98059999414773">
    <ele>448.82000000000005</ele>
   </trkpt>
   <trkpt lat="50.798930000000006" lon="12.981110000000001">
    <ele>445.62</ele>
   </trkpt>
   <trkpt lat="50.79907000000001" lon="12.981290000000001">
    <ele>445.62</ele>
   </trkpt>
   <trkpt lat="50.799200000000006" lon="12.981510000000002">
    <ele>444.64000000000004</ele>
   </trkpt>
   <trkpt lat="50.79956000000001" lon="12.982320000000001">
    <ele>440.66</ele>
   </trkpt>
   <trkpt lat="50.79975" lon="12.982850000000001">
    <ele>434.31</ele>
   </trkpt>
   <trkpt lat="50.799980000000005" lon="12.983640000000001">
    <ele>428.51000000000005</ele>
   </trkpt>
   <trkpt lat="50.80024" lon="12.984010000000001">
    <ele>426.18000000000006</ele>
   </trkpt>
   <trkpt lat="50.80050000000001" lon="12.98426">
    <ele>424.28000000000003</ele>
   </trkpt>
   <trkpt lat="50.8006" lon="12.984330000000002">
    <ele>423.90000000000003</ele>
   </trkpt>
   <trkpt lat="50.80082" lon="12.98436">
    <ele>422.87</ele>
   </trkpt>
   <trkpt lat="50.80154" lon="12.9844">
    <ele>422.28000000000003</ele>
   </trkpt>
   <trkpt lat="50.802070000423846" lon="12.984589997941509">
    <ele>420.98</ele>
   </trkpt>
   <trkpt lat="50.802600000000005" lon="12.98478">
    <ele>419.22</ele>
   </trkpt>
   <trkpt lat="50.803200000000004" lon="12.985050000000001">
    <ele>415.68000000000006</ele>
   </trkpt>
   <trkpt lat="50.803380000000004" lon="12.98511">
    <ele>413.64</ele>
   </trkpt>
   <trkpt lat="50.803740000000005" lon="12.985180000000001">
    <ele>412.91</ele>
   </trkpt>
   <trkpt lat="50.804480000000005" lon="12.985220000000002">
    <ele>408.45000000000005</ele>
   </trkpt>
   <trkpt lat="50.804640000000006" lon="12.98525">
    <ele>407.15</ele>
   </trkpt>
   <trkpt lat="50.804840000000006" lon="12.98539">
    <ele>406.45000000000005</ele>
   </trkpt>
   <trkpt lat="50.80527000000001" lon="12.98581">
    <ele>403.83000000000004</ele>
   </trkpt>
   <trkpt lat="50.805690000000006" lon="12.98609">
    <ele>402.97</ele>
   </trkpt>
   <trkpt lat="50.806110000000004" lon="12.98657">
    <ele>400.61</ele>
   </trkpt>
   <trkpt lat="50.806470000000004" lon="12.987110000000001">
    <ele>398.99</ele>
   </trkpt>
   <trkpt lat="50.80662" lon="12.987300000000001">
    <ele>398.53000000000003</ele>
   </trkpt>
   <trkpt lat="50.80693" lon="12.987540000000001">
    <ele>397.64000000000004</ele>
   </trkpt>
   <trkpt lat="50.806920000000005" lon="12.987540000000001">
    <ele>397.65000000000003</ele>
   </trkpt>
   <trkpt lat="50.807390000000005" lon="12.987910000000001">
    <ele>395.87000000000006</ele>
   </trkpt>
   <trkpt lat="50.80756" lon="12.98803">
    <ele>395.87000000000006</ele>
   </trkpt>
   <trkpt lat="50.80773000000001" lon="12.98812">
    <ele>394.98</ele>
   </trkpt>
   <trkpt lat="50.807860000000005" lon="12.988140000000001">
    <ele>394.85</ele>
   </trkpt>
   <trkpt lat="50.80796" lon="12.988140000000001">
    <ele>394.69000000000005</ele>
   </trkpt>
   <trkpt lat="50.80841" lon="12.988040000000002">
    <ele>393.58000000000004</ele>
   </trkpt>
   <trkpt lat="50.808960000000006" lon="12.987990000000002">
    <ele>392.0</ele>
   </trkpt>
   <trkpt lat="50.809400000000004" lon="12.988040000000002">
    <ele>391.1</ele>
   </trkpt>
   <trkpt lat="50.80997000000001" lon="12.988000000000001">
    <ele>389.71000000000004</ele>
   </trkpt>
   <trkpt lat="50.81067500046986" lon="12.988309995347281">
    <ele>387.5</ele>
   </trkpt>
   <trkpt lat="50.81138000000001" lon="12.988620000000001">
    <ele>385.25000000000006</ele>
   </trkpt>
   <trkpt lat="50.811490000000006" lon="12.98863">
    <ele>385.25000000000006</ele>
   </trkpt>
   <trkpt lat="50.812110000000004" lon="12.988410000000002">
    <ele>383.26000000000005</ele>
   </trkpt>
   <trkpt lat="50.812900000000006" lon="12.9884">
    <ele>380.73</ele>
   </trkpt>
   <trkpt lat="50.81363" lon="12.98825">
    <ele>379.15000000000003</ele>
   </trkpt>
   <trkpt lat="50.81373000000001" lon="12.9882">
    <ele>378.81</ele>
   </trkpt>
   <trkpt lat="50.813860000000005" lon="12.988090000000001">
    <ele>378.81</ele>
   </trkpt>
   <trkpt lat="50.81394" lon="12.988000000000001">
    <ele>378.66</ele>
   </trkpt>
   <trkpt lat="50.81405" lon="12.98778">
    <ele>378.47</ele>
   </trkpt>
   <trkpt lat="50.814240000000005" lon="12.987110000000001">
    <ele>377.87</ele>
   </trkpt>
   <trkpt lat="50.814490000000006" lon="12.9861">
    <ele>376.95</ele>
   </trkpt>
   <trkpt lat="50.81479000352668" lon="12.985190005882876">
    <ele>376.24</ele>
   </trkpt>
   <trkpt lat="50.815090000000005" lon="12.984280000000002">
    <ele>375.3</ele>
   </trkpt>
   <trkpt lat="50.81523000000001" lon="12.9838">
    <ele>374.78000000000003</ele>
   </trkpt>
   <trkpt lat="50.815310000000004" lon="12.982660000000001">
    <ele>372.93</ele>
   </trkpt>
   <trkpt lat="50.81528" lon="12.981950000000001">
    <ele>369.82000000000005</ele>
   </trkpt>
   <trkpt lat="50.81530000000001" lon="12.981340000000001">
    <ele>367.14</ele>
   </trkpt>
   <trkpt lat="50.815400000000004" lon="12.98033">
    <ele>363.82000000000005</ele>
   </trkpt>
   <trkpt lat="50.81553" lon="12.979880000000001">
    <ele>363.82000000000005</ele>
   </trkpt>
   <trkpt lat="50.81564" lon="12.979690000000002">
    <ele>362.92</ele>
   </trkpt>
   <trkpt lat="50.81577000000001" lon="12.979550000000001">
    <ele>361.6</ele>
   </trkpt>
   <trkpt lat="50.81591" lon="12.979460000000001">
    <ele>361.6</ele>
   </trkpt>
   <trkpt lat="50.81617000000001" lon="12.979360000000002">
    <ele>360.96</ele>
   </trkpt>
   <trkpt lat="50.816250000000004" lon="12.9793">
    <ele>360.64</ele>
   </trkpt>
   <trkpt lat="50.816610000000004" lon="12.978860000000001">
    <ele>359.92</ele>
   </trkpt>
   <trkpt lat="50.816860000000005" lon="12.978660000000001">
    <ele>359.21000000000004</ele>
   </trkpt>
   <trkpt lat="50.81763" lon="12.978340000000001">
    <ele>357.66</ele>
   </trkpt>
   <trkpt lat="50.817800000000005" lon="12.978090000000002">
    <ele>357.35</ele>
   </trkpt>
   <trkpt lat="50.817910000000005" lon="12.977810000000002">
    <ele>356.78000000000003</ele>
   </trkpt>
   <trkpt lat="50.81848" lon="12.977580000000001">
    <ele>355.02</ele>
   </trkpt>
   <trkpt lat="50.81919500046414" lon="12.977215005642362">
    <ele>353.3</ele>
   </trkpt>
   <trkpt lat="50.81991000000001" lon="12.97685">
    <ele>352.23</ele>
   </trkpt>
   <trkpt lat="50.82058000000001" lon="12.97624">
    <ele>350.81</ele>
   </trkpt>
   <trkpt lat="50.82105000042416" lon="12.976015002165251">
    <ele>350.48</ele>
   </trkpt>
   <trkpt lat="50.82152000000001" lon="12.975790000000002">
    <ele>348.94</ele>
   </trkpt>
   <trkpt lat="50.821830000000006" lon="12.975660000000001">
    <ele>346.99</ele>
   </trkpt>
   <trkpt lat="50.822" lon="12.9755">
    <ele>346.21000000000004</ele>
   </trkpt>
   <trkpt lat="50.822250000000004" lon="12.97521">
    <ele>345.55</ele>
   </trkpt>
   <trkpt lat="50.82251" lon="12.97497">
    <ele>345.05</ele>
   </trkpt>
   <trkpt lat="50.82300000000001" lon="12.974720000000001">
    <ele>343.59</ele>
   </trkpt>
   <trkpt lat="50.823260000000005" lon="12.97441">
    <ele>343.59</ele>
   </trkpt>
   <trkpt lat="50.823440000000005" lon="12.97427">
    <ele>343.22</ele>
   </trkpt>
   <trkpt lat="50.823570000000004" lon="12.974150000000002">
    <ele>342.67</ele>
   </trkpt>
   <trkpt lat="50.82363" lon="12.974020000000001">
    <ele>342.41</ele>
   </trkpt>
   <trkpt lat="50.82379" lon="12.973510000000001">
    <ele>342.07000000000005</ele>
   </trkpt>
   <trkpt lat="50.82388" lon="12.97329">
    <ele>341.83000000000004</ele>
   </trkpt>
   <trkpt lat="50.824270000000006" lon="12.97258">
    <ele>340.92</ele>
   </trkpt>
   <trkpt lat="50.82441000000001" lon="12.9722">
    <ele>339.77</ele>
   </trkpt>
   <trkpt lat="50.82481000000001" lon="12.971400000000001">
    <ele>338.83000000000004</ele>
   </trkpt>
   <trkpt lat="50.825250000000004" lon="12.970220000000001">
    <ele>337.96000000000004</ele>
   </trkpt>
   <trkpt lat="50.82531" lon="12.9699">
    <ele>337.57000000000005</ele>
   </trkpt>
   <trkpt lat="50.82533" lon="12.969360000000002">
    <ele>337.07000000000005</ele>
   </trkpt>
   <trkpt lat="50.825265002619695" lon="12.968574998741762">
    <ele>335.94</ele>
   </trkpt>
   <trkpt lat="50.8252" lon="12.96779">
    <ele>335.04</ele>
   </trkpt>
   <trkpt lat="50.825230000000005" lon="12.96718">
    <ele>334.04</ele>
   </trkpt>
   <trkpt lat="50.82529" lon="12.96635">
    <ele>333.55</ele>
   </trkpt>
   <trkpt lat="50.82551" lon="12.965420000000002">
    <ele>332.53000000000003</ele>
   </trkpt>
   <trkpt lat="50.82564000000001" lon="12.965180000000002">
    <ele>332.42</ele>
   </trkpt>
   <trkpt lat="50.82585" lon="12.96498">
    <ele>332.22</ele>
   </trkpt>
   <trkpt lat="50.82593000000001" lon="12.964860000000002">
    <ele>332.22</ele>
   </trkpt>
   <trkpt lat="50.82621500125557" lon="12.964305003506407">
    <ele>331.43</ele>
   </trkpt>
   <trkpt lat="50.8265" lon="12.963750000000001">
    <ele>330.79</ele>
   </trkpt>
   <trkpt lat="50.82654" lon="12.96371">
    <ele>330.79</ele>
   </trkpt>
   <trkpt lat="50.82658000000001" lon="12.96371">
    <ele>330.79</ele>
   </trkpt>
   <trkpt lat="50.826600000000006" lon="12.96357">
    <ele>330.44</ele>
   </trkpt>
   <trkpt lat="50.82663" lon="12.96349">
    <ele>330.18</ele>
   </trkpt>
   <trkpt lat="50.82692" lon="12.963170000000002">
    <ele>328.77</ele>
   </trkpt>
   <trkpt lat="50.827090000000005" lon="12.962940000000001">
    <ele>328.33</ele>
   </trkpt>
   <trkpt lat="50.82717" lon="12.962890000000002">
    <ele>328.23</ele>
   </trkpt>
   <trkpt lat="50.82735" lon="12.96282">
    <ele>328.14000000000004</ele>
   </trkpt>
   <trkpt lat="50.82744" lon="12.96269">
    <ele>328.09000000000003</ele>
   </trkpt>
   <trkpt lat="50.827540000000006" lon="12.962460000000002">
    <ele>328.01</ele>
   </trkpt>
   <trkpt lat="50.827830000000006" lon="12.96193">
    <ele>327.17</ele>
   </trkpt>
   <trkpt lat="50.828" lon="12.961520000000002">
    <ele>327.14000000000004</ele>
   </trkpt>
   <trkpt lat="50.827980000000004" lon="12.96146">
    <ele>327.21</ele>
   </trkpt>
   <trkpt lat="50.82797000000001" lon="12.96137">
    <ele>327.21</ele>
   </trkpt>
   <trkpt lat="50.82802" lon="12.961160000000001">
    <ele>327.20000000000005</ele>
   </trkpt>
   <trkpt lat="50.828100000000006" lon="12.960980000000001">
    <ele>326.46000000000004</ele>
   </trkpt>
   <trkpt lat="50.82828000000001" lon="12.95987">
    <ele>326.46000000000004</ele>
   </trkpt>
   <trkpt lat="50.82828000000001" lon="12.959880000000002">
    <ele>326.46000000000004</ele>
   </trkpt>
   <trkpt lat="50.82837000000001" lon="12.959340000000001">
    <ele>326.51</ele>
   </trkpt>
   <trkpt lat="50.828410000000005" lon="12.959200000000001">
    <ele>326.35</ele>
   </trkpt>
   <trkpt lat="50.82872000217202" lon="12.958475004987953">
    <ele>325.54</ele>
   </trkpt>
   <trkpt lat="50.82903" lon="12.95775">
    <ele>324.62</ele>
   </trkpt>
   <trkpt lat="50.829130000000006" lon="12.95733">
    <ele>323.93000000000006</ele>
   </trkpt>
   <trkpt lat="50.82918" lon="12.957210000000002">
    <ele>323.93000000000006</ele>
   </trkpt>
   <trkpt lat="50.8293" lon="12.957020000000002">
    <ele>323.71000000000004</ele>
   </trkpt>
   <trkpt lat="50.829510000000006" lon="12.95681">
    <ele>323.59999999999997</ele>
   </trkpt>
   <trkpt lat="50.829890000000006" lon="12.956520000000001">
    <ele>323.11</ele>
   </trkpt>
   <trkpt lat="50.83015" lon="12.9563">
    <ele>322.35</ele>
   </trkpt>
   <trkpt lat="50.830580000000005" lon="12.95578">
    <ele>321.35</ele>
   </trkpt>
   <trkpt lat="50.83071" lon="12.955540000000001">
    <ele>321.27</ele>
   </trkpt>
   <trkpt lat="50.83088000000001" lon="12.95509">
    <ele>321.03000000000003</ele>
   </trkpt>
   <trkpt lat="50.83095" lon="12.954930000000001">
    <ele>320.98</ele>
   </trkpt>
   <trkpt lat="50.8308" lon="12.95495">
    <ele>321.06</ele>
   </trkpt>
   <trkpt lat="50.830940000000005" lon="12.954400000000001">
    <ele>320.35</ele>
   </trkpt>
   <trkpt lat="50.831180006352255" lon="12.953180006313689">
    <ele>319.88000000000005</ele>
   </trkpt>
   <trkpt lat="50.83142" lon="12.951960000000001">
    <ele>319.21999999999997</ele>
   </trkpt>
   <trkpt lat="50.831520000000005" lon="12.95105">
    <ele>317.49000000000007</ele>
   </trkpt>
   <trkpt lat="50.83153" lon="12.950170000000002">
    <ele>316.54</ele>
   </trkpt>
   <trkpt lat="50.831480000000006" lon="12.949520000000001">
    <ele>316.13</ele>
   </trkpt>
   <trkpt lat="50.831450000000004" lon="12.9486">
    <ele>315.71000000000004</ele>
   </trkpt>
   <trkpt lat="50.83153" lon="12.948100000000002">
    <ele>315.59000000000003</ele>
   </trkpt>
   <trkpt lat="50.83153" lon="12.947940000000001">
    <ele>315.48</ele>
   </trkpt>
   <trkpt lat="50.8316" lon="12.947780000000002">
    <ele>315.48</ele>
   </trkpt>
   <trkpt lat="50.83162" lon="12.947640000000002">
    <ele>315.48</ele>
   </trkpt>
   <trkpt lat="50.83164000000001" lon="12.9471">
    <ele>315.16</ele>
   </trkpt>
   <trkpt lat="50.83164000000001" lon="12.946530000000001">
    <ele>314.73</ele>
   </trkpt>
   <trkpt lat="50.831590000000006" lon="12.945910000000001">
    <ele>313.93000000000006</ele>
   </trkpt>
   <trkpt lat="50.83156" lon="12.945620000000002">
    <ele>313.54</ele>
   </trkpt>
   <trkpt lat="50.83135000000001" lon="12.944700000000001">
    <ele>312.51</ele>
   </trkpt>
   <trkpt lat="50.83113" lon="12.94406">
    <ele>311.33000000000004</ele>
   </trkpt>
   <trkpt lat="50.831" lon="12.943470000000001">
    <ele>310.83000000000004</ele>
   </trkpt>
   <trkpt lat="50.830890000000004" lon="12.943050000000001">
    <ele>310.52000000000004</ele>
   </trkpt>
   <trkpt lat="50.83067000896452" lon="12.94202665708787">
    <ele>309.79</ele>
   </trkpt>
   <trkpt lat="50.830450008978936" lon="12.941003323821763">
    <ele>309.44000000000005</ele>
   </trkpt>
   <trkpt lat="50.83023000000001" lon="12.93998">
    <ele>309.52000000000004</ele>
   </trkpt>
   <trkpt lat="50.83032000000001" lon="12.939680000000001">
    <ele>309.43</ele>
   </trkpt>
   <trkpt lat="50.83028" lon="12.939490000000001">
    <ele>309.43</ele>
   </trkpt>
   <trkpt lat="50.830330000000004" lon="12.93941">
    <ele>309.1</ele>
   </trkpt>
   <trkpt lat="50.83035" lon="12.93931">
    <ele>309.1</ele>
   </trkpt>
   <trkpt lat="50.830330000000004" lon="12.93884">
    <ele>308.81</ele>
   </trkpt>
   <trkpt lat="50.830380000000005" lon="12.938780000000001">
    <ele>308.81</ele>
   </trkpt>
   <trkpt lat="50.830400000000004" lon="12.938590000000001">
    <ele>308.69</ele>
   </trkpt>
   <trkpt lat="50.83032000000001" lon="12.938020000000002">
    <ele>308.54</ele>
   </trkpt>
   <trkpt lat="50.83032000000001" lon="12.937830000000002">
    <ele>308.50000000000006</ele>
   </trkpt>
   <trkpt lat="50.830540000000006" lon="12.936760000000001">
    <ele>307.92</ele>
   </trkpt>
   <trkpt lat="50.83066" lon="12.936240000000002">
    <ele>307.55</ele>
   </trkpt>
   <trkpt lat="50.830870000000004" lon="12.93556">
    <ele>306.39000000000004</ele>
   </trkpt>
   <trkpt lat="50.83090000000001" lon="12.935530000000002">
    <ele>306.39000000000004</ele>
   </trkpt>
   <trkpt lat="50.830960000000005" lon="12.935530000000002">
    <ele>306.39000000000004</ele>
   </trkpt>
   <trkpt lat="50.831" lon="12.935500000000001">
    <ele>305.97</ele>
   </trkpt>
   <trkpt lat="50.831100000000006" lon="12.93499">
    <ele>305.65000000000003</ele>
   </trkpt>
   <trkpt lat="50.83122" lon="12.93425">
    <ele>305.23</ele>
   </trkpt>
   <trkpt lat="50.83128000000001" lon="12.934050000000001">
    <ele>304.85</ele>
   </trkpt>
   <trkpt lat="50.831475004337214" lon="12.933045004089568">
    <ele>303.99</ele>
   </trkpt>
   <trkpt lat="50.83167" lon="12.93204">
    <ele>304.00000000000006</ele>
   </trkpt>
   <trkpt lat="50.831720000000004" lon="12.931650000000001">
    <ele>303.95</ele>
   </trkpt>
   <trkpt lat="50.831950000000006" lon="12.930460000000002">
    <ele>303.44000000000005</ele>
   </trkpt>
   <trkpt lat="50.83193000000001" lon="12.93026">
    <ele>303.44000000000005</ele>
   </trkpt>
   <trkpt lat="50.832100000000004" lon="12.929670000000002">
    <ele>303.08</ele>
   </trkpt>
   <trkpt lat="50.832350000000005" lon="12.928880000000001">
    <ele>302.97</ele>
   </trkpt>
   <trkpt lat="50.8325" lon="12.928460000000001">
    <ele>302.82000000000005</ele>
   </trkpt>
   <trkpt lat="50.832640000000005" lon="12.92828">
    <ele>302.75</ele>
   </trkpt>
   <trkpt lat="50.83268" lon="12.928180000000001">
    <ele>302.75</ele>
   </trkpt>
   <trkpt lat="50.83274" lon="12.92825">
    <ele>302.77000000000004</ele>
   </trkpt>
   <trkpt lat="50.83278000000001" lon="12.928270000000001">
    <ele>302.77000000000004</ele>
   </trkpt>
   <trkpt lat="50.83285000000001" lon="12.928170000000001">
    <ele>302.77000000000004</ele>
   </trkpt>
   <trkpt lat="50.833130000000004" lon="12.927570000000001">
    <ele>302.58</ele>
   </trkpt>
   <trkpt lat="50.83326" lon="12.92735">
    <ele>302.52</ele>
   </trkpt>
   <trkpt lat="50.83362" lon="12.926620000000002">
    <ele>301.92</ele>
   </trkpt>
   <trkpt lat="50.833850000000005" lon="12.92689">
    <ele>301.92</ele>
   </trkpt>
   <trkpt lat="50.83388" lon="12.926870000000001">
    <ele>301.92</ele>
   </trkpt>
   <trkpt lat="50.83409" lon="12.926430000000002">
    <ele>301.73</ele>
   </trkpt>
   <trkpt lat="50.834120000000006" lon="12.92617">
    <ele>301.35</ele>
   </trkpt>
   <trkpt lat="50.834630000000004" lon="12.9252">
    <ele>301.24</ele>
   </trkpt>
   <trkpt lat="50.83509" lon="12.924270000000002">
    <ele>301.03000000000003</ele>
   </trkpt>
   <trkpt lat="50.835260000000005" lon="12.92383">
    <ele>300.63</ele>
   </trkpt>
   <trkpt lat="50.83560000000001" lon="12.923140000000002">
    <ele>300.05</ele>
   </trkpt>
   <trkpt lat="50.836055003232175" lon="12.922265008606571">
    <ele>299.69</ele>
   </trkpt>
   <trkpt lat="50.836510000000004" lon="12.92139">
    <ele>299.34000000000003</ele>
   </trkpt>
   <trkpt lat="50.83654000000001" lon="12.92139">
    <ele>299.34000000000003</ele>
   </trkpt>
   <trkpt lat="50.836600000000004" lon="12.921310000000002">
    <ele>299.34000000000003</ele>
   </trkpt>
   <trkpt lat="50.83681000000001" lon="12.92092">
    <ele>299.11</ele>
   </trkpt>
   <trkpt lat="50.83682" lon="12.920940000000002">
    <ele>299.11</ele>
   </trkpt>
   <trkpt lat="50.83693" lon="12.92082">
    <ele>298.96</ele>
   </trkpt>
   <trkpt lat="50.837160000000004" lon="12.92036">
    <ele>298.54</ele>
   </trkpt>
   <trkpt lat="50.83693" lon="12.920050000000002">
    <ele>298.53000000000003</ele>
   </trkpt>
   <trkpt lat="50.83684" lon="12.920050000000002">
    <ele>298.69</ele>
   </trkpt>
   <trkpt lat="50.836760000000005" lon="12.92017">
    <ele>298.96</ele>
   </trkpt>
   <trkpt lat="50.836270000000006" lon="12.91956">
    <ele>299.42</ele>
   </trkpt>
   <trkpt lat="50.83612" lon="12.91943">
    <ele>299.41</ele>
   </trkpt>
   <trkpt lat="50.83575000119215" lon="12.918929996203396">
    <ele>299.41</ele>
   </trkpt>
   <trkpt lat="50.83538" lon="12.91843">
    <ele>299.68</ele>
   </trkpt>
   <trkpt lat="50.83513000000001" lon="12.918050000000001">
    <ele>300.07</ele>
   </trkpt>
   <trkpt lat="50.835040000000006" lon="12.91788">
    <ele>300.11</ele>
   </trkpt>
   <trkpt lat="50.834680000000006" lon="12.91703">
    <ele>300.58</ele>
   </trkpt>
   <trkpt lat="50.834230000000005" lon="12.916030000000001">
    <ele>300.62</ele>
   </trkpt>
   <trkpt lat="50.834160000000004" lon="12.915920000000002">
    <ele>300.62</ele>
   </trkpt>
   <trkpt lat="50.834050000000005" lon="12.915820000000002">
    <ele>300.64</ele>
   </trkpt>
   <trkpt lat="50.83382" lon="12.91571">
    <ele>300.87</ele>
   </trkpt>
   <trkpt lat="50.83391" lon="12.9152">
    <ele>301.42</ele>
   </trkpt>
   <trkpt lat="50.833980000000004" lon="12.914090000000002">
    <ele>306.09000000000003</ele>
   </trkpt>
   <trkpt lat="50.834010000000006" lon="12.913990000000002">
    <ele>306.09000000000003</ele>
   </trkpt>
   <trkpt lat="50.83406" lon="12.913910000000001">
    <ele>306.09000000000003</ele>
   </trkpt>
   <trkpt lat="50.834230000000005" lon="12.913760000000002">
    <ele>308.94000000000005</ele>
   </trkpt>
   <trkpt lat="50.834270000000004" lon="12.91369">
    <ele>308.94000000000005</ele>
   </trkpt>
   <trkpt lat="50.83428000000001" lon="12.9136">
    <ele>310.05000000000007</ele>
   </trkpt>
   <trkpt lat="50.834270000000004" lon="12.9135">
    <ele>310.05000000000007</ele>
   </trkpt>
   <trkpt lat="50.83422" lon="12.913380000000002">
    <ele>310.49</ele>
   </trkpt>
   <trkpt lat="50.834140000000005" lon="12.91328">
    <ele>311.05000000000007</ele>
   </trkpt>
   <trkpt lat="50.83409" lon="12.913170000000001">
    <ele>311.8</ele>
   </trkpt>
   <trkpt lat="50.83385000330333" lon="12.912284995288715">
    <ele>315.69</ele>
   </trkpt>
   <trkpt lat="50.83361000000001" lon="12.9114">
    <ele>318.70000000000005</ele>
   </trkpt>
   <trkpt lat="50.833450000000006" lon="12.910730000000001">
    <ele>320.82000000000005</ele>
   </trkpt>
   <trkpt lat="50.8332766788347" lon="12.909536657786798">
    <ele>322.20000000000005</ele>
   </trkpt>
   <trkpt lat="50.8331033454989" lon="12.908343324436702">
    <ele>324.01</ele>
   </trkpt>
   <trkpt lat="50.832930000000005" lon="12.907150000000001">
    <ele>325.56</ele>
   </trkpt>
   <trkpt lat="50.83282500228121" lon="12.906419998385779">
    <ele>326.49</ele>
   </trkpt>
   <trkpt lat="50.83272" lon="12.905690000000002">
    <ele>327.56</ele>
   </trkpt>
  </trkseg>
 </trk>
</gpx>
