<?xml version="1.0" encoding="UTF-8"?>
<gpx creator="StravaGPX" version="1.1" xmlns="http://www.topografix.com/GPX/1/1" xmlns:xsi="http://www.w3.org/2001/XMLSchema-instance" xsi:schemaLocation="http://www.topografix.com/GPX/1/1 http://www.topografix.com/GPX/1/1/gpx.xsd">
 <metadata>
  <name>KLLKTV 261006</name>
  <author>
   <name>Reino Albrecht [KLLKTV]</name>
   <link href="https://www.strava.com/athletes/10462611"/>
  </author>
  <copyright author="OpenStreetMap contributors">
   <year>2020</year>
   <license>https://www.openstreetmap.org/copyright</license>
  </copyright>
  <link href="https://www.strava.com/routes/3541806321587404366"/>
 </metadata>
 <trk>
  <name>KLLKTV 261006</name>
  <link href="https://www.strava.com/routes/3541806321587404366"/>
  <type>cycling</type>
  <trkseg>
   <trkpt lat="50.83265" lon="12.905180000000001">
    <ele>327.82</ele>
   </trkpt>
   <trkpt lat="50.83245503789034" lon="12.903848305522384">
    <ele>328.84000000000003</ele>
   </trkpt>
   <trkpt lat="50.832260060624506" lon="12.9025166221701">
    <ele>329.08000000000004</ele>
   </trkpt>
   <trkpt lat="50.83206506820273" lon="12.90118494994384">
    <ele>328.77</ele>
   </trkpt>
   <trkpt lat="50.83187006062526" lon="12.8998532888443">
    <ele>327.8</ele>
   </trkpt>
   <trkpt lat="50.83167503789232" lon="12.898521638872177">
    <ele>325.31000000000006</ele>
   </trkpt>
   <trkpt lat="50.831480000000006" lon="12.897190000000002">
    <ele>323.65000000000003</ele>
   </trkpt>
   <trkpt lat="50.83131500596406" lon="12.896009995928852">
    <ele>323.04</ele>
   </trkpt>
   <trkpt lat="50.83115" lon="12.89483">
    <ele>323.79</ele>
   </trkpt>
   <trkpt lat="50.83099334312109" lon="12.893759992836856">
    <ele>324.55</ele>
   </trkpt>
   <trkpt lat="50.83083667645723" lon="12.892689992856099">
    <ele>323.97</ele>
   </trkpt>
   <trkpt lat="50.83068" lon="12.891620000000001">
    <ele>323.21000000000004</ele>
   </trkpt>
   <trkpt lat="50.83052000430821" lon="12.89061499650554">
    <ele>322.01</ele>
   </trkpt>
   <trkpt lat="50.830360000000006" lon="12.889610000000001">
    <ele>321.90000000000003</ele>
   </trkpt>
   <trkpt lat="50.83034000000001" lon="12.88939">
    <ele>321.64000000000004</ele>
   </trkpt>
   <trkpt lat="50.830380000000005" lon="12.889310000000002">
    <ele>321.64000000000004</ele>
   </trkpt>
   <trkpt lat="50.83041000000001" lon="12.88929">
    <ele>321.64000000000004</ele>
   </trkpt>
   <trkpt lat="50.83097500036468" lon="12.888965003983756">
    <ele>320.17</ele>
   </trkpt>
   <trkpt lat="50.831540000000004" lon="12.88864">
    <ele>319.41</ele>
   </trkpt>
   <trkpt lat="50.831610000000005" lon="12.8885">
    <ele>319.41</ele>
   </trkpt>
   <trkpt lat="50.83162" lon="12.88841">
    <ele>319.41</ele>
   </trkpt>
   <trkpt lat="50.83158" lon="12.888150000000001">
    <ele>319.39</ele>
   </trkpt>
   <trkpt lat="50.831590000000006" lon="12.88771">
    <ele>319.42</ele>
   </trkpt>
   <trkpt lat="50.83165500302275" lon="12.886865001546619">
    <ele>319.21999999999997</ele>
   </trkpt>
   <trkpt lat="50.831720000000004" lon="12.88602">
    <ele>318.62</ele>
   </trkpt>
   <trkpt lat="50.83168001015362" lon="12.884929998119665">
    <ele>317.54</ele>
   </trkpt>
   <trkpt lat="50.83164001015316" lon="12.883839998107268">
    <ele>315.91</ele>
   </trkpt>
   <trkpt lat="50.8316" lon="12.882750000000001">
    <ele>314.35</ele>
   </trkpt>
   <trkpt lat="50.83159000276776" lon="12.881944999713907">
    <ele>313.45</ele>
   </trkpt>
   <trkpt lat="50.83158" lon="12.88114">
    <ele>312.17</ele>
   </trkpt>
   <trkpt lat="50.83158" lon="12.880440000000002">
    <ele>311.47</ele>
   </trkpt>
   <trkpt lat="50.83166000000001" lon="12.879180000000002">
    <ele>310.57</ele>
   </trkpt>
   <trkpt lat="50.83172500243167" lon="12.878425001099956">
    <ele>309.94000000000005</ele>
   </trkpt>
   <trkpt lat="50.831790000000005" lon="12.87767">
    <ele>309.55000000000007</ele>
   </trkpt>
   <trkpt lat="50.83184000000001" lon="12.876900000000001">
    <ele>308.79</ele>
   </trkpt>
   <trkpt lat="50.831920000000004" lon="12.87676">
    <ele>308.79</ele>
   </trkpt>
   <trkpt lat="50.83236" lon="12.876380000000001">
    <ele>306.78000000000003</ele>
   </trkpt>
   <trkpt lat="50.832820000000005" lon="12.875800000000002">
    <ele>306.06</ele>
   </trkpt>
   <trkpt lat="50.832750000000004" lon="12.875090000000002">
    <ele>305.95</ele>
   </trkpt>
   <trkpt lat="50.832660000000004" lon="12.87382">
    <ele>305.89000000000004</ele>
   </trkpt>
   <trkpt lat="50.832660000000004" lon="12.873600000000001">
    <ele>305.98</ele>
   </trkpt>
   <trkpt lat="50.83279" lon="12.872510000000002">
    <ele>306.19</ele>
   </trkpt>
   <trkpt lat="50.832840000000004" lon="12.872190000000002">
    <ele>306.4</ele>
   </trkpt>
   <trkpt lat="50.832860000000004" lon="12.87184">
    <ele>306.44000000000005</ele>
   </trkpt>
   <trkpt lat="50.83285000000001" lon="12.871620000000002">
    <ele>306.66</ele>
   </trkpt>
   <trkpt lat="50.83305000000001" lon="12.871440000000002">
    <ele>306.68</ele>
   </trkpt>
   <trkpt lat="50.83336000193292" lon="12.87076500451384">
    <ele>306.42</ele>
   </trkpt>
   <trkpt lat="50.833670000000005" lon="12.870090000000001">
    <ele>306.34</ele>
   </trkpt>
   <trkpt lat="50.834070000000004" lon="12.869280000000002">
    <ele>306.61000000000007</ele>
   </trkpt>
   <trkpt lat="50.83464000000001" lon="12.86819">
    <ele>307.47</ele>
   </trkpt>
   <trkpt lat="50.834790000000005" lon="12.86786">
    <ele>307.88000000000005</ele>
   </trkpt>
   <trkpt lat="50.83493000000001" lon="12.86748">
    <ele>308.11000000000007</ele>
   </trkpt>
   <trkpt lat="50.83511500256876" lon="12.866695003385137">
    <ele>308.63</ele>
   </trkpt>
   <trkpt lat="50.835300000000004" lon="12.865910000000001">
    <ele>308.73</ele>
   </trkpt>
   <trkpt lat="50.83543" lon="12.86542">
    <ele>308.76000000000005</ele>
   </trkpt>
   <trkpt lat="50.835460000000005" lon="12.86522">
    <ele>308.67</ele>
   </trkpt>
   <trkpt lat="50.835480000000004" lon="12.864790000000001">
    <ele>308.51</ele>
   </trkpt>
   <trkpt lat="50.83545" lon="12.86453">
    <ele>308.24</ele>
   </trkpt>
   <trkpt lat="50.835330000000006" lon="12.863990000000001">
    <ele>307.84</ele>
   </trkpt>
   <trkpt lat="50.83523000565639" lon="12.862839997595488">
    <ele>307.54</ele>
   </trkpt>
   <trkpt lat="50.83513000000001" lon="12.861690000000001">
    <ele>307.56</ele>
   </trkpt>
   <trkpt lat="50.83527" lon="12.86049">
    <ele>307.78</ele>
   </trkpt>
   <trkpt lat="50.83546000749988" lon="12.859165005408872">
    <ele>308.09000000000003</ele>
   </trkpt>
   <trkpt lat="50.83565" lon="12.857840000000001">
    <ele>309.86</ele>
   </trkpt>
   <trkpt lat="50.8357450022493" lon="12.85712000120707">
    <ele>310.11000000000007</ele>
   </trkpt>
   <trkpt lat="50.835840000000005" lon="12.8564">
    <ele>310.14000000000004</ele>
   </trkpt>
   <trkpt lat="50.835950000000004" lon="12.85547">
    <ele>310.75</ele>
   </trkpt>
   <trkpt lat="50.83596000000001" lon="12.85513">
    <ele>310.75</ele>
   </trkpt>
   <trkpt lat="50.83592" lon="12.85477">
    <ele>310.98</ele>
   </trkpt>
   <trkpt lat="50.83588" lon="12.853790000000002">
    <ele>311.22</ele>
   </trkpt>
   <trkpt lat="50.83563" lon="12.852730000000001">
    <ele>311.36</ele>
   </trkpt>
   <trkpt lat="50.835510000000006" lon="12.851880000000001">
    <ele>311.6</ele>
   </trkpt>
   <trkpt lat="50.835390000000004" lon="12.851370000000001">
    <ele>312.14000000000004</ele>
   </trkpt>
   <trkpt lat="50.83536" lon="12.851180000000001">
    <ele>312.4</ele>
   </trkpt>
   <trkpt lat="50.835370000000005" lon="12.850550000000002">
    <ele>312.51</ele>
   </trkpt>
   <trkpt lat="50.835300000000004" lon="12.84988">
    <ele>313.0</ele>
   </trkpt>
   <trkpt lat="50.835190000000004" lon="12.849100000000002">
    <ele>314.67</ele>
   </trkpt>
   <trkpt lat="50.835150000000006" lon="12.848920000000001">
    <ele>314.67</ele>
   </trkpt>
   <trkpt lat="50.834790000000005" lon="12.848180000000001">
    <ele>318.23</ele>
   </trkpt>
   <trkpt lat="50.83473000000001" lon="12.848020000000002">
    <ele>319.02000000000004</ele>
   </trkpt>
   <trkpt lat="50.83479000245413" lon="12.847260001154966">
    <ele>321.11</ele>
   </trkpt>
   <trkpt lat="50.83485" lon="12.8465">
    <ele>324.45</ele>
   </trkpt>
   <trkpt lat="50.834880000000005" lon="12.845530000000002">
    <ele>327.59000000000003</ele>
   </trkpt>
   <trkpt lat="50.83484000000001" lon="12.845040000000001">
    <ele>328.58000000000004</ele>
   </trkpt>
   <trkpt lat="50.83460500423148" lon="12.844044994994062">
    <ele>329.16</ele>
   </trkpt>
   <trkpt lat="50.83437000000001" lon="12.843050000000002">
    <ele>329.66</ele>
   </trkpt>
   <trkpt lat="50.83410000000001" lon="12.84181">
    <ele>329.92</ele>
   </trkpt>
   <trkpt lat="50.83466000000001" lon="12.841080000000002">
    <ele>333.39</ele>
   </trkpt>
   <trkpt lat="50.835420000000006" lon="12.84078">
    <ele>340.36000000000007</ele>
   </trkpt>
   <trkpt lat="50.836200000000005" lon="12.84045">
    <ele>345.91</ele>
   </trkpt>
   <trkpt lat="50.83628" lon="12.840180000000002">
    <ele>346.27000000000004</ele>
   </trkpt>
   <trkpt lat="50.83634000000001" lon="12.83956">
    <ele>347.08000000000004</ele>
   </trkpt>
   <trkpt lat="50.83635" lon="12.838940000000001">
    <ele>348.63000000000005</ele>
   </trkpt>
   <trkpt lat="50.836325002945216" lon="12.838109999604743">
    <ele>350.41</ele>
   </trkpt>
   <trkpt lat="50.8363" lon="12.837280000000002">
    <ele>350.84000000000003</ele>
   </trkpt>
   <trkpt lat="50.83635" lon="12.836870000000001">
    <ele>351.37</ele>
   </trkpt>
   <trkpt lat="50.836360000000006" lon="12.83613">
    <ele>352.36</ele>
   </trkpt>
   <trkpt lat="50.83634000000001" lon="12.83558">
    <ele>353.1</ele>
   </trkpt>
   <trkpt lat="50.83619" lon="12.834410000000002">
    <ele>354.11</ele>
   </trkpt>
   <trkpt lat="50.83619" lon="12.83416">
    <ele>354.77000000000004</ele>
   </trkpt>
   <trkpt lat="50.83623000235189" lon="12.833420000413085">
    <ele>355.90000000000003</ele>
   </trkpt>
   <trkpt lat="50.836270000000006" lon="12.832680000000002">
    <ele>357.72</ele>
   </trkpt>
   <trkpt lat="50.83632" lon="12.83215">
    <ele>359.99</ele>
   </trkpt>
   <trkpt lat="50.83637" lon="12.831840000000001">
    <ele>362.00000000000006</ele>
   </trkpt>
   <trkpt lat="50.83660500397309" lon="12.83087500488436">
    <ele>365.53000000000003</ele>
   </trkpt>
   <trkpt lat="50.83684" lon="12.829910000000002">
    <ele>368.36</ele>
   </trkpt>
   <trkpt lat="50.83700000429204" lon="12.82891000330993">
    <ele>373.93</ele>
   </trkpt>
   <trkpt lat="50.837160000000004" lon="12.827910000000001">
    <ele>380.96000000000004</ele>
   </trkpt>
   <trkpt lat="50.83736000282992" lon="12.827100003364656">
    <ele>383.68</ele>
   </trkpt>
   <trkpt lat="50.83756" lon="12.82629">
    <ele>385.26000000000005</ele>
   </trkpt>
   <trkpt lat="50.83769" lon="12.82567">
    <ele>385.85</ele>
   </trkpt>
   <trkpt lat="50.83778" lon="12.825130000000001">
    <ele>386.38000000000005</ele>
   </trkpt>
   <trkpt lat="50.83786500294255" lon="12.824295001881648">
    <ele>388.99000000000007</ele>
   </trkpt>
   <trkpt lat="50.837950000000006" lon="12.82346">
    <ele>390.66</ele>
   </trkpt>
   <trkpt lat="50.838010000000004" lon="12.82248">
    <ele>391.28000000000003</ele>
   </trkpt>
   <trkpt lat="50.83807" lon="12.821950000000001">
    <ele>391.52000000000004</ele>
   </trkpt>
   <trkpt lat="50.838170000000005" lon="12.821460000000002">
    <ele>391.72</ele>
   </trkpt>
   <trkpt lat="50.83834000199511" lon="12.820785002267577">
    <ele>392.39</ele>
   </trkpt>
   <trkpt lat="50.83851000000001" lon="12.820110000000001">
    <ele>393.79</ele>
   </trkpt>
   <trkpt lat="50.838660000000004" lon="12.819600000000001">
    <ele>394.96000000000004</ele>
   </trkpt>
   <trkpt lat="50.83888" lon="12.818950000000001">
    <ele>397.86</ele>
   </trkpt>
   <trkpt lat="50.83917000214667" lon="12.81825500412094">
    <ele>401.38</ele>
   </trkpt>
   <trkpt lat="50.83946" lon="12.81756">
    <ele>406.74</ele>
   </trkpt>
   <trkpt lat="50.83946" lon="12.817380000000002">
    <ele>406.74</ele>
   </trkpt>
   <trkpt lat="50.839920000000006" lon="12.81704">
    <ele>407.86000000000007</ele>
   </trkpt>
   <trkpt lat="50.84038" lon="12.816630000000002">
    <ele>408.65</ele>
   </trkpt>
   <trkpt lat="50.84069" lon="12.816260000000002">
    <ele>408.97</ele>
   </trkpt>
   <trkpt lat="50.840770000000006" lon="12.816070000000002">
    <ele>408.99</ele>
   </trkpt>
   <trkpt lat="50.84101000358698" lon="12.815155004669814">
    <ele>409.77000000000004</ele>
   </trkpt>
   <trkpt lat="50.84125" lon="12.814240000000002">
    <ele>411.66</ele>
   </trkpt>
   <trkpt lat="50.84140000000001" lon="12.813790000000001">
    <ele>412.66</ele>
   </trkpt>
   <trkpt lat="50.84160000000001" lon="12.81338">
    <ele>414.52000000000004</ele>
   </trkpt>
   <trkpt lat="50.84187000000001" lon="12.812710000000001">
    <ele>414.48</ele>
   </trkpt>
   <trkpt lat="50.841950000000004" lon="12.8124">
    <ele>413.40000000000003</ele>
   </trkpt>
   <trkpt lat="50.84211500403279" lon="12.811430003357259">
    <ele>410.18000000000006</ele>
   </trkpt>
   <trkpt lat="50.84228" lon="12.81046">
    <ele>405.67</ele>
   </trkpt>
   <trkpt lat="50.84235" lon="12.810200000000002">
    <ele>405.21</ele>
   </trkpt>
   <trkpt lat="50.842490000000005" lon="12.809800000000001">
    <ele>404.0</ele>
   </trkpt>
   <trkpt lat="50.84278000189817" lon="12.8091500038319">
    <ele>403.72</ele>
   </trkpt>
   <trkpt lat="50.843070000000004" lon="12.8085">
    <ele>405.51000000000005</ele>
   </trkpt>
   <trkpt lat="50.84326" lon="12.80812">
    <ele>406.09</ele>
   </trkpt>
   <trkpt lat="50.84375000000001" lon="12.80723">
    <ele>407.13000000000005</ele>
   </trkpt>
   <trkpt lat="50.844030000000004" lon="12.806830000000001">
    <ele>407.39000000000004</ele>
   </trkpt>
   <trkpt lat="50.84469667343253" lon="12.805940025439217">
    <ele>408.28000000000003</ele>
   </trkpt>
   <trkpt lat="50.84536334009622" lon="12.805050025443693">
    <ele>409.39000000000004</ele>
   </trkpt>
   <trkpt lat="50.846030000000006" lon="12.804160000000001">
    <ele>410.80000000000007</ele>
   </trkpt>
   <trkpt lat="50.846540000000005" lon="12.803400000000002">
    <ele>412.26</ele>
   </trkpt>
   <trkpt lat="50.846630000000005" lon="12.80324">
    <ele>412.42</ele>
   </trkpt>
   <trkpt lat="50.8468" lon="12.80292">
    <ele>412.89000000000004</ele>
   </trkpt>
   <trkpt lat="50.84724501255775" lon="12.801930028342719">
    <ele>412.82</ele>
   </trkpt>
   <trkpt lat="50.84769001674037" lon="12.80094003779826">
    <ele>411.30000000000007</ele>
   </trkpt>
   <trkpt lat="50.84813501254759" lon="12.799950028366316">
    <ele>408.56</ele>
   </trkpt>
   <trkpt lat="50.848580000000005" lon="12.798960000000001">
    <ele>405.65</ele>
   </trkpt>
   <trkpt lat="50.84886000175948" lon="12.798310004007762">
    <ele>404.1</ele>
   </trkpt>
   <trkpt lat="50.849140000000006" lon="12.79766">
    <ele>402.44</ele>
   </trkpt>
   <trkpt lat="50.849450000000004" lon="12.796610000000001">
    <ele>398.8</ele>
   </trkpt>
   <trkpt lat="50.84957500225623" lon="12.795875002275167">
    <ele>397.02000000000004</ele>
   </trkpt>
   <trkpt lat="50.849700000000006" lon="12.795140000000002">
    <ele>394.84000000000003</ele>
   </trkpt>
   <trkpt lat="50.84986000000001" lon="12.79438">
    <ele>391.29</ele>
   </trkpt>
   <trkpt lat="50.85007" lon="12.79349">
    <ele>387.77000000000004</ele>
   </trkpt>
   <trkpt lat="50.85032000225345" lon="12.792770003748009">
    <ele>384.29</ele>
   </trkpt>
   <trkpt lat="50.850570000000005" lon="12.792050000000001">
    <ele>380.98</ele>
   </trkpt>
   <trkpt lat="50.850780001822066" lon="12.791395002983238">
    <ele>377.75</ele>
   </trkpt>
   <trkpt lat="50.85099" lon="12.790740000000001">
    <ele>375.64000000000004</ele>
   </trkpt>
   <trkpt lat="50.851310000000005" lon="12.78992">
    <ele>370.33000000000004</ele>
   </trkpt>
   <trkpt lat="50.851670000000006" lon="12.78883">
    <ele>367.2300000000001</ele>
   </trkpt>
   <trkpt lat="50.852020006275936" lon="12.78797001301499">
    <ele>367.34000000000003</ele>
   </trkpt>
   <trkpt lat="50.8523700062319" lon="12.787110013123344">
    <ele>368.64000000000004</ele>
   </trkpt>
   <trkpt lat="50.852720000000005" lon="12.78625">
    <ele>371.22</ele>
   </trkpt>
   <trkpt lat="50.853" lon="12.785620000000002">
    <ele>373.96</ele>
   </trkpt>
   <trkpt lat="50.85343" lon="12.784870000000002">
    <ele>376.73</ele>
   </trkpt>
   <trkpt lat="50.853950000000005" lon="12.784110000000002">
    <ele>380.38000000000005</ele>
   </trkpt>
   <trkpt lat="50.854060000000004" lon="12.784020000000002">
    <ele>380.71000000000004</ele>
   </trkpt>
   <trkpt lat="50.854200000000006" lon="12.783230000000001">
    <ele>381.28</ele>
   </trkpt>
   <trkpt lat="50.85438000568455" lon="12.782075004554667">
    <ele>382.95</ele>
   </trkpt>
   <trkpt lat="50.854560000000006" lon="12.780920000000002">
    <ele>383.88000000000005</ele>
   </trkpt>
   <trkpt lat="50.85474000000001" lon="12.779660000000002">
    <ele>384.07</ele>
   </trkpt>
   <trkpt lat="50.85495" lon="12.77843">
    <ele>384.03000000000003</ele>
   </trkpt>
   <trkpt lat="50.855270000000004" lon="12.77721">
    <ele>384.44</ele>
   </trkpt>
   <trkpt lat="50.85548000300747" lon="12.776360004148863">
    <ele>384.53000000000003</ele>
   </trkpt>
   <trkpt lat="50.85569" lon="12.77551">
    <ele>383.74</ele>
   </trkpt>
   <trkpt lat="50.85587" lon="12.77491">
    <ele>381.89</ele>
   </trkpt>
   <trkpt lat="50.856230000000004" lon="12.77382">
    <ele>379.45</ele>
   </trkpt>
   <trkpt lat="50.85665" lon="12.77283">
    <ele>376.07</ele>
   </trkpt>
   <trkpt lat="50.85678000000001" lon="12.772570000000002">
    <ele>375.78000000000003</ele>
   </trkpt>
   <trkpt lat="50.85708" lon="12.77203">
    <ele>374.84</ele>
   </trkpt>
   <trkpt lat="50.85754500184153" lon="12.77138500634263">
    <ele>373.93</ele>
   </trkpt>
   <trkpt lat="50.85801000000001" lon="12.770740000000002">
    <ele>374.84</ele>
   </trkpt>
   <trkpt lat="50.858140000000006" lon="12.770480000000001">
    <ele>375.47</ele>
   </trkpt>
   <trkpt lat="50.85821000000001" lon="12.770280000000001">
    <ele>376.31</ele>
   </trkpt>
   <trkpt lat="50.85830000000001" lon="12.76984">
    <ele>377.05000000000007</ele>
   </trkpt>
   <trkpt lat="50.85846" lon="12.76885">
    <ele>377.53000000000003</ele>
   </trkpt>
   <trkpt lat="50.85855" lon="12.768450000000001">
    <ele>376.99000000000007</ele>
   </trkpt>
   <trkpt lat="50.858650000000004" lon="12.767610000000001">
    <ele>375.14000000000004</ele>
   </trkpt>
   <trkpt lat="50.85864" lon="12.76744">
    <ele>374.3</ele>
   </trkpt>
   <trkpt lat="50.8586" lon="12.76726">
    <ele>374.3</ele>
   </trkpt>
   <trkpt lat="50.858700000000006" lon="12.76631">
    <ele>369.05</ele>
   </trkpt>
   <trkpt lat="50.85873" lon="12.76617">
    <ele>367.89000000000004</ele>
   </trkpt>
   <trkpt lat="50.858850000000004" lon="12.765860000000002">
    <ele>366.64</ele>
   </trkpt>
   <trkpt lat="50.85918" lon="12.765220000000001">
    <ele>362.55</ele>
   </trkpt>
   <trkpt lat="50.85936" lon="12.764780000000002">
    <ele>360.71000000000004</ele>
   </trkpt>
   <trkpt lat="50.85947" lon="12.76416">
    <ele>359.40000000000003</ele>
   </trkpt>
   <trkpt lat="50.85956" lon="12.763560000000002">
    <ele>357.86</ele>
   </trkpt>
   <trkpt lat="50.85967500422327" lon="12.762565002510021">
    <ele>356.05</ele>
   </trkpt>
   <trkpt lat="50.859790000000004" lon="12.76157">
    <ele>354.81</ele>
   </trkpt>
   <trkpt lat="50.85980000000001" lon="12.76138">
    <ele>354.76</ele>
   </trkpt>
   <trkpt lat="50.85978" lon="12.761220000000002">
    <ele>354.83000000000004</ele>
   </trkpt>
   <trkpt lat="50.860150000000004" lon="12.76097">
    <ele>355.09000000000003</ele>
   </trkpt>
   <trkpt lat="50.86032" lon="12.76091">
    <ele>355.08</ele>
   </trkpt>
   <trkpt lat="50.860510000000005" lon="12.76092">
    <ele>354.88</ele>
   </trkpt>
   <trkpt lat="50.861040000088856" lon="12.76109999793717">
    <ele>353.71000000000004</ele>
   </trkpt>
   <trkpt lat="50.86157000000001" lon="12.761280000000001">
    <ele>350.80000000000007</ele>
   </trkpt>
   <trkpt lat="50.8618" lon="12.761310000000002">
    <ele>350.24000000000007</ele>
   </trkpt>
   <trkpt lat="50.86189" lon="12.761220000000002">
    <ele>349.99</ele>
   </trkpt>
   <trkpt lat="50.861990000000006" lon="12.76102">
    <ele>349.89000000000004</ele>
   </trkpt>
   <trkpt lat="50.862170000000006" lon="12.760370000000002">
    <ele>350.55</ele>
   </trkpt>
   <trkpt lat="50.86242000449321" lon="12.759345005476902">
    <ele>353.63000000000005</ele>
   </trkpt>
   <trkpt lat="50.86267" lon="12.758320000000001">
    <ele>356.99</ele>
   </trkpt>
   <trkpt lat="50.86286500239659" lon="12.757585002740054">
    <ele>357.54</ele>
   </trkpt>
   <trkpt lat="50.863060000000004" lon="12.756850000000002">
    <ele>356.90000000000003</ele>
   </trkpt>
   <trkpt lat="50.86323" lon="12.756480000000002">
    <ele>355.91</ele>
   </trkpt>
   <trkpt lat="50.86373751149796" lon="12.755532530956486">
    <ele>355.73</ele>
   </trkpt>
   <trkpt lat="50.86424501532537" lon="12.754585041285798">
    <ele>356.52</ele>
   </trkpt>
   <trkpt lat="50.86475251148197" lon="12.753637530987428">
    <ele>356.41</ele>
   </trkpt>
   <trkpt lat="50.865260000000006" lon="12.752690000000001">
    <ele>355.77000000000004</ele>
   </trkpt>
   <trkpt lat="50.865680000000005" lon="12.75206">
    <ele>354.79</ele>
   </trkpt>
   <trkpt lat="50.86635666846234" lon="12.751600013362072">
    <ele>352.96000000000004</ele>
   </trkpt>
   <trkpt lat="50.86703333511675" lon="12.751140013370655">
    <ele>348.05</ele>
   </trkpt>
   <trkpt lat="50.86771" lon="12.750680000000001">
    <ele>344.54</ele>
   </trkpt>
   <trkpt lat="50.86816" lon="12.750420000000002">
    <ele>343.2</ele>
   </trkpt>
   <trkpt lat="50.86835000000001" lon="12.750330000000002">
    <ele>342.5</ele>
   </trkpt>
   <trkpt lat="50.868975000172135" lon="12.750110002961918">
    <ele>340.68</ele>
   </trkpt>
   <trkpt lat="50.869600000000005" lon="12.74989">
    <ele>337.24</ele>
   </trkpt>
   <trkpt lat="50.869910000000004" lon="12.74976">
    <ele>336.87</ele>
   </trkpt>
   <trkpt lat="50.87073" lon="12.749480000000002">
    <ele>333.57000000000005</ele>
   </trkpt>
   <trkpt lat="50.871140000000004" lon="12.749450000000001">
    <ele>333.28000000000003</ele>
   </trkpt>
   <trkpt lat="50.87171499989414" lon="12.74943000025047">
    <ele>333.39</ele>
   </trkpt>
   <trkpt lat="50.87229000000001" lon="12.749410000000001">
    <ele>333.18</ele>
   </trkpt>
   <trkpt lat="50.8727" lon="12.749340000000002">
    <ele>333.21</ele>
   </trkpt>
   <trkpt lat="50.872870000000006" lon="12.74928">
    <ele>333.19000000000005</ele>
   </trkpt>
   <trkpt lat="50.873630000000006" lon="12.748980000000001">
    <ele>332.57000000000005</ele>
   </trkpt>
   <trkpt lat="50.87418" lon="12.748610000000001">
    <ele>330.38</ele>
   </trkpt>
   <trkpt lat="50.874950000000005" lon="12.74806">
    <ele>325.20000000000005</ele>
   </trkpt>
   <trkpt lat="50.87521" lon="12.74783">
    <ele>323.62</ele>
   </trkpt>
   <trkpt lat="50.875420000000005" lon="12.7476">
    <ele>322.53000000000003</ele>
   </trkpt>
   <trkpt lat="50.87574000000001" lon="12.747290000000001">
    <ele>319.65999999999997</ele>
   </trkpt>
   <trkpt lat="50.875930000000004" lon="12.747140000000002">
    <ele>318.38000000000005</ele>
   </trkpt>
   <trkpt lat="50.876250000000006" lon="12.74699">
    <ele>317.1</ele>
   </trkpt>
   <trkpt lat="50.87700666725286" lon="12.74673000844033">
    <ele>315.58000000000004</ele>
   </trkpt>
   <trkpt lat="50.877763333928186" lon="12.746470008437525">
    <ele>314.5</ele>
   </trkpt>
   <trkpt lat="50.87852" lon="12.746210000000001">
    <ele>312.41</ele>
   </trkpt>
   <trkpt lat="50.87897500008466" lon="12.746080001265808">
    <ele>310.66</ele>
   </trkpt>
   <trkpt lat="50.879430000000006" lon="12.74595">
    <ele>309.52000000000004</ele>
   </trkpt>
   <trkpt lat="50.87966" lon="12.74591">
    <ele>309.23</ele>
   </trkpt>
   <trkpt lat="50.879760000000005" lon="12.74585">
    <ele>309.19</ele>
   </trkpt>
   <trkpt lat="50.87982" lon="12.74572">
    <ele>309.19</ele>
   </trkpt>
   <trkpt lat="50.879900000000006" lon="12.74577">
    <ele>308.99</ele>
   </trkpt>
   <trkpt lat="50.88074" lon="12.745830000000002">
    <ele>309.81</ele>
   </trkpt>
   <trkpt lat="50.88103" lon="12.745800000000001">
    <ele>310.75</ele>
   </trkpt>
   <trkpt lat="50.881660000000004" lon="12.745560000000001">
    <ele>312.64000000000004</ele>
   </trkpt>
   <trkpt lat="50.881800000000005" lon="12.74552">
    <ele>314.71999999999997</ele>
   </trkpt>
   <trkpt lat="50.88258333416206" lon="12.745220010064708">
    <ele>318.6</ele>
   </trkpt>
   <trkpt lat="50.88336666755524" lon="12.744920010041994">
    <ele>323.29</ele>
   </trkpt>
   <trkpt lat="50.884150000000005" lon="12.744620000000001">
    <ele>327.03000000000003</ele>
   </trkpt>
   <trkpt lat="50.88449000000001" lon="12.744520000000001">
    <ele>328.1</ele>
   </trkpt>
   <trkpt lat="50.885070000000006" lon="12.744470000000002">
    <ele>329.33</ele>
   </trkpt>
   <trkpt lat="50.88521" lon="12.744480000000001">
    <ele>329.72</ele>
   </trkpt>
   <trkpt lat="50.88588000000001" lon="12.744460000000002">
    <ele>330.8</ele>
   </trkpt>
   <trkpt lat="50.886210000000005" lon="12.744700000000002">
    <ele>331.45</ele>
   </trkpt>
   <trkpt lat="50.88645" lon="12.744900000000001">
    <ele>331.59000000000003</ele>
   </trkpt>
   <trkpt lat="50.886950000000006" lon="12.7452">
    <ele>331.86</ele>
   </trkpt>
   <trkpt lat="50.88744500054219" lon="12.745604995566831">
    <ele>332.73</ele>
   </trkpt>
   <trkpt lat="50.88794000000001" lon="12.746010000000002">
    <ele>333.21</ele>
   </trkpt>
   <trkpt lat="50.888380000000005" lon="12.74642">
    <ele>335.08000000000004</ele>
   </trkpt>
   <trkpt lat="50.88906" lon="12.747140000000002">
    <ele>337.22</ele>
   </trkpt>
   <trkpt lat="50.889540000000004" lon="12.74779">
    <ele>337.73</ele>
   </trkpt>
   <trkpt lat="50.889900000000004" lon="12.74835">
    <ele>337.48</ele>
   </trkpt>
   <trkpt lat="50.890460000000004" lon="12.749340000000002">
    <ele>335.68</ele>
   </trkpt>
   <trkpt lat="50.89090000118985" lon="12.748790005323395">
    <ele>335.73</ele>
   </trkpt>
   <trkpt lat="50.89134000000001" lon="12.748240000000001">
    <ele>335.81000000000006</ele>
   </trkpt>
   <trkpt lat="50.892010000000006" lon="12.74764">
    <ele>333.19000000000005</ele>
   </trkpt>
   <trkpt lat="50.892250000000004" lon="12.747440000000001">
    <ele>333.03000000000003</ele>
   </trkpt>
   <trkpt lat="50.89226000000001" lon="12.747440000000001">
    <ele>333.03000000000003</ele>
   </trkpt>
   <trkpt lat="50.89284000000001" lon="12.74699">
    <ele>332.1</ele>
   </trkpt>
   <trkpt lat="50.89361" lon="12.74651">
    <ele>332.73</ele>
   </trkpt>
   <trkpt lat="50.8944575023114" lon="12.746085023203586">
    <ele>333.05</ele>
   </trkpt>
   <trkpt lat="50.895305003079926" lon="12.745660030939796">
    <ele>330.85</ele>
   </trkpt>
   <trkpt lat="50.89615250230545" lon="12.745235023207627">
    <ele>326.63000000000005</ele>
   </trkpt>
   <trkpt lat="50.897000000000006" lon="12.744810000000001">
    <ele>324.37000000000006</ele>
   </trkpt>
   <trkpt lat="50.89723000000001" lon="12.74463">
    <ele>324.25000000000006</ele>
   </trkpt>
   <trkpt lat="50.89787667117061" lon="12.74390002032948">
    <ele>321.97</ele>
   </trkpt>
   <trkpt lat="50.89852333778911" lon="12.743170020384245">
    <ele>318.81000000000006</ele>
   </trkpt>
   <trkpt lat="50.899170000000005" lon="12.74244">
    <ele>317.27000000000004</ele>
   </trkpt>
   <trkpt lat="50.899390000000004" lon="12.742320000000001">
    <ele>316.90000000000003</ele>
   </trkpt>
   <trkpt lat="50.89965" lon="12.742320000000001">
    <ele>315.88000000000005</ele>
   </trkpt>
   <trkpt lat="50.90039" lon="12.742260000000002">
    <ele>314.71000000000004</ele>
   </trkpt>
   <trkpt lat="50.901054999919076" lon="12.742235000360202">
    <ele>313.82000000000005</ele>
   </trkpt>
   <trkpt lat="50.901720000000005" lon="12.742210000000002">
    <ele>311.37</ele>
   </trkpt>
   <trkpt lat="50.90214" lon="12.74205">
    <ele>310.65000000000003</ele>
   </trkpt>
   <trkpt lat="50.902480000000004" lon="12.741800000000001">
    <ele>310.56</ele>
   </trkpt>
   <trkpt lat="50.903310000000005" lon="12.741430000000001">
    <ele>310.53000000000003</ele>
   </trkpt>
   <trkpt lat="50.90401000000001" lon="12.74107">
    <ele>311.08000000000004</ele>
   </trkpt>
   <trkpt lat="50.904720000000005" lon="12.74065">
    <ele>309.69</ele>
   </trkpt>
   <trkpt lat="50.90491667359518" lon="12.741549992439841">
    <ele>311.49000000000007</ele>
   </trkpt>
   <trkpt lat="50.905113340271456" lon="12.74244999248372">
    <ele>313.76000000000005</ele>
   </trkpt>
   <trkpt lat="50.90531000000001" lon="12.743350000000001">
    <ele>314.87</ele>
   </trkpt>
   <trkpt lat="50.90543" lon="12.743810000000002">
    <ele>315.43000000000006</ele>
   </trkpt>
   <trkpt lat="50.905570000000004" lon="12.74426">
    <ele>315.76000000000005</ele>
   </trkpt>
   <trkpt lat="50.905730000000005" lon="12.744700000000002">
    <ele>315.83</ele>
   </trkpt>
   <trkpt lat="50.90587000000001" lon="12.74502">
    <ele>315.86</ele>
   </trkpt>
   <trkpt lat="50.90608" lon="12.745400000000002">
    <ele>315.78</ele>
   </trkpt>
   <trkpt lat="50.90634000000001" lon="12.745820000000002">
    <ele>315.6</ele>
   </trkpt>
   <trkpt lat="50.90663000000001" lon="12.74618">
    <ele>315.24</ele>
   </trkpt>
   <trkpt lat="50.906850000000006" lon="12.74642">
    <ele>315.06</ele>
   </trkpt>
   <trkpt lat="50.907250000000005" lon="12.746760000000002">
    <ele>314.44000000000005</ele>
   </trkpt>
   <trkpt lat="50.907630000000005" lon="12.74699">
    <ele>313.63</ele>
   </trkpt>
   <trkpt lat="50.90807" lon="12.74717">
    <ele>312.9</ele>
   </trkpt>
   <trkpt lat="50.90834" lon="12.747230000000002">
    <ele>312.83000000000004</ele>
   </trkpt>
   <trkpt lat="50.90860000000001" lon="12.74726">
    <ele>312.83000000000004</ele>
   </trkpt>
   <trkpt lat="50.90901" lon="12.747250000000001">
    <ele>312.8</ele>
   </trkpt>
   <trkpt lat="50.909380000000006" lon="12.74717">
    <ele>312.73</ele>
   </trkpt>
   <trkpt lat="50.909780000000005" lon="12.747020000000001">
    <ele>312.68</ele>
   </trkpt>
   <trkpt lat="50.910180000000004" lon="12.74679">
    <ele>312.69</ele>
   </trkpt>
   <trkpt lat="50.910500000000006" lon="12.746540000000001">
    <ele>312.47</ele>
   </trkpt>
   <trkpt lat="50.910650000000004" lon="12.746400000000001">
    <ele>312.29</ele>
   </trkpt>
   <trkpt lat="50.91093000000001" lon="12.746070000000001">
    <ele>311.46000000000004</ele>
   </trkpt>
   <trkpt lat="50.911260000000006" lon="12.745610000000001">
    <ele>310.17</ele>
   </trkpt>
   <trkpt lat="50.91158" lon="12.74502">
    <ele>308.92</ele>
   </trkpt>
   <trkpt lat="50.911860000000004" lon="12.744320000000002">
    <ele>306.33000000000004</ele>
   </trkpt>
   <trkpt lat="50.912040000000005" lon="12.74374">
    <ele>304.87</ele>
   </trkpt>
   <trkpt lat="50.91226" lon="12.74291">
    <ele>303.61</ele>
   </trkpt>
   <trkpt lat="50.91252500552691" lon="12.741770006591219">
    <ele>302.04</ele>
   </trkpt>
   <trkpt lat="50.91279" lon="12.740630000000001">
    <ele>301.3</ele>
   </trkpt>
   <trkpt lat="50.91301500451898" lon="12.739600005033486">
    <ele>300.38000000000005</ele>
   </trkpt>
   <trkpt lat="50.91324" lon="12.738570000000001">
    <ele>299.93</ele>
   </trkpt>
   <trkpt lat="50.91324" lon="12.73858">
    <ele>299.93</ele>
   </trkpt>
   <trkpt lat="50.91347000947178" lon="12.73752667710041">
    <ele>299.26000000000005</ele>
   </trkpt>
   <trkpt lat="50.91370000946689" lon="12.736473343789687">
    <ele>297.6</ele>
   </trkpt>
   <trkpt lat="50.91393000000001" lon="12.735420000000001">
    <ele>296.58</ele>
   </trkpt>
   <trkpt lat="50.914125003093396" lon="12.734575003349752">
    <ele>295.89000000000004</ele>
   </trkpt>
   <trkpt lat="50.914320000000004" lon="12.733730000000001">
    <ele>296.22</ele>
   </trkpt>
   <trkpt lat="50.914730000000006" lon="12.734110000000001">
    <ele>296.82000000000005</ele>
   </trkpt>
   <trkpt lat="50.914730000000006" lon="12.734000000000002">
    <ele>296.53000000000003</ele>
   </trkpt>
   <trkpt lat="50.914480000000005" lon="12.7337">
    <ele>296.37</ele>
   </trkpt>
   <trkpt lat="50.914460000000005" lon="12.73366">
    <ele>296.37</ele>
   </trkpt>
   <trkpt lat="50.914460000000005" lon="12.733590000000001">
    <ele>296.37</ele>
   </trkpt>
   <trkpt lat="50.9147557588361" lon="12.732271478840374">
    <ele>294.23</ele>
   </trkpt>
   <trkpt lat="50.91505150282295" lon="12.73095294092229">
    <ele>291.11</ele>
   </trkpt>
   <trkpt lat="50.91534723196022" lon="12.729634386246197">
    <ele>289.37</ele>
   </trkpt>
   <trkpt lat="50.91564294624756" lon="12.728315814812547">
    <ele>288.96000000000004</ele>
   </trkpt>
   <trkpt lat="50.915938645684626" lon="12.72699722662179">
    <ele>290.71000000000004</ele>
   </trkpt>
   <trkpt lat="50.91623433027108" lon="12.72567862167438">
    <ele>293.01000000000005</ele>
   </trkpt>
   <trkpt lat="50.91653" lon="12.72436">
    <ele>293.96</ele>
   </trkpt>
   <trkpt lat="50.916790000000006" lon="12.72353">
    <ele>293.24</ele>
   </trkpt>
   <trkpt lat="50.91707" lon="12.722890000000001">
    <ele>291.44000000000005</ele>
   </trkpt>
   <trkpt lat="50.9175300032905" lon="12.722020008490276">
    <ele>288.21000000000004</ele>
   </trkpt>
   <trkpt lat="50.91799" lon="12.721150000000002">
    <ele>284.35</ele>
   </trkpt>
   <trkpt lat="50.918220000000005" lon="12.72081">
    <ele>282.98</ele>
   </trkpt>
   <trkpt lat="50.918630005322804" lon="12.720020013936374">
    <ele>281.06</ele>
   </trkpt>
   <trkpt lat="50.9190400053152" lon="12.719230013951206">
    <ele>278.55</ele>
   </trkpt>
   <trkpt lat="50.919450000000005" lon="12.718440000000001">
    <ele>278.63000000000005</ele>
   </trkpt>
   <trkpt lat="50.9196" lon="12.718090000000002">
    <ele>278.72</ele>
   </trkpt>
   <trkpt lat="50.91966000000001" lon="12.718000000000002">
    <ele>278.56</ele>
   </trkpt>
   <trkpt lat="50.919740000000004" lon="12.71793">
    <ele>278.36</ele>
   </trkpt>
   <trkpt lat="50.919900000000005" lon="12.71785">
    <ele>277.77000000000004</ele>
   </trkpt>
   <trkpt lat="50.92031" lon="12.717690000000001">
    <ele>276.71</ele>
   </trkpt>
   <trkpt lat="50.92076" lon="12.717250000000002">
    <ele>274.66</ele>
   </trkpt>
   <trkpt lat="50.92083" lon="12.717210000000001">
    <ele>274.66</ele>
   </trkpt>
   <trkpt lat="50.92147000000001" lon="12.71695">
    <ele>269.77</ele>
   </trkpt>
   <trkpt lat="50.92179" lon="12.716840000000001">
    <ele>268.98</ele>
   </trkpt>
   <trkpt lat="50.92181" lon="12.71668">
    <ele>268.89</ele>
   </trkpt>
   <trkpt lat="50.92188" lon="12.71649">
    <ele>268.7</ele>
   </trkpt>
   <trkpt lat="50.921980000000005" lon="12.716550000000002">
    <ele>267.8</ele>
   </trkpt>
   <trkpt lat="50.922090000000004" lon="12.716590000000002">
    <ele>267.38</ele>
   </trkpt>
   <trkpt lat="50.92217" lon="12.716600000000001">
    <ele>267.38</ele>
   </trkpt>
   <trkpt lat="50.922360000000005" lon="12.716550000000002">
    <ele>266.57000000000005</ele>
   </trkpt>
   <trkpt lat="50.9226" lon="12.716380000000001">
    <ele>265.83</ele>
   </trkpt>
   <trkpt lat="50.92330500169474" lon="12.71576500924991">
    <ele>262.07</ele>
   </trkpt>
   <trkpt lat="50.92401" lon="12.715150000000001">
    <ele>260.05</ele>
   </trkpt>
   <trkpt lat="50.92469333688382" lon="12.714503352350258">
    <ele>259.07</ele>
   </trkpt>
   <trkpt lat="50.925376670196215" lon="12.713856685703774">
    <ele>258.68</ele>
   </trkpt>
   <trkpt lat="50.92606000000001" lon="12.713210000000002">
    <ele>257.73</ele>
   </trkpt>
   <trkpt lat="50.926120000000004" lon="12.713120000000002">
    <ele>257.73</ele>
   </trkpt>
   <trkpt lat="50.926410000000004" lon="12.712330000000001">
    <ele>256.21</ele>
   </trkpt>
   <trkpt lat="50.92678000596788" lon="12.711145009516724">
    <ele>251.91000000000003</ele>
   </trkpt>
   <trkpt lat="50.927150000000005" lon="12.70996">
    <ele>250.07000000000002</ele>
   </trkpt>
   <trkpt lat="50.927240000000005" lon="12.70977">
    <ele>247.92000000000002</ele>
   </trkpt>
   <trkpt lat="50.92741" lon="12.709480000000001">
    <ele>246.86</ele>
   </trkpt>
   <trkpt lat="50.92788666955169" lon="12.708896678647601">
    <ele>245.51000000000002</ele>
   </trkpt>
   <trkpt lat="50.928363336197286" lon="12.708313345340214">
    <ele>240.89000000000001</ele>
   </trkpt>
   <trkpt lat="50.92884" lon="12.707730000000002">
    <ele>238.70000000000002</ele>
   </trkpt>
   <trkpt lat="50.92928000130652" lon="12.7072000048846">
    <ele>235.91</ele>
   </trkpt>
   <trkpt lat="50.92972" lon="12.70667">
    <ele>233.14000000000001</ele>
   </trkpt>
   <trkpt lat="50.930110000000006" lon="12.706290000000001">
    <ele>231.58</ele>
   </trkpt>
   <trkpt lat="50.930420000000005" lon="12.706040000000002">
    <ele>230.73000000000002</ele>
   </trkpt>
   <trkpt lat="50.930710000000005" lon="12.705850000000002">
    <ele>229.51000000000002</ele>
   </trkpt>
   <trkpt lat="50.930930000000004" lon="12.705770000000001">
    <ele>227.96</ele>
   </trkpt>
   <trkpt lat="50.931290000000004" lon="12.705710000000002">
    <ele>226.68</ele>
   </trkpt>
   <trkpt lat="50.93151" lon="12.705710000000002">
    <ele>225.19000000000003</ele>
   </trkpt>
   <trkpt lat="50.93157" lon="12.70573">
    <ele>225.19000000000003</ele>
   </trkpt>
   <trkpt lat="50.93164" lon="12.705860000000001">
    <ele>221.38000000000002</ele>
   </trkpt>
   <trkpt lat="50.93179000000001" lon="12.70644">
    <ele>219.31</ele>
   </trkpt>
   <trkpt lat="50.931850000000004" lon="12.706550000000002">
    <ele>217.92000000000002</ele>
   </trkpt>
   <trkpt lat="50.93191" lon="12.70658">
    <ele>217.92000000000002</ele>
   </trkpt>
   <trkpt lat="50.932010000000005" lon="12.70659">
    <ele>217.78000000000003</ele>
   </trkpt>
   <trkpt lat="50.93236" lon="12.706430000000001">
    <ele>214.28000000000003</ele>
   </trkpt>
   <trkpt lat="50.93249" lon="12.706330000000001">
    <ele>212.67000000000002</ele>
   </trkpt>
   <trkpt lat="50.93287" lon="12.70598">
    <ele>211.19000000000003</ele>
   </trkpt>
   <trkpt lat="50.933040000000005" lon="12.70588">
    <ele>211.09000000000003</ele>
   </trkpt>
   <trkpt lat="50.93356000000001" lon="12.705620000000001">
    <ele>209.29</ele>
   </trkpt>
   <trkpt lat="50.93361" lon="12.705570000000002">
    <ele>209.29</ele>
   </trkpt>
   <trkpt lat="50.93363" lon="12.705520000000002">
    <ele>209.29</ele>
   </trkpt>
   <trkpt lat="50.93361" lon="12.70536">
    <ele>209.16</ele>
   </trkpt>
   <trkpt lat="50.93330500186607" lon="12.704699995684699">
    <ele>209.27</ele>
   </trkpt>
   <trkpt lat="50.93300000000001" lon="12.70404">
    <ele>209.06000000000003</ele>
   </trkpt>
   <trkpt lat="50.93300000000001" lon="12.70395">
    <ele>209.06000000000003</ele>
   </trkpt>
   <trkpt lat="50.93318000000001" lon="12.70362">
    <ele>208.87000000000003</ele>
   </trkpt>
   <trkpt lat="50.93374000000001" lon="12.70274">
    <ele>208.43</ele>
   </trkpt>
   <trkpt lat="50.93399" lon="12.702940000000002">
    <ele>208.09000000000003</ele>
   </trkpt>
   <trkpt lat="50.934810000000006" lon="12.703420000000001">
    <ele>207.89000000000001</ele>
   </trkpt>
   <trkpt lat="50.934920000000005" lon="12.703510000000001">
    <ele>207.86</ele>
   </trkpt>
   <trkpt lat="50.935140000000004" lon="12.70372">
    <ele>207.68</ele>
   </trkpt>
   <trkpt lat="50.93531" lon="12.703930000000001">
    <ele>207.17000000000002</ele>
   </trkpt>
   <trkpt lat="50.935390000000005" lon="12.70409">
    <ele>207.17000000000002</ele>
   </trkpt>
   <trkpt lat="50.935460000000006" lon="12.704030000000001">
    <ele>207.25</ele>
   </trkpt>
   <trkpt lat="50.93571000000001" lon="12.70419">
    <ele>207.78000000000003</ele>
   </trkpt>
   <trkpt lat="50.93582000000001" lon="12.704360000000001">
    <ele>207.84000000000003</ele>
   </trkpt>
   <trkpt lat="50.93600000000001" lon="12.7047">
    <ele>207.79000000000002</ele>
   </trkpt>
   <trkpt lat="50.936060000000005" lon="12.70476">
    <ele>207.79000000000002</ele>
   </trkpt>
   <trkpt lat="50.93641" lon="12.70498">
    <ele>208.04000000000002</ele>
   </trkpt>
   <trkpt lat="50.936580000000006" lon="12.705020000000001">
    <ele>208.04000000000002</ele>
   </trkpt>
   <trkpt lat="50.937000000000005" lon="12.70504">
    <ele>208.45000000000002</ele>
   </trkpt>
   <trkpt lat="50.937110000000004" lon="12.705070000000001">
    <ele>208.81000000000003</ele>
   </trkpt>
   <trkpt lat="50.937200000000004" lon="12.705150000000001">
    <ele>208.81000000000003</ele>
   </trkpt>
   <trkpt lat="50.93728" lon="12.70517">
    <ele>208.99</ele>
   </trkpt>
   <trkpt lat="50.93777000000001" lon="12.70509">
    <ele>210.05</ele>
   </trkpt>
   <trkpt lat="50.93829" lon="12.70509">
    <ele>211.14000000000001</ele>
   </trkpt>
   <trkpt lat="50.938930000000006" lon="12.705290000000002">
    <ele>212.25000000000003</ele>
   </trkpt>
   <trkpt lat="50.93914" lon="12.70546">
    <ele>212.33</ele>
   </trkpt>
   <trkpt lat="50.939620000000005" lon="12.705950000000001">
    <ele>213.67000000000002</ele>
   </trkpt>
   <trkpt lat="50.93974000000001" lon="12.706040000000002">
    <ele>215.16000000000003</ele>
   </trkpt>
   <trkpt lat="50.939870000000006" lon="12.706080000000002">
    <ele>215.16000000000003</ele>
   </trkpt>
   <trkpt lat="50.940465000052775" lon="12.706144999172">
    <ele>217.85000000000002</ele>
   </trkpt>
   <trkpt lat="50.94106000000001" lon="12.70621">
    <ele>218.72000000000003</ele>
   </trkpt>
   <trkpt lat="50.94111" lon="12.706220000000002">
    <ele>218.73</ele>
   </trkpt>
   <trkpt lat="50.94196" lon="12.7063">
    <ele>221.19000000000003</ele>
   </trkpt>
   <trkpt lat="50.94227000000001" lon="12.70639">
    <ele>220.95000000000002</ele>
   </trkpt>
   <trkpt lat="50.942530000000005" lon="12.706320000000002">
    <ele>221.27</ele>
   </trkpt>
   <trkpt lat="50.94276000000001" lon="12.70616">
    <ele>221.91000000000003</ele>
   </trkpt>
   <trkpt lat="50.94303000000001" lon="12.70583">
    <ele>223.17000000000002</ele>
   </trkpt>
   <trkpt lat="50.94326" lon="12.70542">
    <ele>226.92000000000002</ele>
   </trkpt>
   <trkpt lat="50.943450000000006" lon="12.704910000000002">
    <ele>232.47</ele>
   </trkpt>
   <trkpt lat="50.943650000000005" lon="12.704170000000001">
    <ele>235.99000000000004</ele>
   </trkpt>
   <trkpt lat="50.94373" lon="12.703990000000001">
    <ele>236.32000000000002</ele>
   </trkpt>
   <trkpt lat="50.943870000000004" lon="12.703750000000001">
    <ele>236.47</ele>
   </trkpt>
   <trkpt lat="50.944320000000005" lon="12.703170000000002">
    <ele>236.84000000000003</ele>
   </trkpt>
   <trkpt lat="50.94509000000001" lon="12.70245">
    <ele>240.6</ele>
   </trkpt>
   <trkpt lat="50.945510000000006" lon="12.70212">
    <ele>242.53000000000003</ele>
   </trkpt>
   <trkpt lat="50.94558000000001" lon="12.702010000000001">
    <ele>243.40000000000003</ele>
   </trkpt>
   <trkpt lat="50.94597" lon="12.70124">
    <ele>245.78000000000003</ele>
   </trkpt>
   <trkpt lat="50.946070000000006" lon="12.701070000000001">
    <ele>247.16000000000003</ele>
   </trkpt>
   <trkpt lat="50.94621" lon="12.7009">
    <ele>248.02</ele>
   </trkpt>
   <trkpt lat="50.9463" lon="12.700830000000002">
    <ele>248.64000000000001</ele>
   </trkpt>
   <trkpt lat="50.946540000000006" lon="12.700730000000002">
    <ele>250.32999999999998</ele>
   </trkpt>
   <trkpt lat="50.94706000000001" lon="12.70057">
    <ele>256.46000000000004</ele>
   </trkpt>
   <trkpt lat="50.94718" lon="12.70044">
    <ele>257.59000000000003</ele>
   </trkpt>
   <trkpt lat="50.94727" lon="12.70025">
    <ele>258.75000000000006</ele>
   </trkpt>
   <trkpt lat="50.94764000000001" lon="12.699610000000002">
    <ele>261.69000000000005</ele>
   </trkpt>
   <trkpt lat="50.94805000199577" lon="12.698930005962206">
    <ele>264.77</ele>
   </trkpt>
   <trkpt lat="50.948460000000004" lon="12.698250000000002">
    <ele>268.28000000000003</ele>
   </trkpt>
   <trkpt lat="50.94847000000001" lon="12.69814">
    <ele>268.59</ele>
   </trkpt>
   <trkpt lat="50.94852" lon="12.69828">
    <ele>268.24</ele>
   </trkpt>
   <trkpt lat="50.948530000000005" lon="12.698430000000002">
    <ele>268.14000000000004</ele>
   </trkpt>
   <trkpt lat="50.9485" lon="12.698670000000002">
    <ele>267.5</ele>
   </trkpt>
   <trkpt lat="50.94832" lon="12.699580000000001">
    <ele>266.47</ele>
   </trkpt>
   <trkpt lat="50.948240000000006" lon="12.7001">
    <ele>265.92</ele>
   </trkpt>
   <trkpt lat="50.948240000000006" lon="12.700400000000002">
    <ele>265.72</ele>
   </trkpt>
   <trkpt lat="50.94827" lon="12.700780000000002">
    <ele>265.61</ele>
   </trkpt>
   <trkpt lat="50.94841" lon="12.701730000000001">
    <ele>265.05</ele>
   </trkpt>
   <trkpt lat="50.948475002396464" lon="12.702479998891478">
    <ele>265.68</ele>
   </trkpt>
   <trkpt lat="50.94854" lon="12.703230000000001">
    <ele>266.8</ele>
   </trkpt>
   <trkpt lat="50.948645004329414" lon="12.704234997892568">
    <ele>268.12</ele>
   </trkpt>
   <trkpt lat="50.948750000000004" lon="12.705240000000002">
    <ele>268.56</ele>
   </trkpt>
   <trkpt lat="50.94877" lon="12.706650000000002">
    <ele>266.71</ele>
   </trkpt>
   <trkpt lat="50.94868000744636" lon="12.707970002452736">
    <ele>263.84000000000003</ele>
   </trkpt>
   <trkpt lat="50.94859" lon="12.709290000000001">
    <ele>263.56</ele>
   </trkpt>
   <trkpt lat="50.94852500217413" lon="12.71000500109446">
    <ele>263.73</ele>
   </trkpt>
   <trkpt lat="50.948460000000004" lon="12.71072">
    <ele>263.88</ele>
   </trkpt>
   <trkpt lat="50.94847000000001" lon="12.711150000000002">
    <ele>264.1</ele>
   </trkpt>
   <trkpt lat="50.94856500530008" lon="12.712264997627472">
    <ele>264.76</ele>
   </trkpt>
   <trkpt lat="50.948660000000004" lon="12.71338">
    <ele>264.34000000000003</ele>
   </trkpt>
   <trkpt lat="50.948660000000004" lon="12.71343">
    <ele>264.27</ele>
   </trkpt>
   <trkpt lat="50.9486850022477" lon="12.71415499971114">
    <ele>261.8</ele>
   </trkpt>
   <trkpt lat="50.948710000000005" lon="12.71488">
    <ele>259.73</ele>
   </trkpt>
   <trkpt lat="50.948780000000006" lon="12.715520000000001">
    <ele>258.73</ele>
   </trkpt>
   <trkpt lat="50.94901" lon="12.716590000000002">
    <ele>257.51</ele>
   </trkpt>
   <trkpt lat="50.949310000000004" lon="12.71756">
    <ele>258.09999999999997</ele>
   </trkpt>
   <trkpt lat="50.94952000000001" lon="12.718530000000001">
    <ele>256.71</ele>
   </trkpt>
   <trkpt lat="50.949540000000006" lon="12.71906">
    <ele>254.70000000000005</ele>
   </trkpt>
   <trkpt lat="50.94938000414955" lon="12.720045003346877">
    <ele>251.62</ele>
   </trkpt>
   <trkpt lat="50.949220000000004" lon="12.72103">
    <ele>248.71</ele>
   </trkpt>
   <trkpt lat="50.94902334045587" lon="12.721943341065145">
    <ele>247.14000000000001</ele>
   </trkpt>
   <trkpt lat="50.948826673788496" lon="12.722856674401662">
    <ele>244.77</ele>
   </trkpt>
   <trkpt lat="50.94863" lon="12.723770000000002">
    <ele>242.83</ele>
   </trkpt>
   <trkpt lat="50.94856000000001" lon="12.72436">
    <ele>240.07000000000002</ele>
   </trkpt>
   <trkpt lat="50.94856000000001" lon="12.724820000000001">
    <ele>238.96</ele>
   </trkpt>
   <trkpt lat="50.948600000000006" lon="12.72525">
    <ele>238.12000000000003</ele>
   </trkpt>
   <trkpt lat="50.948600000000006" lon="12.72522">
    <ele>238.15000000000003</ele>
   </trkpt>
   <trkpt lat="50.948640000000005" lon="12.725610000000001">
    <ele>236.86</ele>
   </trkpt>
   <trkpt lat="50.948640000000005" lon="12.72681">
    <ele>235.59</ele>
   </trkpt>
   <trkpt lat="50.94867000000001" lon="12.72803">
    <ele>234.21000000000004</ele>
   </trkpt>
   <trkpt lat="50.94876000000001" lon="12.729040000000001">
    <ele>232.97</ele>
   </trkpt>
   <trkpt lat="50.94877" lon="12.72963">
    <ele>233.0</ele>
   </trkpt>
   <trkpt lat="50.9487" lon="12.72971">
    <ele>233.0</ele>
   </trkpt>
   <trkpt lat="50.94896000171625" lon="12.730349996339934">
    <ele>232.96000000000004</ele>
   </trkpt>
   <trkpt lat="50.949220000000004" lon="12.73099">
    <ele>233.5</ele>
   </trkpt>
   <trkpt lat="50.949510001465164" lon="12.731599995934282">
    <ele>232.36</ele>
   </trkpt>
   <trkpt lat="50.9498" lon="12.73221">
    <ele>230.57000000000002</ele>
   </trkpt>
   <trkpt lat="50.950320000000005" lon="12.733080000000001">
    <ele>223.78</ele>
   </trkpt>
   <trkpt lat="50.95044000000001" lon="12.73323">
    <ele>223.78</ele>
   </trkpt>
   <trkpt lat="50.95082000000001" lon="12.733630000000002">
    <ele>223.36</ele>
   </trkpt>
   <trkpt lat="50.95118" lon="12.73398">
    <ele>223.76000000000002</ele>
   </trkpt>
   <trkpt lat="50.95140000000001" lon="12.73426">
    <ele>225.8</ele>
   </trkpt>
   <trkpt lat="50.951510000000006" lon="12.734430000000001">
    <ele>226.5</ele>
   </trkpt>
   <trkpt lat="50.95177500289839" lon="12.73525499527256">
    <ele>234.85000000000002</ele>
   </trkpt>
   <trkpt lat="50.952040000000004" lon="12.736080000000001">
    <ele>243.02</ele>
   </trkpt>
   <trkpt lat="50.952310000000004" lon="12.737050000000002">
    <ele>247.09000000000003</ele>
   </trkpt>
   <trkpt lat="50.95248" lon="12.73773">
    <ele>248.75000000000003</ele>
   </trkpt>
   <trkpt lat="50.95264" lon="12.73849">
    <ele>249.49</ele>
   </trkpt>
   <trkpt lat="50.95270000000001" lon="12.739040000000001">
    <ele>249.9</ele>
   </trkpt>
   <trkpt lat="50.952760000000005" lon="12.74037">
    <ele>251.48000000000002</ele>
   </trkpt>
   <trkpt lat="50.95278000327329" lon="12.741244999819319">
    <ele>251.82999999999998</ele>
   </trkpt>
   <trkpt lat="50.9528" lon="12.742120000000002">
    <ele>251.0</ele>
   </trkpt>
   <trkpt lat="50.952780000000004" lon="12.742680000000002">
    <ele>249.98</ele>
   </trkpt>
   <trkpt lat="50.95271" lon="12.743380000000002">
    <ele>248.04</ele>
   </trkpt>
   <trkpt lat="50.95275" lon="12.743850000000002">
    <ele>247.71</ele>
   </trkpt>
   <trkpt lat="50.95299000000001" lon="12.744790000000002">
    <ele>245.13</ele>
   </trkpt>
   <trkpt lat="50.95321500195152" lon="12.745474996525969">
    <ele>244.18</ele>
   </trkpt>
   <trkpt lat="50.95344000000001" lon="12.746160000000001">
    <ele>242.83</ele>
   </trkpt>
   <trkpt lat="50.95353" lon="12.746400000000001">
    <ele>242.25000000000003</ele>
   </trkpt>
   <trkpt lat="50.95369" lon="12.746690000000001">
    <ele>242.12000000000003</ele>
   </trkpt>
   <trkpt lat="50.953770000000006" lon="12.74689">
    <ele>241.81000000000003</ele>
   </trkpt>
   <trkpt lat="50.95402000000001" lon="12.747750000000002">
    <ele>241.35</ele>
   </trkpt>
   <trkpt lat="50.95426000411893" lon="12.748734994817246">
    <ele>240.82</ele>
   </trkpt>
   <trkpt lat="50.9545" lon="12.749720000000002">
    <ele>236.71000000000004</ele>
   </trkpt>
   <trkpt lat="50.95461" lon="12.749950000000002">
    <ele>235.08</ele>
   </trkpt>
   <trkpt lat="50.95474" lon="12.750090000000002">
    <ele>234.11</ele>
   </trkpt>
   <trkpt lat="50.95506" lon="12.75036">
    <ele>229.91000000000003</ele>
   </trkpt>
   <trkpt lat="50.95526" lon="12.75059">
    <ele>226.93</ele>
   </trkpt>
   <trkpt lat="50.955510000000004" lon="12.75111">
    <ele>223.27</ele>
   </trkpt>
   <trkpt lat="50.95568" lon="12.7514">
    <ele>218.95</ele>
   </trkpt>
   <trkpt lat="50.956230002468295" lon="12.752159991008094">
    <ele>214.46</ele>
   </trkpt>
   <trkpt lat="50.95678" lon="12.752920000000001">
    <ele>208.75000000000003</ele>
   </trkpt>
   <trkpt lat="50.957350000000005" lon="12.753540000000001">
    <ele>201.93000000000004</ele>
   </trkpt>
   <trkpt lat="50.957510000000006" lon="12.75397">
    <ele>200.09</ele>
   </trkpt>
   <trkpt lat="50.957600000000006" lon="12.75407">
    <ele>198.16</ele>
   </trkpt>
   <trkpt lat="50.9577" lon="12.75412">
    <ele>196.92000000000002</ele>
   </trkpt>
   <trkpt lat="50.957930000000005" lon="12.75412">
    <ele>190.92000000000002</ele>
   </trkpt>
   <trkpt lat="50.95814000000001" lon="12.754080000000002">
    <ele>190.92000000000002</ele>
   </trkpt>
   <trkpt lat="50.958220000000004" lon="12.754080000000002">
    <ele>190.89</ele>
   </trkpt>
   <trkpt lat="50.95834000000001" lon="12.754130000000002">
    <ele>188.16000000000003</ele>
   </trkpt>
   <trkpt lat="50.95846" lon="12.75425">
    <ele>186.95</ele>
   </trkpt>
   <trkpt lat="50.95871" lon="12.754650000000002">
    <ele>183.61</ele>
   </trkpt>
   <trkpt lat="50.958870000000005" lon="12.75481">
    <ele>182.71</ele>
   </trkpt>
   <trkpt lat="50.958940000000005" lon="12.754840000000002">
    <ele>182.71</ele>
   </trkpt>
   <trkpt lat="50.95906" lon="12.75486">
    <ele>182.76</ele>
   </trkpt>
   <trkpt lat="50.95924" lon="12.754790000000002">
    <ele>182.74</ele>
   </trkpt>
   <trkpt lat="50.959410000000005" lon="12.754760000000001">
    <ele>182.6</ele>
   </trkpt>
   <trkpt lat="50.959430000000005" lon="12.75514">
    <ele>182.27</ele>
   </trkpt>
   <trkpt lat="50.95949" lon="12.755450000000002">
    <ele>182.4</ele>
   </trkpt>
   <trkpt lat="50.95966000000001" lon="12.75586">
    <ele>182.58</ele>
   </trkpt>
   <trkpt lat="50.95971" lon="12.755920000000001">
    <ele>182.62</ele>
   </trkpt>
   <trkpt lat="50.9598" lon="12.755970000000001">
    <ele>182.62</ele>
   </trkpt>
   <trkpt lat="50.96054" lon="12.756070000000001">
    <ele>182.67000000000002</ele>
   </trkpt>
   <trkpt lat="50.96096000000001" lon="12.75609">
    <ele>182.64000000000001</ele>
   </trkpt>
   <trkpt lat="50.961380000000005" lon="12.756050000000002">
    <ele>182.7</ele>
   </trkpt>
   <trkpt lat="50.96194999997314" lon="12.755945001301818">
    <ele>182.74</ele>
   </trkpt>
   <trkpt lat="50.962520000000005" lon="12.755840000000001">
    <ele>182.44000000000003</ele>
   </trkpt>
   <trkpt lat="50.96261500280635" lon="12.756649998389323">
    <ele>183.25000000000003</ele>
   </trkpt>
   <trkpt lat="50.96271" lon="12.757460000000002">
    <ele>183.7</ele>
   </trkpt>
   <trkpt lat="50.96275000000001" lon="12.757600000000002">
    <ele>183.7</ele>
   </trkpt>
   <trkpt lat="50.962790000000005" lon="12.757670000000001">
    <ele>183.7</ele>
   </trkpt>
   <trkpt lat="50.96287" lon="12.75773">
    <ele>183.72000000000003</ele>
   </trkpt>
   <trkpt lat="50.96305" lon="12.75782">
    <ele>183.72000000000003</ele>
   </trkpt>
   <trkpt lat="50.963350000000005" lon="12.75791">
    <ele>183.68</ele>
   </trkpt>
   <trkpt lat="50.96331000000001" lon="12.757900000000001">
    <ele>183.67000000000002</ele>
   </trkpt>
   <trkpt lat="50.96376000000001" lon="12.758040000000001">
    <ele>184.44000000000003</ele>
   </trkpt>
   <trkpt lat="50.963730000000005" lon="12.75825">
    <ele>184.96</ele>
   </trkpt>
   <trkpt lat="50.96369000000001" lon="12.75838">
    <ele>184.96</ele>
   </trkpt>
   <trkpt lat="50.963640000000005" lon="12.758500000000002">
    <ele>185.06</ele>
   </trkpt>
   <trkpt lat="50.96358000000001" lon="12.758540000000002">
    <ele>185.3</ele>
   </trkpt>
   <trkpt lat="50.9635" lon="12.758560000000001">
    <ele>185.3</ele>
   </trkpt>
   <trkpt lat="50.96285" lon="12.758310000000002">
    <ele>190.72000000000003</ele>
   </trkpt>
   <trkpt lat="50.96244" lon="12.75824">
    <ele>192.12</ele>
   </trkpt>
   <trkpt lat="50.961760000000005" lon="12.758090000000001">
    <ele>195.89000000000001</ele>
   </trkpt>
   <trkpt lat="50.961690000000004" lon="12.7581">
    <ele>195.89000000000001</ele>
   </trkpt>
   <trkpt lat="50.961600000000004" lon="12.7582">
    <ele>196.24</ele>
   </trkpt>
   <trkpt lat="50.96155" lon="12.7583">
    <ele>196.58</ele>
   </trkpt>
   <trkpt lat="50.96144" lon="12.75862">
    <ele>196.84</ele>
   </trkpt>
   <trkpt lat="50.96134000000001" lon="12.758750000000001">
    <ele>198.14000000000001</ele>
   </trkpt>
   <trkpt lat="50.96126" lon="12.758820000000002">
    <ele>198.14000000000001</ele>
   </trkpt>
   <trkpt lat="50.961090000000006" lon="12.758890000000001">
    <ele>200.99000000000004</ele>
   </trkpt>
   <trkpt lat="50.96099" lon="12.75895">
    <ele>201.9</ele>
   </trkpt>
   <trkpt lat="50.960350000000005" lon="12.759680000000001">
    <ele>210.38</ele>
   </trkpt>
   <trkpt lat="50.95996" lon="12.760040000000002">
    <ele>214.54</ele>
   </trkpt>
   <trkpt lat="50.95975000000001" lon="12.76036">
    <ele>217.25000000000003</ele>
   </trkpt>
   <trkpt lat="50.95945500247816" lon="12.761125004909664">
    <ele>222.07000000000002</ele>
   </trkpt>
   <trkpt lat="50.959160000000004" lon="12.761890000000001">
    <ele>227.23000000000002</ele>
   </trkpt>
   <trkpt lat="50.95888" lon="12.762450000000001">
    <ele>229.24</ele>
   </trkpt>
   <trkpt lat="50.95881000000001" lon="12.762680000000001">
    <ele>230.82000000000002</ele>
   </trkpt>
   <trkpt lat="50.95877" lon="12.76293">
    <ele>230.82000000000002</ele>
   </trkpt>
   <trkpt lat="50.95871" lon="12.763580000000001">
    <ele>231.96000000000004</ele>
   </trkpt>
   <trkpt lat="50.958400000000005" lon="12.76482">
    <ele>237.24</ele>
   </trkpt>
   <trkpt lat="50.95835" lon="12.76547">
    <ele>239.13</ele>
   </trkpt>
   <trkpt lat="50.958360000000006" lon="12.766250000000001">
    <ele>241.04000000000002</ele>
   </trkpt>
   <trkpt lat="50.9585" lon="12.76749">
    <ele>241.49</ele>
   </trkpt>
   <trkpt lat="50.95853" lon="12.76852">
    <ele>241.95000000000002</ele>
   </trkpt>
   <trkpt lat="50.958780000000004" lon="12.769610000000002">
    <ele>243.3</ele>
   </trkpt>
   <trkpt lat="50.95877" lon="12.769730000000001">
    <ele>243.1</ele>
   </trkpt>
   <trkpt lat="50.958690000000004" lon="12.76998">
    <ele>242.03000000000003</ele>
   </trkpt>
   <trkpt lat="50.95825000000001" lon="12.7703">
    <ele>238.29000000000002</ele>
   </trkpt>
   <trkpt lat="50.95826" lon="12.770290000000001">
    <ele>238.38</ele>
   </trkpt>
   <trkpt lat="50.957840000000004" lon="12.770610000000001">
    <ele>234.86</ele>
   </trkpt>
   <trkpt lat="50.957750000000004" lon="12.77072">
    <ele>234.36</ele>
   </trkpt>
   <trkpt lat="50.95749000000001" lon="12.771260000000002">
    <ele>232.03</ele>
   </trkpt>
   <trkpt lat="50.957080000000005" lon="12.771840000000001">
    <ele>227.15</ele>
   </trkpt>
   <trkpt lat="50.95666000000001" lon="12.772480000000002">
    <ele>227.56</ele>
   </trkpt>
   <trkpt lat="50.95664000000001" lon="12.7726">
    <ele>227.83000000000004</ele>
   </trkpt>
   <trkpt lat="50.95664000000001" lon="12.772860000000001">
    <ele>228.27</ele>
   </trkpt>
   <trkpt lat="50.95667" lon="12.773240000000001">
    <ele>228.41000000000003</ele>
   </trkpt>
   <trkpt lat="50.956700000000005" lon="12.77335">
    <ele>228.41000000000003</ele>
   </trkpt>
   <trkpt lat="50.956810000000004" lon="12.77358">
    <ele>228.81</ele>
   </trkpt>
   <trkpt lat="50.95703" lon="12.774890000000001">
    <ele>231.48000000000002</ele>
   </trkpt>
   <trkpt lat="50.95712" lon="12.775300000000001">
    <ele>231.87</ele>
   </trkpt>
   <trkpt lat="50.957240000000006" lon="12.77569">
    <ele>232.56</ele>
   </trkpt>
   <trkpt lat="50.95729000000001" lon="12.776200000000001">
    <ele>232.85000000000002</ele>
   </trkpt>
   <trkpt lat="50.957300000000004" lon="12.776330000000002">
    <ele>233.0</ele>
   </trkpt>
   <trkpt lat="50.957240000000006" lon="12.777560000000001">
    <ele>235.18000000000004</ele>
   </trkpt>
   <trkpt lat="50.957240000000006" lon="12.778010000000002">
    <ele>236.70000000000002</ele>
   </trkpt>
   <trkpt lat="50.95729000000001" lon="12.77852">
    <ele>239.77</ele>
   </trkpt>
   <trkpt lat="50.957260000000005" lon="12.77874">
    <ele>241.18000000000004</ele>
   </trkpt>
   <trkpt lat="50.957170000000005" lon="12.77899">
    <ele>242.16</ele>
   </trkpt>
   <trkpt lat="50.956950000000006" lon="12.77945">
    <ele>244.53000000000003</ele>
   </trkpt>
   <trkpt lat="50.95666000000001" lon="12.780230000000001">
    <ele>250.69000000000003</ele>
   </trkpt>
   <trkpt lat="50.95638000183653" lon="12.780895004129217">
    <ele>254.46</ele>
   </trkpt>
   <trkpt lat="50.956100000000006" lon="12.78156">
    <ele>264.26</ele>
   </trkpt>
   <trkpt lat="50.95595" lon="12.781880000000001">
    <ele>266.25000000000006</ele>
   </trkpt>
   <trkpt lat="50.95546" lon="12.782720000000001">
    <ele>274.02000000000004</ele>
   </trkpt>
   <trkpt lat="50.9553" lon="12.783050000000001">
    <ele>275.44</ele>
   </trkpt>
   <trkpt lat="50.95496000000001" lon="12.784110000000002">
    <ele>281.7</ele>
   </trkpt>
   <trkpt lat="50.95485000000001" lon="12.78462">
    <ele>284.36</ele>
   </trkpt>
   <trkpt lat="50.95479" lon="12.78481">
    <ele>285.12000000000006</ele>
   </trkpt>
   <trkpt lat="50.95463" lon="12.78503">
    <ele>286.2</ele>
   </trkpt>
   <trkpt lat="50.95422000044986" lon="12.785405003446053">
    <ele>287.23</ele>
   </trkpt>
   <trkpt lat="50.953810000000004" lon="12.78578">
    <ele>289.83000000000004</ele>
   </trkpt>
   <trkpt lat="50.9534" lon="12.78606">
    <ele>291.08</ele>
   </trkpt>
   <trkpt lat="50.95293" lon="12.78626">
    <ele>291.58</ele>
   </trkpt>
   <trkpt lat="50.95235" lon="12.786410000000002">
    <ele>290.27000000000004</ele>
   </trkpt>
   <trkpt lat="50.952020000000005" lon="12.786520000000001">
    <ele>288.0</ele>
   </trkpt>
   <trkpt lat="50.95156" lon="12.786700000000002">
    <ele>287.02</ele>
   </trkpt>
   <trkpt lat="50.951330000000006" lon="12.786760000000001">
    <ele>288.2</ele>
   </trkpt>
   <trkpt lat="50.95087" lon="12.786840000000002">
    <ele>290.59000000000003</ele>
   </trkpt>
   <trkpt lat="50.95076" lon="12.78696">
    <ele>291.23</ele>
   </trkpt>
   <trkpt lat="50.950660000000006" lon="12.786900000000001">
    <ele>291.2</ele>
   </trkpt>
   <trkpt lat="50.950500000000005" lon="12.786880000000002">
    <ele>291.27000000000004</ele>
   </trkpt>
   <trkpt lat="50.94993500004213" lon="12.786859999758319">
    <ele>291.51000000000005</ele>
   </trkpt>
   <trkpt lat="50.94937" lon="12.786840000000002">
    <ele>291.88</ele>
   </trkpt>
   <trkpt lat="50.94896000000001" lon="12.78687">
    <ele>292.32</ele>
   </trkpt>
   <trkpt lat="50.94868" lon="12.786940000000001">
    <ele>292.50000000000006</ele>
   </trkpt>
   <trkpt lat="50.94834" lon="12.78711">
    <ele>293.05</ele>
   </trkpt>
   <trkpt lat="50.94800000000001" lon="12.787320000000001">
    <ele>293.73</ele>
   </trkpt>
   <trkpt lat="50.947590000000005" lon="12.787600000000001">
    <ele>294.97</ele>
   </trkpt>
   <trkpt lat="50.94737000000001" lon="12.787770000000002">
    <ele>295.41</ele>
   </trkpt>
   <trkpt lat="50.947160000000004" lon="12.787980000000001">
    <ele>296.16</ele>
   </trkpt>
   <trkpt lat="50.94698" lon="12.788210000000001">
    <ele>296.37</ele>
   </trkpt>
   <trkpt lat="50.9468" lon="12.7885">
    <ele>296.52</ele>
   </trkpt>
   <trkpt lat="50.94650333959849" lon="12.78935334408988">
    <ele>296.87</ele>
   </trkpt>
   <trkpt lat="50.94620667297874" lon="12.790206677288085">
    <ele>296.83000000000004</ele>
   </trkpt>
   <trkpt lat="50.945910000000005" lon="12.791060000000002">
    <ele>297.50000000000006</ele>
   </trkpt>
   <trkpt lat="50.94567000000001" lon="12.791590000000001">
    <ele>297.63</ele>
   </trkpt>
   <trkpt lat="50.94520000000001" lon="12.792480000000001">
    <ele>297.77000000000004</ele>
   </trkpt>
   <trkpt lat="50.945130000000006" lon="12.792700000000002">
    <ele>297.72</ele>
   </trkpt>
   <trkpt lat="50.94505" lon="12.79311">
    <ele>297.39000000000004</ele>
   </trkpt>
   <trkpt lat="50.944970000000005" lon="12.793400000000002">
    <ele>296.95000000000005</ele>
   </trkpt>
   <trkpt lat="50.94483" lon="12.793700000000001">
    <ele>296.73</ele>
   </trkpt>
   <trkpt lat="50.944410000000005" lon="12.794250000000002">
    <ele>296.45000000000005</ele>
   </trkpt>
   <trkpt lat="50.94413" lon="12.794670000000002">
    <ele>296.28000000000003</ele>
   </trkpt>
   <trkpt lat="50.94402" lon="12.794910000000002">
    <ele>296.13</ele>
   </trkpt>
   <trkpt lat="50.943900000000006" lon="12.795350000000001">
    <ele>295.53000000000003</ele>
   </trkpt>
   <trkpt lat="50.943810000000006" lon="12.79555">
    <ele>294.66</ele>
   </trkpt>
   <trkpt lat="50.94357" lon="12.79579">
    <ele>293.37</ele>
   </trkpt>
   <trkpt lat="50.94341000000001" lon="12.795900000000001">
    <ele>293.12000000000006</ele>
   </trkpt>
   <trkpt lat="50.94299" lon="12.79606">
    <ele>292.73</ele>
   </trkpt>
   <trkpt lat="50.94292" lon="12.79612">
    <ele>292.73</ele>
   </trkpt>
   <trkpt lat="50.94283" lon="12.796270000000002">
    <ele>292.54</ele>
   </trkpt>
   <trkpt lat="50.942497516211276" lon="12.797395024139176">
    <ele>291.24</ele>
   </trkpt>
   <trkpt lat="50.942165021614336" lon="12.798520032187337">
    <ele>291.03000000000003</ele>
   </trkpt>
   <trkpt lat="50.94183251620949" lon="12.79964502414438">
    <ele>290.37</ele>
   </trkpt>
   <trkpt lat="50.941500000000005" lon="12.800770000000002">
    <ele>289.84999999999997</ele>
   </trkpt>
   <trkpt lat="50.941370000000006" lon="12.801100000000002">
    <ele>289.61</ele>
   </trkpt>
   <trkpt lat="50.941230000000004" lon="12.80137">
    <ele>289.52</ele>
   </trkpt>
   <trkpt lat="50.94097000000001" lon="12.801680000000001">
    <ele>289.32</ele>
   </trkpt>
   <trkpt lat="50.940560000000005" lon="12.802080000000002">
    <ele>288.87</ele>
   </trkpt>
   <trkpt lat="50.94035" lon="12.802380000000001">
    <ele>288.68000000000006</ele>
   </trkpt>
   <trkpt lat="50.940000000000005" lon="12.80292">
    <ele>288.3</ele>
   </trkpt>
   <trkpt lat="50.93937500358271" lon="12.803835012287522">
    <ele>290.71000000000004</ele>
   </trkpt>
   <trkpt lat="50.938750000000006" lon="12.80475">
    <ele>292.27000000000004</ele>
   </trkpt>
   <trkpt lat="50.93842" lon="12.80531">
    <ele>291.56000000000006</ele>
   </trkpt>
   <trkpt lat="50.93804" lon="12.80601">
    <ele>290.39000000000004</ele>
   </trkpt>
   <trkpt lat="50.937655001239584" lon="12.80653500426126">
    <ele>288.81</ele>
   </trkpt>
   <trkpt lat="50.937270000000005" lon="12.807060000000002">
    <ele>288.25</ele>
   </trkpt>
   <trkpt lat="50.936650003645354" lon="12.807990012471027">
    <ele>290.66</ele>
   </trkpt>
   <trkpt lat="50.93603" lon="12.80892">
    <ele>292.40000000000003</ele>
   </trkpt>
   <trkpt lat="50.935390000000005" lon="12.809830000000002">
    <ele>294.92</ele>
   </trkpt>
   <trkpt lat="50.934760000000004" lon="12.810500000000001">
    <ele>297.85</ele>
   </trkpt>
   <trkpt lat="50.93419" lon="12.811240000000002">
    <ele>299.79</ele>
   </trkpt>
   <trkpt lat="50.93380500102191" lon="12.81172000392611">
    <ele>300.38000000000005</ele>
   </trkpt>
   <trkpt lat="50.933420000000005" lon="12.8122">
    <ele>300.08</ele>
   </trkpt>
   <trkpt lat="50.93314" lon="12.812510000000001">
    <ele>299.87</ele>
   </trkpt>
   <trkpt lat="50.932770000000005" lon="12.812880000000002">
    <ele>299.9</ele>
   </trkpt>
   <trkpt lat="50.932410000000004" lon="12.813210000000002">
    <ele>300.53000000000003</ele>
   </trkpt>
   <trkpt lat="50.93182" lon="12.813680000000002">
    <ele>301.4</ele>
   </trkpt>
   <trkpt lat="50.93155" lon="12.813860000000002">
    <ele>301.43</ele>
   </trkpt>
   <trkpt lat="50.93084000044221" lon="12.81419000504803">
    <ele>300.82000000000005</ele>
   </trkpt>
   <trkpt lat="50.930130000000005" lon="12.814520000000002">
    <ele>300.59000000000003</ele>
   </trkpt>
   <trkpt lat="50.929300000000005" lon="12.81483">
    <ele>300.51</ele>
   </trkpt>
   <trkpt lat="50.928940000000004" lon="12.814940000000002">
    <ele>300.72</ele>
   </trkpt>
   <trkpt lat="50.928265000157566" lon="12.815100002310341">
    <ele>301.09000000000003</ele>
   </trkpt>
   <trkpt lat="50.92759" lon="12.81526">
    <ele>300.27000000000004</ele>
   </trkpt>
   <trkpt lat="50.92685" lon="12.815500000000002">
    <ele>299.85</ele>
   </trkpt>
   <trkpt lat="50.92624000008329" lon="12.815660002104876">
    <ele>299.41</ele>
   </trkpt>
   <trkpt lat="50.925630000000005" lon="12.81582">
    <ele>299.53000000000003</ele>
   </trkpt>
   <trkpt lat="50.925760000000004" lon="12.816270000000001">
    <ele>299.50000000000006</ele>
   </trkpt>
   <trkpt lat="50.925870002676284" lon="12.817059998212281">
    <ele>299.49</ele>
   </trkpt>
   <trkpt lat="50.92598" lon="12.817850000000002">
    <ele>298.55</ele>
   </trkpt>
   <trkpt lat="50.926203340685284" lon="12.818776657844012">
    <ele>297.18</ele>
   </trkpt>
   <trkpt lat="50.926426674036726" lon="12.819703324585705">
    <ele>295.72</ele>
   </trkpt>
   <trkpt lat="50.92665" lon="12.820630000000001">
    <ele>293.19</ele>
   </trkpt>
   <trkpt lat="50.926913340222605" lon="12.82152665659181">
    <ele>290.89000000000004</ele>
   </trkpt>
   <trkpt lat="50.9271766735786" lon="12.822423323335487">
    <ele>287.99</ele>
   </trkpt>
   <trkpt lat="50.927440000000004" lon="12.82332">
    <ele>285.39000000000004</ele>
   </trkpt>
   <trkpt lat="50.92775" lon="12.824420000000002">
    <ele>281.25</ele>
   </trkpt>
   <trkpt lat="50.928050000000006" lon="12.82557">
    <ele>278.42</ele>
   </trkpt>
   <trkpt lat="50.928140000000006" lon="12.825830000000002">
    <ele>278.09</ele>
   </trkpt>
   <trkpt lat="50.928180000000005" lon="12.825880000000002">
    <ele>278.09</ele>
   </trkpt>
   <trkpt lat="50.928270000000005" lon="12.825930000000001">
    <ele>278.09</ele>
   </trkpt>
   <trkpt lat="50.928250000000006" lon="12.826120000000001">
    <ele>278.1</ele>
   </trkpt>
   <trkpt lat="50.92821000000001" lon="12.826200000000002">
    <ele>278.1</ele>
   </trkpt>
   <trkpt lat="50.92795" lon="12.826500000000001">
    <ele>279.09</ele>
   </trkpt>
   <trkpt lat="50.92788" lon="12.826690000000001">
    <ele>280.71000000000004</ele>
   </trkpt>
   <trkpt lat="50.92768" lon="12.827610000000002">
    <ele>286.16</ele>
   </trkpt>
   <trkpt lat="50.92754000000001" lon="12.828130000000002">
    <ele>288.48</ele>
   </trkpt>
   <trkpt lat="50.92739" lon="12.828470000000001">
    <ele>290.26</ele>
   </trkpt>
   <trkpt lat="50.92728" lon="12.828650000000001">
    <ele>291.34000000000003</ele>
   </trkpt>
   <trkpt lat="50.927130000000005" lon="12.828850000000001">
    <ele>291.71000000000004</ele>
   </trkpt>
   <trkpt lat="50.92698000000001" lon="12.82915">
    <ele>292.86</ele>
   </trkpt>
   <trkpt lat="50.92663000386273" lon="12.830095006977023">
    <ele>294.51000000000005</ele>
   </trkpt>
   <trkpt lat="50.926280000000006" lon="12.831040000000002">
    <ele>295.88000000000005</ele>
   </trkpt>
   <trkpt lat="50.92603500148486" lon="12.831640003288426">
    <ele>296.87</ele>
   </trkpt>
   <trkpt lat="50.925790000000006" lon="12.83224">
    <ele>297.58</ele>
   </trkpt>
   <trkpt lat="50.9255050014065" lon="12.832795003222648">
    <ele>298.1</ele>
   </trkpt>
   <trkpt lat="50.92522" lon="12.833350000000001">
    <ele>298.04</ele>
   </trkpt>
   <trkpt lat="50.92486" lon="12.833940000000002">
    <ele>297.63</ele>
   </trkpt>
   <trkpt lat="50.92456000000001" lon="12.834330000000001">
    <ele>297.75</ele>
   </trkpt>
   <trkpt lat="50.92414" lon="12.83473">
    <ele>295.78999999999996</ele>
   </trkpt>
   <trkpt lat="50.92391000000001" lon="12.83491">
    <ele>295.3</ele>
   </trkpt>
   <trkpt lat="50.923230000000004" lon="12.83534">
    <ele>293.83000000000004</ele>
   </trkpt>
   <trkpt lat="50.922900000000006" lon="12.83557">
    <ele>294.38000000000005</ele>
   </trkpt>
   <trkpt lat="50.92230000000001" lon="12.83613">
    <ele>299.01</ele>
   </trkpt>
   <trkpt lat="50.92195" lon="12.83651">
    <ele>301.02</ele>
   </trkpt>
   <trkpt lat="50.92146000165258" lon="12.837135006602002">
    <ele>304.85</ele>
   </trkpt>
   <trkpt lat="50.920970000000004" lon="12.837760000000001">
    <ele>307.37</ele>
   </trkpt>
   <trkpt lat="50.920880000000004" lon="12.837940000000001">
    <ele>307.75</ele>
   </trkpt>
   <trkpt lat="50.920750000000005" lon="12.838550000000001">
    <ele>307.69</ele>
   </trkpt>
   <trkpt lat="50.920700000000004" lon="12.838650000000001">
    <ele>307.69</ele>
   </trkpt>
   <trkpt lat="50.92063" lon="12.83871">
    <ele>307.69</ele>
   </trkpt>
   <trkpt lat="50.92058" lon="12.838730000000002">
    <ele>307.69</ele>
   </trkpt>
   <trkpt lat="50.91978" lon="12.838460000000001">
    <ele>307.63</ele>
   </trkpt>
   <trkpt lat="50.91957000000001" lon="12.83834">
    <ele>306.86</ele>
   </trkpt>
   <trkpt lat="50.919340000000005" lon="12.838260000000002">
    <ele>304.53000000000003</ele>
   </trkpt>
   <trkpt lat="50.919290000000004" lon="12.838270000000001">
    <ele>302.93</ele>
   </trkpt>
   <trkpt lat="50.919250000000005" lon="12.8383">
    <ele>302.93</ele>
   </trkpt>
   <trkpt lat="50.91921000000001" lon="12.83838">
    <ele>302.93</ele>
   </trkpt>
   <trkpt lat="50.91899" lon="12.83971">
    <ele>293.15000000000003</ele>
   </trkpt>
   <trkpt lat="50.918890000000005" lon="12.840090000000002">
    <ele>288.67</ele>
   </trkpt>
   <trkpt lat="50.91881000000001" lon="12.84021">
    <ele>288.67</ele>
   </trkpt>
   <trkpt lat="50.91837" lon="12.840670000000001">
    <ele>285.06</ele>
   </trkpt>
   <trkpt lat="50.918240000000004" lon="12.840840000000002">
    <ele>285.26</ele>
   </trkpt>
   <trkpt lat="50.918200000000006" lon="12.840910000000001">
    <ele>285.2</ele>
   </trkpt>
   <trkpt lat="50.91809000000001" lon="12.841260000000002">
    <ele>285.6</ele>
   </trkpt>
   <trkpt lat="50.91785" lon="12.842600000000001">
    <ele>290.27000000000004</ele>
   </trkpt>
   <trkpt lat="50.91767" lon="12.843480000000001">
    <ele>291.94000000000005</ele>
   </trkpt>
   <trkpt lat="50.91754" lon="12.84402">
    <ele>292.83000000000004</ele>
   </trkpt>
   <trkpt lat="50.917325002792666" lon="12.84484000408939">
    <ele>295.25</ele>
   </trkpt>
   <trkpt lat="50.91711" lon="12.84566">
    <ele>298.65000000000003</ele>
   </trkpt>
   <trkpt lat="50.91678" lon="12.846680000000001">
    <ele>301.26000000000005</ele>
   </trkpt>
   <trkpt lat="50.916290000000004" lon="12.847550000000002">
    <ele>305.11</ele>
   </trkpt>
   <trkpt lat="50.91619000000001" lon="12.84777">
    <ele>306.22</ele>
   </trkpt>
   <trkpt lat="50.91581000000001" lon="12.849">
    <ele>306.89000000000004</ele>
   </trkpt>
   <trkpt lat="50.915620000000004" lon="12.849430000000002">
    <ele>306.35</ele>
   </trkpt>
   <trkpt lat="50.91541" lon="12.849730000000001">
    <ele>306.04</ele>
   </trkpt>
   <trkpt lat="50.91496" lon="12.850230000000002">
    <ele>305.89000000000004</ele>
   </trkpt>
   <trkpt lat="50.91478000000001" lon="12.850470000000001">
    <ele>306.03000000000003</ele>
   </trkpt>
   <trkpt lat="50.91467" lon="12.850650000000002">
    <ele>306.14000000000004</ele>
   </trkpt>
   <trkpt lat="50.91433000000001" lon="12.851410000000001">
    <ele>308.14000000000004</ele>
   </trkpt>
   <trkpt lat="50.914060000000006" lon="12.852160000000001">
    <ele>310.66</ele>
   </trkpt>
   <trkpt lat="50.91393000000001" lon="12.85247">
    <ele>312.38000000000005</ele>
   </trkpt>
   <trkpt lat="50.91352667230024" lon="12.853283347464078">
    <ele>315.76000000000005</ele>
   </trkpt>
   <trkpt lat="50.91312333895015" lon="12.854096680830988">
    <ele>320.57</ele>
   </trkpt>
   <trkpt lat="50.91272000000001" lon="12.85491">
    <ele>326.36</ele>
   </trkpt>
   <trkpt lat="50.91226500251147" lon="12.855675007458206">
    <ele>327.20000000000005</ele>
   </trkpt>
   <trkpt lat="50.91181" lon="12.856440000000001">
    <ele>323.52000000000004</ele>
   </trkpt>
   <trkpt lat="50.91150000133776" lon="12.857000003732612">
    <ele>319.13</ele>
   </trkpt>
   <trkpt lat="50.911190000000005" lon="12.857560000000001">
    <ele>316.25</ele>
   </trkpt>
   <trkpt lat="50.911080000000005" lon="12.85781">
    <ele>315.97</ele>
   </trkpt>
   <trkpt lat="50.911030000000004" lon="12.858080000000001">
    <ele>316.28</ele>
   </trkpt>
   <trkpt lat="50.911" lon="12.858440000000002">
    <ele>317.54</ele>
   </trkpt>
   <trkpt lat="50.91093000000001" lon="12.858730000000001">
    <ele>319.28000000000003</ele>
   </trkpt>
   <trkpt lat="50.910680000000006" lon="12.8595">
    <ele>322.52000000000004</ele>
   </trkpt>
   <trkpt lat="50.91029" lon="12.860610000000001">
    <ele>324.13</ele>
   </trkpt>
   <trkpt lat="50.910140000000006" lon="12.86119">
    <ele>324.12</ele>
   </trkpt>
   <trkpt lat="50.91004" lon="12.861450000000001">
    <ele>323.84000000000003</ele>
   </trkpt>
   <trkpt lat="50.90999000000001" lon="12.861500000000001">
    <ele>323.84000000000003</ele>
   </trkpt>
   <trkpt lat="50.909490000000005" lon="12.861600000000001">
    <ele>322.09000000000003</ele>
   </trkpt>
   <trkpt lat="50.909034999775" lon="12.861710001142123">
    <ele>319.32000000000005</ele>
   </trkpt>
   <trkpt lat="50.90858000000001" lon="12.861820000000002">
    <ele>318.07</ele>
   </trkpt>
   <trkpt lat="50.90809500012916" lon="12.86201000198941">
    <ele>316.84000000000003</ele>
   </trkpt>
   <trkpt lat="50.907610000000005" lon="12.862200000000001">
    <ele>316.54</ele>
   </trkpt>
   <trkpt lat="50.90716500023012" lon="12.862395001834402">
    <ele>316.26000000000005</ele>
   </trkpt>
   <trkpt lat="50.90672000000001" lon="12.86259">
    <ele>315.90000000000003</ele>
   </trkpt>
   <trkpt lat="50.906470000000006" lon="12.86273">
    <ele>315.26000000000005</ele>
   </trkpt>
   <trkpt lat="50.906400000000005" lon="12.86284">
    <ele>315.26000000000005</ele>
   </trkpt>
   <trkpt lat="50.9061" lon="12.86312">
    <ele>315.88000000000005</ele>
   </trkpt>
   <trkpt lat="50.905840000000005" lon="12.86339">
    <ele>318.21000000000004</ele>
   </trkpt>
   <trkpt lat="50.90525" lon="12.864120000000002">
    <ele>325.0</ele>
   </trkpt>
   <trkpt lat="50.905" lon="12.864490000000002">
    <ele>326.20000000000005</ele>
   </trkpt>
   <trkpt lat="50.904790000000006" lon="12.864970000000001">
    <ele>326.8</ele>
   </trkpt>
   <trkpt lat="50.90415500429186" lon="12.865970013606594">
    <ele>326.93000000000006</ele>
   </trkpt>
   <trkpt lat="50.90352000000001" lon="12.86697">
    <ele>326.92</ele>
   </trkpt>
   <trkpt lat="50.903040000000004" lon="12.867510000000001">
    <ele>326.97</ele>
   </trkpt>
   <trkpt lat="50.902620000000006" lon="12.868020000000001">
    <ele>325.82000000000005</ele>
   </trkpt>
   <trkpt lat="50.90232500109384" lon="12.868560003698962">
    <ele>324.45</ele>
   </trkpt>
   <trkpt lat="50.90203" lon="12.869100000000001">
    <ele>320.19</ele>
   </trkpt>
   <trkpt lat="50.90194" lon="12.869200000000001">
    <ele>320.11</ele>
   </trkpt>
   <trkpt lat="50.90176" lon="12.86916">
    <ele>319.56</ele>
   </trkpt>
   <trkpt lat="50.9013000003764" lon="12.868854996972873">
    <ele>318.37000000000006</ele>
   </trkpt>
   <trkpt lat="50.90084" lon="12.86855">
    <ele>318.0</ele>
   </trkpt>
   <trkpt lat="50.90079" lon="12.868530000000002">
    <ele>317.98</ele>
   </trkpt>
   <trkpt lat="50.900510000000004" lon="12.868440000000001">
    <ele>316.97</ele>
   </trkpt>
   <trkpt lat="50.90014000000001" lon="12.868350000000001">
    <ele>315.55000000000007</ele>
   </trkpt>
   <trkpt lat="50.89945" lon="12.86823">
    <ele>312.76000000000005</ele>
   </trkpt>
   <trkpt lat="50.89929000000001" lon="12.868160000000001">
    <ele>311.76000000000005</ele>
   </trkpt>
   <trkpt lat="50.899170000000005" lon="12.86809">
    <ele>311.03000000000003</ele>
   </trkpt>
   <trkpt lat="50.89885" lon="12.867770000000002">
    <ele>309.87</ele>
   </trkpt>
   <trkpt lat="50.898770000000006" lon="12.867730000000002">
    <ele>309.87</ele>
   </trkpt>
   <trkpt lat="50.898720000000004" lon="12.867730000000002">
    <ele>309.84</ele>
   </trkpt>
   <trkpt lat="50.898300000000006" lon="12.86795">
    <ele>309.87</ele>
   </trkpt>
   <trkpt lat="50.898050000000005" lon="12.868">
    <ele>309.95</ele>
   </trkpt>
   <trkpt lat="50.897650000000006" lon="12.86799">
    <ele>312.84</ele>
   </trkpt>
   <trkpt lat="50.89743000000001" lon="12.867930000000001">
    <ele>313.83000000000004</ele>
   </trkpt>
   <trkpt lat="50.897240000000004" lon="12.86781">
    <ele>314.91</ele>
   </trkpt>
   <trkpt lat="50.897130000000004" lon="12.867700000000001">
    <ele>314.91</ele>
   </trkpt>
   <trkpt lat="50.89658000000001" lon="12.866750000000001">
    <ele>316.55000000000007</ele>
   </trkpt>
   <trkpt lat="50.89620000000001" lon="12.86645">
    <ele>316.91</ele>
   </trkpt>
   <trkpt lat="50.89567" lon="12.86608">
    <ele>318.33</ele>
   </trkpt>
   <trkpt lat="50.89531" lon="12.86578">
    <ele>320.0</ele>
   </trkpt>
   <trkpt lat="50.89477500231562" lon="12.865034991365029">
    <ele>324.52000000000004</ele>
   </trkpt>
   <trkpt lat="50.89424" lon="12.86429">
    <ele>328.35</ele>
   </trkpt>
   <trkpt lat="50.89359" lon="12.86406">
    <ele>330.8</ele>
   </trkpt>
   <trkpt lat="50.89312" lon="12.863620000000001">
    <ele>332.96000000000004</ele>
   </trkpt>
   <trkpt lat="50.89240000105665" lon="12.863134992537482">
    <ele>337.33</ele>
   </trkpt>
   <trkpt lat="50.89168" lon="12.86265">
    <ele>340.68</ele>
   </trkpt>
   <trkpt lat="50.89155" lon="12.862610000000002">
    <ele>341.21</ele>
   </trkpt>
   <trkpt lat="50.891400000000004" lon="12.862720000000001">
    <ele>341.74</ele>
   </trkpt>
   <trkpt lat="50.89094000000001" lon="12.8632">
    <ele>342.37</ele>
   </trkpt>
   <trkpt lat="50.890256669179884" lon="12.863746682738038">
    <ele>343.88</ele>
   </trkpt>
   <trkpt lat="50.889573335806695" lon="12.864293349436274">
    <ele>345.79</ele>
   </trkpt>
   <trkpt lat="50.88889" lon="12.864840000000001">
    <ele>343.78000000000003</ele>
   </trkpt>
   <trkpt lat="50.88835" lon="12.865390000000001">
    <ele>339.54</ele>
   </trkpt>
   <trkpt lat="50.88768500210814" lon="12.866095010079986">
    <ele>330.41</ele>
   </trkpt>
   <trkpt lat="50.88702000000001" lon="12.866800000000001">
    <ele>326.09000000000003</ele>
   </trkpt>
   <trkpt lat="50.886630000000004" lon="12.86725">
    <ele>323.5</ele>
   </trkpt>
   <trkpt lat="50.886195001302646" lon="12.867795005046519">
    <ele>320.24</ele>
   </trkpt>
   <trkpt lat="50.885760000000005" lon="12.868340000000002">
    <ele>315.86</ele>
   </trkpt>
   <trkpt lat="50.88524" lon="12.86893">
    <ele>310.98</ele>
   </trkpt>
   <trkpt lat="50.88497" lon="12.869100000000001">
    <ele>308.97</ele>
   </trkpt>
   <trkpt lat="50.884530000000005" lon="12.86926">
    <ele>308.45</ele>
   </trkpt>
   <trkpt lat="50.884420000000006" lon="12.869340000000001">
    <ele>308.43</ele>
   </trkpt>
   <trkpt lat="50.884310000000006" lon="12.86945">
    <ele>308.45</ele>
   </trkpt>
   <trkpt lat="50.884100000000004" lon="12.869800000000001">
    <ele>308.73</ele>
   </trkpt>
   <trkpt lat="50.88402000000001" lon="12.87005">
    <ele>308.64000000000004</ele>
   </trkpt>
   <trkpt lat="50.88383" lon="12.870890000000001">
    <ele>308.9</ele>
   </trkpt>
   <trkpt lat="50.88373000000001" lon="12.871260000000001">
    <ele>308.08000000000004</ele>
   </trkpt>
   <trkpt lat="50.88354" lon="12.8716">
    <ele>305.89000000000004</ele>
   </trkpt>
   <trkpt lat="50.883500000000005" lon="12.871820000000001">
    <ele>305.27000000000004</ele>
   </trkpt>
   <trkpt lat="50.88336" lon="12.871760000000002">
    <ele>305.81</ele>
   </trkpt>
   <trkpt lat="50.883250000000004" lon="12.871670000000002">
    <ele>305.9</ele>
   </trkpt>
   <trkpt lat="50.88317000000001" lon="12.871580000000002">
    <ele>305.9</ele>
   </trkpt>
   <trkpt lat="50.88302" lon="12.87137">
    <ele>306.41</ele>
   </trkpt>
   <trkpt lat="50.8828" lon="12.870980000000001">
    <ele>306.84</ele>
   </trkpt>
   <trkpt lat="50.882455001193485" lon="12.870419995616222">
    <ele>308.32000000000005</ele>
   </trkpt>
   <trkpt lat="50.882110000000004" lon="12.869860000000001">
    <ele>309.54</ele>
   </trkpt>
   <trkpt lat="50.88203000000001" lon="12.869760000000001">
    <ele>309.61000000000007</ele>
   </trkpt>
   <trkpt lat="50.88174" lon="12.869520000000001">
    <ele>309.9</ele>
   </trkpt>
   <trkpt lat="50.88161" lon="12.869380000000001">
    <ele>309.9</ele>
   </trkpt>
   <trkpt lat="50.88157" lon="12.86931">
    <ele>309.9</ele>
   </trkpt>
   <trkpt lat="50.88145" lon="12.869510000000002">
    <ele>309.92</ele>
   </trkpt>
   <trkpt lat="50.881130000000006" lon="12.869930000000002">
    <ele>310.31</ele>
   </trkpt>
   <trkpt lat="50.880970000000005" lon="12.870090000000001">
    <ele>310.87</ele>
   </trkpt>
   <trkpt lat="50.88054" lon="12.870420000000001">
    <ele>313.67</ele>
   </trkpt>
   <trkpt lat="50.88031" lon="12.870510000000001">
    <ele>315.33</ele>
   </trkpt>
   <trkpt lat="50.88008000000001" lon="12.870540000000002">
    <ele>316.83</ele>
   </trkpt>
   <trkpt lat="50.87961000000001" lon="12.87049">
    <ele>321.26000000000005</ele>
   </trkpt>
   <trkpt lat="50.87904" lon="12.87058">
    <ele>327.24</ele>
   </trkpt>
   <trkpt lat="50.87825" lon="12.870780000000002">
    <ele>332.53000000000003</ele>
   </trkpt>
   <trkpt lat="50.87773000000001" lon="12.871030000000001">
    <ele>336.21</ele>
   </trkpt>
   <trkpt lat="50.87717000000001" lon="12.871030000000001">
    <ele>338.8</ele>
   </trkpt>
   <trkpt lat="50.87670000000001" lon="12.87099">
    <ele>339.78000000000003</ele>
   </trkpt>
   <trkpt lat="50.87606" lon="12.870890000000001">
    <ele>339.34000000000003</ele>
   </trkpt>
   <trkpt lat="50.87537000015048" lon="12.870759998090021">
    <ele>337.66</ele>
   </trkpt>
   <trkpt lat="50.874680000000005" lon="12.87063">
    <ele>335.53000000000003</ele>
   </trkpt>
   <trkpt lat="50.874190000217354" lon="12.870509998776518">
    <ele>333.28000000000003</ele>
   </trkpt>
   <trkpt lat="50.87370000000001" lon="12.87039">
    <ele>327.75000000000006</ele>
   </trkpt>
   <trkpt lat="50.873610000000006" lon="12.870420000000001">
    <ele>327.75000000000006</ele>
   </trkpt>
   <trkpt lat="50.873520000000006" lon="12.870600000000001">
    <ele>326.72</ele>
   </trkpt>
   <trkpt lat="50.87348" lon="12.870800000000001">
    <ele>326.27</ele>
   </trkpt>
   <trkpt lat="50.87335" lon="12.87166">
    <ele>324.26000000000005</ele>
   </trkpt>
   <trkpt lat="50.87326" lon="12.87245">
    <ele>323.77</ele>
   </trkpt>
   <trkpt lat="50.87324" lon="12.87283">
    <ele>322.91</ele>
   </trkpt>
   <trkpt lat="50.873180000000005" lon="12.873180000000001">
    <ele>321.48</ele>
   </trkpt>
   <trkpt lat="50.873020000000004" lon="12.873640000000002">
    <ele>320.73</ele>
   </trkpt>
   <trkpt lat="50.872890000000005" lon="12.873880000000002">
    <ele>320.47</ele>
   </trkpt>
   <trkpt lat="50.87279" lon="12.874020000000002">
    <ele>320.05</ele>
   </trkpt>
   <trkpt lat="50.872600000000006" lon="12.87418">
    <ele>319.75</ele>
   </trkpt>
   <trkpt lat="50.87229000000001" lon="12.874340000000002">
    <ele>319.64000000000004</ele>
   </trkpt>
   <trkpt lat="50.87171000000001" lon="12.874580000000002">
    <ele>319.15999999999997</ele>
   </trkpt>
   <trkpt lat="50.871280000000006" lon="12.874830000000001">
    <ele>315.69</ele>
   </trkpt>
   <trkpt lat="50.8706" lon="12.875280000000002">
    <ele>312.04</ele>
   </trkpt>
   <trkpt lat="50.87042" lon="12.875470000000002">
    <ele>312.0</ele>
   </trkpt>
   <trkpt lat="50.870270000000005" lon="12.87569">
    <ele>312.11</ele>
   </trkpt>
   <trkpt lat="50.86996000149647" lon="12.87629000407054">
    <ele>312.99000000000007</ele>
   </trkpt>
   <trkpt lat="50.86965000000001" lon="12.876890000000001">
    <ele>312.0</ele>
   </trkpt>
   <trkpt lat="50.86938000000001" lon="12.87729">
    <ele>310.71000000000004</ele>
   </trkpt>
   <trkpt lat="50.86919" lon="12.877510000000001">
    <ele>308.92</ele>
   </trkpt>
   <trkpt lat="50.868520000000004" lon="12.878150000000002">
    <ele>305.21000000000004</ele>
   </trkpt>
   <trkpt lat="50.868190000000006" lon="12.8787">
    <ele>305.66</ele>
   </trkpt>
   <trkpt lat="50.86779333820887" lon="12.879460013048124">
    <ele>306.65000000000003</ele>
   </trkpt>
   <trkpt lat="50.867396671482496" lon="12.880220013162313">
    <ele>307.17</ele>
   </trkpt>
   <trkpt lat="50.867000000000004" lon="12.880980000000001">
    <ele>308.00000000000006</ele>
   </trkpt>
   <trkpt lat="50.866800000000005" lon="12.881400000000001">
    <ele>309.53000000000003</ele>
   </trkpt>
   <trkpt lat="50.86639" lon="12.882530000000001">
    <ele>314.91</ele>
   </trkpt>
   <trkpt lat="50.86625" lon="12.88283">
    <ele>316.94</ele>
   </trkpt>
   <trkpt lat="50.86591000160571" lon="12.883445004503576">
    <ele>323.42</ele>
   </trkpt>
   <trkpt lat="50.865570000000005" lon="12.884060000000002">
    <ele>329.88</ele>
   </trkpt>
   <trkpt lat="50.865300000000005" lon="12.884580000000001">
    <ele>333.4800000000001</ele>
   </trkpt>
   <trkpt lat="50.86475" lon="12.885510000000002">
    <ele>339.02000000000004</ele>
   </trkpt>
   <trkpt lat="50.86417333781079" lon="12.886233351218246">
    <ele>342.57000000000005</ele>
   </trkpt>
   <trkpt lat="50.86359667115092" lon="12.886956684542753">
    <ele>340.37</ele>
   </trkpt>
   <trkpt lat="50.863020000000006" lon="12.887680000000001">
    <ele>335.22</ele>
   </trkpt>
   <trkpt lat="50.86244000000001" lon="12.888370000000002">
    <ele>329.12</ele>
   </trkpt>
   <trkpt lat="50.86186000000001" lon="12.889100000000001">
    <ele>321.03000000000003</ele>
   </trkpt>
   <trkpt lat="50.861430000000006" lon="12.889700000000001">
    <ele>317.5</ele>
   </trkpt>
   <trkpt lat="50.861000000000004" lon="12.89023">
    <ele>311.36</ele>
   </trkpt>
   <trkpt lat="50.86048" lon="12.890690000000001">
    <ele>307.32000000000005</ele>
   </trkpt>
   <trkpt lat="50.860290000000006" lon="12.89099">
    <ele>306.94000000000005</ele>
   </trkpt>
   <trkpt lat="50.859880000000004" lon="12.891850000000002">
    <ele>307.96</ele>
   </trkpt>
   <trkpt lat="50.85963" lon="12.892220000000002">
    <ele>310.77000000000004</ele>
   </trkpt>
   <trkpt lat="50.85911" lon="12.892650000000001">
    <ele>313.67</ele>
   </trkpt>
   <trkpt lat="50.85873" lon="12.892990000000001">
    <ele>316.69</ele>
   </trkpt>
   <trkpt lat="50.858560000000004" lon="12.893210000000002">
    <ele>317.13</ele>
   </trkpt>
   <trkpt lat="50.85819500074013" lon="12.893635003363324">
    <ele>319.18</ele>
   </trkpt>
   <trkpt lat="50.85783000000001" lon="12.894060000000001">
    <ele>320.45</ele>
   </trkpt>
   <trkpt lat="50.857380001317345" lon="12.894605005200543">
    <ele>320.59000000000003</ele>
   </trkpt>
   <trkpt lat="50.856930000000006" lon="12.895150000000001">
    <ele>318.77000000000004</ele>
   </trkpt>
   <trkpt lat="50.856350000000006" lon="12.89578">
    <ele>318.26000000000005</ele>
   </trkpt>
   <trkpt lat="50.855650000000004" lon="12.89648">
    <ele>318.11</ele>
   </trkpt>
   <trkpt lat="50.854945002596914" lon="12.897255011681482">
    <ele>320.06</ele>
   </trkpt>
   <trkpt lat="50.854240000000004" lon="12.89803">
    <ele>323.45</ele>
   </trkpt>
   <trkpt lat="50.85407000000001" lon="12.898090000000002">
    <ele>324.05</ele>
   </trkpt>
   <trkpt lat="50.85398000000001" lon="12.89807">
    <ele>324.05</ele>
   </trkpt>
   <trkpt lat="50.85389000000001" lon="12.897990000000002">
    <ele>324.75000000000006</ele>
   </trkpt>
   <trkpt lat="50.85345" lon="12.89727">
    <ele>325.85</ele>
   </trkpt>
   <trkpt lat="50.853350000000006" lon="12.89718">
    <ele>325.85</ele>
   </trkpt>
   <trkpt lat="50.85322000000001" lon="12.897120000000001">
    <ele>326.65000000000003</ele>
   </trkpt>
   <trkpt lat="50.8524" lon="12.896880000000001">
    <ele>329.27</ele>
   </trkpt>
   <trkpt lat="50.852180000000004" lon="12.896790000000001">
    <ele>330.70000000000005</ele>
   </trkpt>
   <trkpt lat="50.851940000000006" lon="12.896580000000002">
    <ele>332.36</ele>
   </trkpt>
   <trkpt lat="50.85173" lon="12.896230000000001">
    <ele>332.72</ele>
   </trkpt>
   <trkpt lat="50.85163000000001" lon="12.89596">
    <ele>334.96000000000004</ele>
   </trkpt>
   <trkpt lat="50.85141000458317" lon="12.894919994914629">
    <ele>338.03000000000003</ele>
   </trkpt>
   <trkpt lat="50.85119" lon="12.893880000000001">
    <ele>339.52000000000004</ele>
   </trkpt>
   <trkpt lat="50.85092" lon="12.892700000000001">
    <ele>341.36000000000007</ele>
   </trkpt>
   <trkpt lat="50.850860000000004" lon="12.89259">
    <ele>341.36000000000007</ele>
   </trkpt>
   <trkpt lat="50.850620000000006" lon="12.8923">
    <ele>341.56</ele>
   </trkpt>
   <trkpt lat="50.850480000000005" lon="12.892280000000001">
    <ele>341.2</ele>
   </trkpt>
   <trkpt lat="50.85029" lon="12.893">
    <ele>341.37</ele>
   </trkpt>
   <trkpt lat="50.850080000000005" lon="12.893540000000002">
    <ele>340.75000000000006</ele>
   </trkpt>
   <trkpt lat="50.84971000534306" lon="12.894330012511427">
    <ele>339.88</ele>
   </trkpt>
   <trkpt lat="50.849340005352865" lon="12.895120012490308">
    <ele>339.43</ele>
   </trkpt>
   <trkpt lat="50.84897" lon="12.89591">
    <ele>338.72</ele>
   </trkpt>
   <trkpt lat="50.84854500406281" lon="12.896885008880508">
    <ele>336.96000000000004</ele>
   </trkpt>
   <trkpt lat="50.84812" lon="12.897860000000001">
    <ele>335.58000000000004</ele>
   </trkpt>
   <trkpt lat="50.848110000000005" lon="12.898000000000001">
    <ele>335.11</ele>
   </trkpt>
   <trkpt lat="50.84799" lon="12.897850000000002">
    <ele>335.22</ele>
   </trkpt>
   <trkpt lat="50.84771667348119" lon="12.896956656181265">
    <ele>333.15</ele>
   </trkpt>
   <trkpt lat="50.847443340142625" lon="12.896063322830987">
    <ele>331.51000000000005</ele>
   </trkpt>
   <trkpt lat="50.847170000000006" lon="12.89517">
    <ele>329.98</ele>
   </trkpt>
   <trkpt lat="50.846940002291625" lon="12.89444499656985">
    <ele>329.32</ele>
   </trkpt>
   <trkpt lat="50.84671" lon="12.893720000000002">
    <ele>328.48</ele>
   </trkpt>
   <trkpt lat="50.84664" lon="12.893690000000001">
    <ele>328.04</ele>
   </trkpt>
   <trkpt lat="50.84583000000001" lon="12.89418">
    <ele>323.78000000000003</ele>
   </trkpt>
   <trkpt lat="50.84534000093243" lon="12.894625004595408">
    <ele>322.23</ele>
   </trkpt>
   <trkpt lat="50.84485" lon="12.89507">
    <ele>321.12</ele>
   </trkpt>
   <trkpt lat="50.84431000000001" lon="12.895520000000001">
    <ele>320.24</ele>
   </trkpt>
   <trkpt lat="50.843560000000004" lon="12.89619">
    <ele>319.09000000000003</ele>
   </trkpt>
   <trkpt lat="50.84284000515717" lon="12.896825029407008">
    <ele>318.24</ele>
   </trkpt>
   <trkpt lat="50.842120006868264" lon="12.897460039215582">
    <ele>316.27000000000004</ele>
   </trkpt>
   <trkpt lat="50.841400005133465" lon="12.898095029426733">
    <ele>309.81</ele>
   </trkpt>
   <trkpt lat="50.840680000000006" lon="12.89873">
    <ele>304.14000000000004</ele>
   </trkpt>
   <trkpt lat="50.84029" lon="12.899030000000002">
    <ele>301.96</ele>
   </trkpt>
   <trkpt lat="50.83964500092462" lon="12.89948000617869">
    <ele>301.19</ele>
   </trkpt>
   <trkpt lat="50.839000000000006" lon="12.899930000000001">
    <ele>302.02</ele>
   </trkpt>
   <trkpt lat="50.83872" lon="12.900110000000002">
    <ele>302.81</ele>
   </trkpt>
   <trkpt lat="50.83847" lon="12.900220000000001">
    <ele>303.53000000000003</ele>
   </trkpt>
   <trkpt lat="50.83760800064526" lon="12.9004140143332">
    <ele>306.24</ele>
   </trkpt>
   <trkpt lat="50.83674600096885" lon="12.900608021499098">
    <ele>309.44000000000005</ele>
   </trkpt>
   <trkpt lat="50.83588400097077" lon="12.900802021498176">
    <ele>313.29</ele>
   </trkpt>
   <trkpt lat="50.83502200065108" lon="12.90099601433092">
    <ele>316.62</ele>
   </trkpt>
   <trkpt lat="50.834160000000004" lon="12.901190000000001">
    <ele>320.1</ele>
   </trkpt>
   <trkpt lat="50.8342" lon="12.901190000000001">
    <ele>319.94</ele>
   </trkpt>
   <trkpt lat="50.833510000237034" lon="12.901346671292636">
    <ele>322.68</ele>
   </trkpt>
   <trkpt lat="50.83282000026431" lon="12.901503337953027">
    <ele>326.21</ele>
   </trkpt>
   <trkpt lat="50.83213000000001" lon="12.901660000000001">
    <ele>329.31000000000006</ele>
   </trkpt>
   <trkpt lat="50.832260000000005" lon="12.902470000000001">
    <ele>329.08000000000004</ele>
   </trkpt>
   <trkpt lat="50.832455007827726" lon="12.903824994214055">
    <ele>328.84000000000003</ele>
   </trkpt>
   <trkpt lat="50.83265" lon="12.905180000000001">
    <ele>327.82</ele>
   </trkpt>
  </trkseg>
 </trk>
</gpx>
