<?xml version="1.0" encoding="UTF-8"?>
<gpx xmlns:gpxdata="http://www.cluetrust.com/XML/GPXDATA/1/0" xmlns:xsi="http://www.w3.org/2001/XMLSchema-instance" xmlns="http://www.topografix.com/GPX/1/1" version="1.1" creator="http://ridewithgps.com/" xsi:schemaLocation="http://www.topografix.com/GPX/1/1 http://www.topografix.com/GPX/1/1/gpx.xsd http://www.cluetrust.com/XML/GPXDATA/1/0 http://www.cluetrust.com/Schemas/gpxdata10.xsd">
  <metadata>
    <name>KLLKTV 20260929</name>
    <link href="https://ridewithgps.com/routes/57246605">
      <text>KLLKTV 20260929</text>
    </link>
    <time>2026-09-20T21:29:07Z</time>
  </metadata>
  <trk>
    <name>KLLKTV 20260929</name>
    <trkseg>
      <trkpt lat="50.83275" lon="12.90583">
        <ele>328.1</ele>
      </trkpt>
      <trkpt lat="50.8329" lon="12.90692">
        <ele>325.9</ele>
      </trkpt>
      <trkpt lat="50.83308" lon="12.90819">
        <ele>323.8</ele>
      </trkpt>
      <trkpt lat="50.83327" lon="12.90946">
        <ele>321.8</ele>
      </trkpt>
      <trkpt lat="50.83346" lon="12.91074">
        <ele>320.0</ele>
      </trkpt>
      <trkpt lat="50.83391" lon="12.91059">
        <ele>319.6</ele>
      </trkpt>
      <trkpt lat="50.83435" lon="12.91045">
        <ele>319.1</ele>
      </trkpt>
      <trkpt lat="50.83497" lon="12.91024">
        <ele>318.1</ele>
      </trkpt>
      <trkpt lat="50.83558" lon="12.91002">
        <ele>315.2</ele>
      </trkpt>
      <trkpt lat="50.83619" lon="12.90981">
        <ele>312.7</ele>
      </trkpt>
      <trkpt lat="50.83673" lon="12.9098">
        <ele>310.8</ele>
      </trkpt>
      <trkpt lat="50.83727" lon="12.90979">
        <ele>307.3</ele>
      </trkpt>
      <trkpt lat="50.83789" lon="12.90975">
        <ele>302.7</ele>
      </trkpt>
      <trkpt lat="50.83849" lon="12.90973">
        <ele>299.6</ele>
      </trkpt>
      <trkpt lat="50.83866" lon="12.90968">
        <ele>299.9</ele>
      </trkpt>
      <trkpt lat="50.83893" lon="12.90956">
        <ele>300.2</ele>
      </trkpt>
      <trkpt lat="50.83959" lon="12.90925">
        <ele>300.6</ele>
      </trkpt>
      <trkpt lat="50.83999" lon="12.90904">
        <ele>301.0</ele>
      </trkpt>
      <trkpt lat="50.84017" lon="12.90938">
        <ele>302.1</ele>
      </trkpt>
      <trkpt lat="50.84075" lon="12.91036">
        <ele>302.1</ele>
      </trkpt>
      <trkpt lat="50.84121" lon="12.91108">
        <ele>302.9</ele>
      </trkpt>
      <trkpt lat="50.84135" lon="12.91127">
        <ele>303.0</ele>
      </trkpt>
      <trkpt lat="50.84147" lon="12.91149">
        <ele>302.8</ele>
      </trkpt>
      <trkpt lat="50.84158" lon="12.91177">
        <ele>302.2</ele>
      </trkpt>
      <trkpt lat="50.84163" lon="12.91194">
        <ele>301.9</ele>
      </trkpt>
      <trkpt lat="50.84168" lon="12.91205">
        <ele>301.7</ele>
      </trkpt>
      <trkpt lat="50.84179" lon="12.91224">
        <ele>301.4</ele>
      </trkpt>
      <trkpt lat="50.84184" lon="12.9123">
        <ele>301.3</ele>
      </trkpt>
      <trkpt lat="50.842" lon="12.91242">
        <ele>301.2</ele>
      </trkpt>
      <trkpt lat="50.8426" lon="12.91272">
        <ele>300.8</ele>
      </trkpt>
      <trkpt lat="50.84325" lon="12.91306">
        <ele>303.0</ele>
      </trkpt>
      <trkpt lat="50.84349" lon="12.91317">
        <ele>303.7</ele>
      </trkpt>
      <trkpt lat="50.84356" lon="12.91321">
        <ele>303.8</ele>
      </trkpt>
      <trkpt lat="50.84367" lon="12.91338">
        <ele>303.4</ele>
      </trkpt>
      <trkpt lat="50.84378" lon="12.91373">
        <ele>302.8</ele>
      </trkpt>
      <trkpt lat="50.84381" lon="12.91387">
        <ele>302.4</ele>
      </trkpt>
      <trkpt lat="50.84386" lon="12.91419">
        <ele>301.7</ele>
      </trkpt>
      <trkpt lat="50.84391" lon="12.91437">
        <ele>301.3</ele>
      </trkpt>
      <trkpt lat="50.844" lon="12.91461">
        <ele>301.0</ele>
      </trkpt>
      <trkpt lat="50.84424" lon="12.91503">
        <ele>301.9</ele>
      </trkpt>
      <trkpt lat="50.84439" lon="12.91527">
        <ele>303.3</ele>
      </trkpt>
      <trkpt lat="50.84478" lon="12.91574">
        <ele>305.7</ele>
      </trkpt>
      <trkpt lat="50.8449" lon="12.91594">
        <ele>305.7</ele>
      </trkpt>
      <trkpt lat="50.84496" lon="12.91608">
        <ele>305.3</ele>
      </trkpt>
      <trkpt lat="50.845" lon="12.91623">
        <ele>304.6</ele>
      </trkpt>
      <trkpt lat="50.84503" lon="12.91639">
        <ele>303.8</ele>
      </trkpt>
      <trkpt lat="50.84504" lon="12.91651">
        <ele>303.2</ele>
      </trkpt>
      <trkpt lat="50.84507" lon="12.91697">
        <ele>301.2</ele>
      </trkpt>
      <trkpt lat="50.84507" lon="12.91826">
        <ele>296.2</ele>
      </trkpt>
      <trkpt lat="50.84507" lon="12.91938">
        <ele>295.7</ele>
      </trkpt>
      <trkpt lat="50.84517" lon="12.91939">
        <ele>295.5</ele>
      </trkpt>
      <trkpt lat="50.8454" lon="12.91944">
        <ele>295.2</ele>
      </trkpt>
      <trkpt lat="50.84554" lon="12.9195">
        <ele>295.0</ele>
      </trkpt>
      <trkpt lat="50.84568" lon="12.91959">
        <ele>294.7</ele>
      </trkpt>
      <trkpt lat="50.84587" lon="12.91976">
        <ele>294.2</ele>
      </trkpt>
      <trkpt lat="50.84621" lon="12.92015">
        <ele>292.5</ele>
      </trkpt>
      <trkpt lat="50.84621" lon="12.92015">
        <ele>292.5</ele>
      </trkpt>
      <trkpt lat="50.84642" lon="12.92039">
        <ele>291.7</ele>
      </trkpt>
      <trkpt lat="50.84659" lon="12.92053">
        <ele>291.2</ele>
      </trkpt>
      <trkpt lat="50.84675" lon="12.92061">
        <ele>291.4</ele>
      </trkpt>
      <trkpt lat="50.84689" lon="12.92066">
        <ele>292.1</ele>
      </trkpt>
      <trkpt lat="50.84722" lon="12.92071">
        <ele>293.8</ele>
      </trkpt>
      <trkpt lat="50.84791" lon="12.92078">
        <ele>297.7</ele>
      </trkpt>
      <trkpt lat="50.84805" lon="12.92087">
        <ele>298.1</ele>
      </trkpt>
      <trkpt lat="50.84847" lon="12.92124">
        <ele>296.8</ele>
      </trkpt>
      <trkpt lat="50.84869" lon="12.92135">
        <ele>296.0</ele>
      </trkpt>
      <trkpt lat="50.84882" lon="12.92137">
        <ele>295.9</ele>
      </trkpt>
      <trkpt lat="50.84914" lon="12.92132">
        <ele>296.7</ele>
      </trkpt>
      <trkpt lat="50.8499" lon="12.92113">
        <ele>300.3</ele>
      </trkpt>
      <trkpt lat="50.85066" lon="12.92095">
        <ele>301.3</ele>
      </trkpt>
      <trkpt lat="50.85128" lon="12.92081">
        <ele>299.4</ele>
      </trkpt>
      <trkpt lat="50.8519" lon="12.92068">
        <ele>297.1</ele>
      </trkpt>
      <trkpt lat="50.85248" lon="12.92054">
        <ele>296.0</ele>
      </trkpt>
      <trkpt lat="50.85305" lon="12.9204">
        <ele>294.0</ele>
      </trkpt>
      <trkpt lat="50.85335" lon="12.92037">
        <ele>293.0</ele>
      </trkpt>
      <trkpt lat="50.85352" lon="12.92031">
        <ele>293.2</ele>
      </trkpt>
      <trkpt lat="50.85366" lon="12.92024">
        <ele>293.4</ele>
      </trkpt>
      <trkpt lat="50.85385" lon="12.9201">
        <ele>293.6</ele>
      </trkpt>
      <trkpt lat="50.85418" lon="12.9197">
        <ele>292.9</ele>
      </trkpt>
      <trkpt lat="50.8548" lon="12.91886">
        <ele>289.3</ele>
      </trkpt>
      <trkpt lat="50.85542" lon="12.91802">
        <ele>289.7</ele>
      </trkpt>
      <trkpt lat="50.85603" lon="12.91718">
        <ele>290.1</ele>
      </trkpt>
      <trkpt lat="50.8563" lon="12.91684">
        <ele>289.8</ele>
      </trkpt>
      <trkpt lat="50.85689" lon="12.91606">
        <ele>289.5</ele>
      </trkpt>
      <trkpt lat="50.8575" lon="12.91525">
        <ele>289.0</ele>
      </trkpt>
      <trkpt lat="50.85812" lon="12.91444">
        <ele>290.1</ele>
      </trkpt>
      <trkpt lat="50.85852" lon="12.91391">
        <ele>290.1</ele>
      </trkpt>
      <trkpt lat="50.85892" lon="12.91339">
        <ele>289.4</ele>
      </trkpt>
      <trkpt lat="50.85944" lon="12.91255">
        <ele>289.3</ele>
      </trkpt>
      <trkpt lat="50.86006" lon="12.91167">
        <ele>289.0</ele>
      </trkpt>
      <trkpt lat="50.86069" lon="12.91079">
        <ele>291.2</ele>
      </trkpt>
      <trkpt lat="50.86117" lon="12.91013">
        <ele>290.3</ele>
      </trkpt>
      <trkpt lat="50.86164" lon="12.90948">
        <ele>288.8</ele>
      </trkpt>
      <trkpt lat="50.86202" lon="12.90898">
        <ele>288.7</ele>
      </trkpt>
      <trkpt lat="50.86239" lon="12.90849">
        <ele>288.8</ele>
      </trkpt>
      <trkpt lat="50.86281" lon="12.90804">
        <ele>289.9</ele>
      </trkpt>
      <trkpt lat="50.86324" lon="12.90759">
        <ele>290.9</ele>
      </trkpt>
      <trkpt lat="50.86362" lon="12.90721">
        <ele>290.7</ele>
      </trkpt>
      <trkpt lat="50.864" lon="12.90682">
        <ele>290.2</ele>
      </trkpt>
      <trkpt lat="50.86422" lon="12.90659">
        <ele>290.0</ele>
      </trkpt>
      <trkpt lat="50.86446" lon="12.90638">
        <ele>289.9</ele>
      </trkpt>
      <trkpt lat="50.86489" lon="12.90595">
        <ele>289.2</ele>
      </trkpt>
      <trkpt lat="50.86562" lon="12.90519">
        <ele>287.1</ele>
      </trkpt>
      <trkpt lat="50.86604" lon="12.90479">
        <ele>285.1</ele>
      </trkpt>
      <trkpt lat="50.86616" lon="12.90467">
        <ele>284.7</ele>
      </trkpt>
      <trkpt lat="50.86622" lon="12.90461">
        <ele>284.6</ele>
      </trkpt>
      <trkpt lat="50.86629" lon="12.90451">
        <ele>284.4</ele>
      </trkpt>
      <trkpt lat="50.86634" lon="12.90453">
        <ele>284.3</ele>
      </trkpt>
      <trkpt lat="50.86638" lon="12.90452">
        <ele>284.2</ele>
      </trkpt>
      <trkpt lat="50.86641" lon="12.90448">
        <ele>284.2</ele>
      </trkpt>
      <trkpt lat="50.86644" lon="12.90444">
        <ele>284.1</ele>
      </trkpt>
      <trkpt lat="50.86645" lon="12.90438">
        <ele>284.1</ele>
      </trkpt>
      <trkpt lat="50.86645" lon="12.90433">
        <ele>284.2</ele>
      </trkpt>
      <trkpt lat="50.86643" lon="12.90425">
        <ele>284.2</ele>
      </trkpt>
      <trkpt lat="50.86651" lon="12.90407">
        <ele>284.3</ele>
      </trkpt>
      <trkpt lat="50.86654" lon="12.90394">
        <ele>284.4</ele>
      </trkpt>
      <trkpt lat="50.86666" lon="12.90374">
        <ele>284.5</ele>
      </trkpt>
      <trkpt lat="50.86694" lon="12.90299">
        <ele>286.1</ele>
      </trkpt>
      <trkpt lat="50.86722" lon="12.90233">
        <ele>287.7</ele>
      </trkpt>
      <trkpt lat="50.86749" lon="12.90167">
        <ele>288.0</ele>
      </trkpt>
      <trkpt lat="50.86764" lon="12.90146">
        <ele>287.8</ele>
      </trkpt>
      <trkpt lat="50.86826" lon="12.90069">
        <ele>286.5</ele>
      </trkpt>
      <trkpt lat="50.86863" lon="12.90025">
        <ele>285.6</ele>
      </trkpt>
      <trkpt lat="50.86899" lon="12.89982">
        <ele>285.3</ele>
      </trkpt>
      <trkpt lat="50.86939" lon="12.89935">
        <ele>285.8</ele>
      </trkpt>
      <trkpt lat="50.86997" lon="12.89864">
        <ele>286.3</ele>
      </trkpt>
      <trkpt lat="50.87055" lon="12.89793">
        <ele>286.8</ele>
      </trkpt>
      <trkpt lat="50.8711" lon="12.89727">
        <ele>287.0</ele>
      </trkpt>
      <trkpt lat="50.8717" lon="12.8966">
        <ele>287.3</ele>
      </trkpt>
      <trkpt lat="50.87225" lon="12.89602">
        <ele>287.6</ele>
      </trkpt>
      <trkpt lat="50.87276" lon="12.89544">
        <ele>288.5</ele>
      </trkpt>
      <trkpt lat="50.87311" lon="12.89514">
        <ele>288.8</ele>
      </trkpt>
      <trkpt lat="50.87323" lon="12.89509">
        <ele>288.8</ele>
      </trkpt>
      <trkpt lat="50.87334" lon="12.89495">
        <ele>289.2</ele>
      </trkpt>
      <trkpt lat="50.87371" lon="12.89422">
        <ele>291.9</ele>
      </trkpt>
      <trkpt lat="50.87411" lon="12.89369">
        <ele>292.9</ele>
      </trkpt>
      <trkpt lat="50.87435" lon="12.8936">
        <ele>292.7</ele>
      </trkpt>
      <trkpt lat="50.87485" lon="12.89347">
        <ele>292.4</ele>
      </trkpt>
      <trkpt lat="50.87506" lon="12.89333">
        <ele>292.6</ele>
      </trkpt>
      <trkpt lat="50.8753" lon="12.89311">
        <ele>291.9</ele>
      </trkpt>
      <trkpt lat="50.87554" lon="12.89286">
        <ele>291.6</ele>
      </trkpt>
      <trkpt lat="50.87582" lon="12.89258">
        <ele>291.7</ele>
      </trkpt>
      <trkpt lat="50.87595" lon="12.89248">
        <ele>292.4</ele>
      </trkpt>
      <trkpt lat="50.8761" lon="12.89241">
        <ele>293.0</ele>
      </trkpt>
      <trkpt lat="50.87623" lon="12.8924">
        <ele>293.4</ele>
      </trkpt>
      <trkpt lat="50.87642" lon="12.89247">
        <ele>293.6</ele>
      </trkpt>
      <trkpt lat="50.87665" lon="12.89258">
        <ele>293.5</ele>
      </trkpt>
      <trkpt lat="50.8769" lon="12.89293">
        <ele>292.4</ele>
      </trkpt>
      <trkpt lat="50.87705" lon="12.89323">
        <ele>291.4</ele>
      </trkpt>
      <trkpt lat="50.8771" lon="12.89353">
        <ele>289.9</ele>
      </trkpt>
      <trkpt lat="50.87721" lon="12.89373">
        <ele>289.1</ele>
      </trkpt>
      <trkpt lat="50.87724" lon="12.89375">
        <ele>289.1</ele>
      </trkpt>
      <trkpt lat="50.87735" lon="12.89382">
        <ele>289.0</ele>
      </trkpt>
      <trkpt lat="50.87763" lon="12.89385">
        <ele>288.4</ele>
      </trkpt>
      <trkpt lat="50.87779" lon="12.89394">
        <ele>286.9</ele>
      </trkpt>
      <trkpt lat="50.87795" lon="12.8941">
        <ele>285.1</ele>
      </trkpt>
      <trkpt lat="50.87815" lon="12.89434">
        <ele>283.1</ele>
      </trkpt>
      <trkpt lat="50.87832" lon="12.89459">
        <ele>281.5</ele>
      </trkpt>
      <trkpt lat="50.87877" lon="12.89539">
        <ele>278.7</ele>
      </trkpt>
      <trkpt lat="50.87922" lon="12.8962">
        <ele>278.8</ele>
      </trkpt>
      <trkpt lat="50.87934" lon="12.89636">
        <ele>278.9</ele>
      </trkpt>
      <trkpt lat="50.87951" lon="12.89667">
        <ele>279.2</ele>
      </trkpt>
      <trkpt lat="50.87965" lon="12.897">
        <ele>278.5</ele>
      </trkpt>
      <trkpt lat="50.88006" lon="12.89765">
        <ele>278.0</ele>
      </trkpt>
      <trkpt lat="50.88025" lon="12.89797">
        <ele>278.2</ele>
      </trkpt>
      <trkpt lat="50.88051" lon="12.89832">
        <ele>278.4</ele>
      </trkpt>
      <trkpt lat="50.88091" lon="12.89868">
        <ele>278.7</ele>
      </trkpt>
      <trkpt lat="50.8813" lon="12.89903">
        <ele>279.0</ele>
      </trkpt>
      <trkpt lat="50.88139" lon="12.89913">
        <ele>279.1</ele>
      </trkpt>
      <trkpt lat="50.88143" lon="12.89919">
        <ele>279.1</ele>
      </trkpt>
      <trkpt lat="50.88139" lon="12.89929">
        <ele>279.2</ele>
      </trkpt>
      <trkpt lat="50.88139" lon="12.89935">
        <ele>279.3</ele>
      </trkpt>
      <trkpt lat="50.88139" lon="12.89943">
        <ele>279.4</ele>
      </trkpt>
      <trkpt lat="50.88141" lon="12.8995">
        <ele>279.6</ele>
      </trkpt>
      <trkpt lat="50.88144" lon="12.89956">
        <ele>279.7</ele>
      </trkpt>
      <trkpt lat="50.88149" lon="12.89961">
        <ele>279.8</ele>
      </trkpt>
      <trkpt lat="50.88158" lon="12.89967">
        <ele>280.1</ele>
      </trkpt>
      <trkpt lat="50.88164" lon="12.89982">
        <ele>280.5</ele>
      </trkpt>
      <trkpt lat="50.88182" lon="12.89966">
        <ele>280.4</ele>
      </trkpt>
      <trkpt lat="50.88215" lon="12.8994">
        <ele>280.6</ele>
      </trkpt>
      <trkpt lat="50.88237" lon="12.8993">
        <ele>280.9</ele>
      </trkpt>
      <trkpt lat="50.88247" lon="12.89924">
        <ele>281.0</ele>
      </trkpt>
      <trkpt lat="50.88253" lon="12.89918">
        <ele>281.0</ele>
      </trkpt>
      <trkpt lat="50.88257" lon="12.89911">
        <ele>280.9</ele>
      </trkpt>
      <trkpt lat="50.8826" lon="12.89904">
        <ele>280.7</ele>
      </trkpt>
      <trkpt lat="50.88261" lon="12.89896">
        <ele>280.7</ele>
      </trkpt>
      <trkpt lat="50.88258" lon="12.89834">
        <ele>280.0</ele>
      </trkpt>
      <trkpt lat="50.8826" lon="12.89821">
        <ele>279.7</ele>
      </trkpt>
      <trkpt lat="50.88263" lon="12.8981">
        <ele>279.5</ele>
      </trkpt>
      <trkpt lat="50.88268" lon="12.89799">
        <ele>279.3</ele>
      </trkpt>
      <trkpt lat="50.88273" lon="12.89791">
        <ele>279.1</ele>
      </trkpt>
      <trkpt lat="50.88285" lon="12.89778">
        <ele>279.0</ele>
      </trkpt>
      <trkpt lat="50.88298" lon="12.89767">
        <ele>278.9</ele>
      </trkpt>
      <trkpt lat="50.88379" lon="12.89715">
        <ele>279.5</ele>
      </trkpt>
      <trkpt lat="50.8846" lon="12.89663">
        <ele>278.9</ele>
      </trkpt>
      <trkpt lat="50.88537" lon="12.89613">
        <ele>279.9</ele>
      </trkpt>
      <trkpt lat="50.88615" lon="12.89563">
        <ele>283.8</ele>
      </trkpt>
      <trkpt lat="50.88693" lon="12.89513">
        <ele>283.8</ele>
      </trkpt>
      <trkpt lat="50.88711" lon="12.89504">
        <ele>282.8</ele>
      </trkpt>
      <trkpt lat="50.88726" lon="12.895">
        <ele>282.3</ele>
      </trkpt>
      <trkpt lat="50.88748" lon="12.89499">
        <ele>282.0</ele>
      </trkpt>
      <trkpt lat="50.88759" lon="12.89501">
        <ele>281.6</ele>
      </trkpt>
      <trkpt lat="50.88777" lon="12.89507">
        <ele>281.1</ele>
      </trkpt>
      <trkpt lat="50.88792" lon="12.89515">
        <ele>280.8</ele>
      </trkpt>
      <trkpt lat="50.88836" lon="12.89543">
        <ele>280.0</ele>
      </trkpt>
      <trkpt lat="50.88881" lon="12.89571">
        <ele>279.6</ele>
      </trkpt>
      <trkpt lat="50.88902" lon="12.89582">
        <ele>278.8</ele>
      </trkpt>
      <trkpt lat="50.88912" lon="12.89586">
        <ele>278.4</ele>
      </trkpt>
      <trkpt lat="50.88925" lon="12.89588">
        <ele>278.2</ele>
      </trkpt>
      <trkpt lat="50.88936" lon="12.89588">
        <ele>278.2</ele>
      </trkpt>
      <trkpt lat="50.88945" lon="12.89587">
        <ele>278.1</ele>
      </trkpt>
      <trkpt lat="50.88965" lon="12.89581">
        <ele>278.0</ele>
      </trkpt>
      <trkpt lat="50.88982" lon="12.8957">
        <ele>277.8</ele>
      </trkpt>
      <trkpt lat="50.88992" lon="12.89562">
        <ele>277.7</ele>
      </trkpt>
      <trkpt lat="50.89001" lon="12.89552">
        <ele>277.7</ele>
      </trkpt>
      <trkpt lat="50.89011" lon="12.8954">
        <ele>278.9</ele>
      </trkpt>
      <trkpt lat="50.89026" lon="12.89513">
        <ele>280.5</ele>
      </trkpt>
      <trkpt lat="50.8903" lon="12.89503">
        <ele>281.0</ele>
      </trkpt>
      <trkpt lat="50.89065" lon="12.89426">
        <ele>281.0</ele>
      </trkpt>
      <trkpt lat="50.89075" lon="12.89406">
        <ele>280.7</ele>
      </trkpt>
      <trkpt lat="50.89082" lon="12.89395">
        <ele>280.6</ele>
      </trkpt>
      <trkpt lat="50.89091" lon="12.89385">
        <ele>280.3</ele>
      </trkpt>
      <trkpt lat="50.89103" lon="12.89375">
        <ele>280.0</ele>
      </trkpt>
      <trkpt lat="50.8912" lon="12.89366">
        <ele>279.7</ele>
      </trkpt>
      <trkpt lat="50.89129" lon="12.89364">
        <ele>279.6</ele>
      </trkpt>
      <trkpt lat="50.89143" lon="12.89364">
        <ele>279.9</ele>
      </trkpt>
      <trkpt lat="50.89158" lon="12.89367">
        <ele>280.5</ele>
      </trkpt>
      <trkpt lat="50.89178" lon="12.89377">
        <ele>281.4</ele>
      </trkpt>
      <trkpt lat="50.89219" lon="12.89411">
        <ele>283.5</ele>
      </trkpt>
      <trkpt lat="50.89261" lon="12.89444">
        <ele>285.0</ele>
      </trkpt>
      <trkpt lat="50.8931" lon="12.89486">
        <ele>283.3</ele>
      </trkpt>
      <trkpt lat="50.89366" lon="12.89537">
        <ele>282.8</ele>
      </trkpt>
      <trkpt lat="50.89419" lon="12.89583">
        <ele>284.8</ele>
      </trkpt>
      <trkpt lat="50.89472" lon="12.89628">
        <ele>285.0</ele>
      </trkpt>
      <trkpt lat="50.89525" lon="12.89674">
        <ele>283.0</ele>
      </trkpt>
      <trkpt lat="50.89568" lon="12.89722">
        <ele>282.5</ele>
      </trkpt>
      <trkpt lat="50.89626" lon="12.89788">
        <ele>281.4</ele>
      </trkpt>
      <trkpt lat="50.89684" lon="12.89855">
        <ele>279.0</ele>
      </trkpt>
      <trkpt lat="50.89742" lon="12.89922">
        <ele>285.6</ele>
      </trkpt>
      <trkpt lat="50.89764" lon="12.89941">
        <ele>287.9</ele>
      </trkpt>
      <trkpt lat="50.89782" lon="12.89953">
        <ele>288.6</ele>
      </trkpt>
      <trkpt lat="50.89792" lon="12.89958">
        <ele>288.7</ele>
      </trkpt>
      <trkpt lat="50.89819" lon="12.89965">
        <ele>288.0</ele>
      </trkpt>
      <trkpt lat="50.8989" lon="12.89966">
        <ele>289.9</ele>
      </trkpt>
      <trkpt lat="50.89916" lon="12.89966">
        <ele>291.1</ele>
      </trkpt>
      <trkpt lat="50.89943" lon="12.89969">
        <ele>291.1</ele>
      </trkpt>
      <trkpt lat="50.8995" lon="12.8997">
        <ele>291.2</ele>
      </trkpt>
      <trkpt lat="50.9002" lon="12.90001">
        <ele>293.6</ele>
      </trkpt>
      <trkpt lat="50.90039" lon="12.90006">
        <ele>293.7</ele>
      </trkpt>
      <trkpt lat="50.90067" lon="12.90006">
        <ele>293.1</ele>
      </trkpt>
      <trkpt lat="50.90112" lon="12.90002">
        <ele>293.6</ele>
      </trkpt>
      <trkpt lat="50.90157" lon="12.89999">
        <ele>295.4</ele>
      </trkpt>
      <trkpt lat="50.9018" lon="12.89995">
        <ele>295.9</ele>
      </trkpt>
      <trkpt lat="50.90191" lon="12.89992">
        <ele>296.1</ele>
      </trkpt>
      <trkpt lat="50.902" lon="12.89988">
        <ele>296.1</ele>
      </trkpt>
      <trkpt lat="50.90238" lon="12.89961">
        <ele>296.3</ele>
      </trkpt>
      <trkpt lat="50.90245" lon="12.89957">
        <ele>296.6</ele>
      </trkpt>
      <trkpt lat="50.90258" lon="12.89955">
        <ele>297.1</ele>
      </trkpt>
      <trkpt lat="50.90269" lon="12.89959">
        <ele>297.6</ele>
      </trkpt>
      <trkpt lat="50.90275" lon="12.89964">
        <ele>297.9</ele>
      </trkpt>
      <trkpt lat="50.90283" lon="12.89977">
        <ele>298.3</ele>
      </trkpt>
      <trkpt lat="50.90287" lon="12.89985">
        <ele>298.4</ele>
      </trkpt>
      <trkpt lat="50.9029" lon="12.89996">
        <ele>298.5</ele>
      </trkpt>
      <trkpt lat="50.90292" lon="12.90013">
        <ele>298.3</ele>
      </trkpt>
      <trkpt lat="50.90293" lon="12.90087">
        <ele>297.3</ele>
      </trkpt>
      <trkpt lat="50.90294" lon="12.90162">
        <ele>296.1</ele>
      </trkpt>
      <trkpt lat="50.90295" lon="12.90192">
        <ele>296.1</ele>
      </trkpt>
      <trkpt lat="50.90298" lon="12.90208">
        <ele>295.7</ele>
      </trkpt>
      <trkpt lat="50.90313" lon="12.90281">
        <ele>293.9</ele>
      </trkpt>
      <trkpt lat="50.90328" lon="12.90354">
        <ele>291.8</ele>
      </trkpt>
      <trkpt lat="50.90334" lon="12.90378">
        <ele>290.4</ele>
      </trkpt>
      <trkpt lat="50.9034" lon="12.90388">
        <ele>289.8</ele>
      </trkpt>
      <trkpt lat="50.90346" lon="12.90396">
        <ele>289.3</ele>
      </trkpt>
      <trkpt lat="50.90354" lon="12.904">
        <ele>288.7</ele>
      </trkpt>
      <trkpt lat="50.90362" lon="12.90402">
        <ele>288.1</ele>
      </trkpt>
      <trkpt lat="50.90368" lon="12.90402">
        <ele>287.6</ele>
      </trkpt>
      <trkpt lat="50.90374" lon="12.904">
        <ele>287.2</ele>
      </trkpt>
      <trkpt lat="50.90388" lon="12.90389">
        <ele>286.2</ele>
      </trkpt>
      <trkpt lat="50.90396" lon="12.90379">
        <ele>285.6</ele>
      </trkpt>
      <trkpt lat="50.90401" lon="12.90371">
        <ele>285.2</ele>
      </trkpt>
      <trkpt lat="50.90405" lon="12.90362">
        <ele>284.9</ele>
      </trkpt>
      <trkpt lat="50.90408" lon="12.90351">
        <ele>284.7</ele>
      </trkpt>
      <trkpt lat="50.9041" lon="12.90337">
        <ele>284.6</ele>
      </trkpt>
      <trkpt lat="50.9041" lon="12.9032">
        <ele>284.8</ele>
      </trkpt>
      <trkpt lat="50.90409" lon="12.90294">
        <ele>285.4</ele>
      </trkpt>
      <trkpt lat="50.90403" lon="12.90231">
        <ele>286.6</ele>
      </trkpt>
      <trkpt lat="50.904025" lon="12.902314">
        <ele>281.5</ele>
      </trkpt>
      <trkpt lat="50.90396" lon="12.90143">
        <ele>280.2</ele>
      </trkpt>
      <trkpt lat="50.90396" lon="12.90106">
        <ele>279.6</ele>
      </trkpt>
      <trkpt lat="50.904" lon="12.90072">
        <ele>279.6</ele>
      </trkpt>
      <trkpt lat="50.90411" lon="12.90044">
        <ele>279.0</ele>
      </trkpt>
      <trkpt lat="50.90456" lon="12.8996">
        <ele>277.7</ele>
      </trkpt>
      <trkpt lat="50.90463" lon="12.89949">
        <ele>277.5</ele>
      </trkpt>
      <trkpt lat="50.90476" lon="12.89934">
        <ele>277.1</ele>
      </trkpt>
      <trkpt lat="50.90497" lon="12.89922">
        <ele>276.1</ele>
      </trkpt>
      <trkpt lat="50.90565" lon="12.89908">
        <ele>274.4</ele>
      </trkpt>
      <trkpt lat="50.90581" lon="12.89905">
        <ele>274.1</ele>
      </trkpt>
      <trkpt lat="50.90597" lon="12.89899">
        <ele>273.9</ele>
      </trkpt>
      <trkpt lat="50.90617" lon="12.89879">
        <ele>273.9</ele>
      </trkpt>
      <trkpt lat="50.90639" lon="12.89848">
        <ele>274.2</ele>
      </trkpt>
      <trkpt lat="50.90651" lon="12.89839">
        <ele>274.2</ele>
      </trkpt>
      <trkpt lat="50.90663" lon="12.89837">
        <ele>274.2</ele>
      </trkpt>
      <trkpt lat="50.90676" lon="12.89839">
        <ele>274.0</ele>
      </trkpt>
      <trkpt lat="50.907613" lon="12.898544">
        <ele>274.0</ele>
      </trkpt>
      <trkpt lat="50.908467" lon="12.898699">
        <ele>273.8</ele>
      </trkpt>
      <trkpt lat="50.909321" lon="12.898854">
        <ele>273.4</ele>
      </trkpt>
      <trkpt lat="50.910175" lon="12.899009">
        <ele>272.8</ele>
      </trkpt>
      <trkpt lat="50.911028" lon="12.899164">
        <ele>272.5</ele>
      </trkpt>
      <trkpt lat="50.911882" lon="12.899319">
        <ele>272.1</ele>
      </trkpt>
      <trkpt lat="50.912736" lon="12.899474">
        <ele>272.3</ele>
      </trkpt>
      <trkpt lat="50.91359" lon="12.89963">
        <ele>272.8</ele>
      </trkpt>
      <trkpt lat="50.91396" lon="12.89965">
        <ele>272.8</ele>
      </trkpt>
      <trkpt lat="50.91451" lon="12.89966">
        <ele>273.0</ele>
      </trkpt>
      <trkpt lat="50.91522" lon="12.89966">
        <ele>273.3</ele>
      </trkpt>
      <trkpt lat="50.91534" lon="12.89963">
        <ele>273.5</ele>
      </trkpt>
      <trkpt lat="50.91548" lon="12.89957">
        <ele>273.5</ele>
      </trkpt>
      <trkpt lat="50.91587" lon="12.8992">
        <ele>273.6</ele>
      </trkpt>
      <trkpt lat="50.91649" lon="12.89855">
        <ele>273.8</ele>
      </trkpt>
      <trkpt lat="50.9165" lon="12.89854">
        <ele>273.8</ele>
      </trkpt>
      <trkpt lat="50.91661" lon="12.89838">
        <ele>273.7</ele>
      </trkpt>
      <trkpt lat="50.91669" lon="12.8982">
        <ele>273.7</ele>
      </trkpt>
      <trkpt lat="50.91687" lon="12.89762">
        <ele>273.4</ele>
      </trkpt>
      <trkpt lat="50.91702" lon="12.89703">
        <ele>273.1</ele>
      </trkpt>
      <trkpt lat="50.91705" lon="12.89681">
        <ele>273.0</ele>
      </trkpt>
      <trkpt lat="50.91705" lon="12.89654">
        <ele>272.9</ele>
      </trkpt>
      <trkpt lat="50.91701" lon="12.89626">
        <ele>272.8</ele>
      </trkpt>
      <trkpt lat="50.91684" lon="12.89563">
        <ele>272.2</ele>
      </trkpt>
      <trkpt lat="50.91677" lon="12.89519">
        <ele>271.8</ele>
      </trkpt>
      <trkpt lat="50.91677" lon="12.89491">
        <ele>271.8</ele>
      </trkpt>
      <trkpt lat="50.91685" lon="12.89387">
        <ele>271.1</ele>
      </trkpt>
      <trkpt lat="50.91685" lon="12.89334">
        <ele>270.6</ele>
      </trkpt>
      <trkpt lat="50.91681" lon="12.89288">
        <ele>270.4</ele>
      </trkpt>
      <trkpt lat="50.91675" lon="12.89254">
        <ele>270.4</ele>
      </trkpt>
      <trkpt lat="50.91659" lon="12.891739">
        <ele>269.8</ele>
      </trkpt>
      <trkpt lat="50.91643" lon="12.89094">
        <ele>269.8</ele>
      </trkpt>
      <trkpt lat="50.91632" lon="12.89016">
        <ele>269.9</ele>
      </trkpt>
      <trkpt lat="50.9162" lon="12.888883">
        <ele>270.1</ele>
      </trkpt>
      <trkpt lat="50.91608" lon="12.887606">
        <ele>271.5</ele>
      </trkpt>
      <trkpt lat="50.91596" lon="12.88633">
        <ele>272.2</ele>
      </trkpt>
      <trkpt lat="50.91599" lon="12.88593">
        <ele>272.3</ele>
      </trkpt>
      <trkpt lat="50.91603" lon="12.8857">
        <ele>272.3</ele>
      </trkpt>
      <trkpt lat="50.91627" lon="12.884805">
        <ele>272.2</ele>
      </trkpt>
      <trkpt lat="50.91651" lon="12.88391">
        <ele>271.4</ele>
      </trkpt>
      <trkpt lat="50.916756" lon="12.882966">
        <ele>270.6</ele>
      </trkpt>
      <trkpt lat="50.917003" lon="12.882023">
        <ele>269.2</ele>
      </trkpt>
      <trkpt lat="50.91725" lon="12.88108">
        <ele>268.5</ele>
      </trkpt>
      <trkpt lat="50.91738" lon="12.8801">
        <ele>267.9</ele>
      </trkpt>
      <trkpt lat="50.917503" lon="12.87904">
        <ele>267.9</ele>
      </trkpt>
      <trkpt lat="50.917626" lon="12.87798">
        <ele>268.0</ele>
      </trkpt>
      <trkpt lat="50.91775" lon="12.87692">
        <ele>268.5</ele>
      </trkpt>
      <trkpt lat="50.91779" lon="12.87652">
        <ele>268.5</ele>
      </trkpt>
      <trkpt lat="50.9178" lon="12.87582">
        <ele>268.3</ele>
      </trkpt>
      <trkpt lat="50.91776" lon="12.87536">
        <ele>268.6</ele>
      </trkpt>
      <trkpt lat="50.91766" lon="12.87479">
        <ele>268.6</ele>
      </trkpt>
      <trkpt lat="50.9174" lon="12.87343">
        <ele>268.4</ele>
      </trkpt>
      <trkpt lat="50.91725" lon="12.87291">
        <ele>268.4</ele>
      </trkpt>
      <trkpt lat="50.916753" lon="12.871736">
        <ele>268.2</ele>
      </trkpt>
      <trkpt lat="50.916256" lon="12.870563">
        <ele>268.4</ele>
      </trkpt>
      <trkpt lat="50.91576" lon="12.86939">
        <ele>269.2</ele>
      </trkpt>
      <trkpt lat="50.91562" lon="12.8689">
        <ele>269.2</ele>
      </trkpt>
      <trkpt lat="50.91557" lon="12.86865">
        <ele>269.2</ele>
      </trkpt>
      <trkpt lat="50.9155" lon="12.86812">
        <ele>268.9</ele>
      </trkpt>
      <trkpt lat="50.9155" lon="12.86749">
        <ele>268.7</ele>
      </trkpt>
      <trkpt lat="50.91554" lon="12.86714">
        <ele>268.4</ele>
      </trkpt>
      <trkpt lat="50.91559" lon="12.8669">
        <ele>268.4</ele>
      </trkpt>
      <trkpt lat="50.91577" lon="12.86642">
        <ele>268.0</ele>
      </trkpt>
      <trkpt lat="50.91592" lon="12.86616">
        <ele>267.8</ele>
      </trkpt>
      <trkpt lat="50.91655" lon="12.86531">
        <ele>266.9</ele>
      </trkpt>
      <trkpt lat="50.9167" lon="12.86507">
        <ele>266.4</ele>
      </trkpt>
      <trkpt lat="50.91712" lon="12.86416">
        <ele>265.8</ele>
      </trkpt>
      <trkpt lat="50.9172" lon="12.86376">
        <ele>265.6</ele>
      </trkpt>
      <trkpt lat="50.91723" lon="12.86304">
        <ele>265.4</ele>
      </trkpt>
      <trkpt lat="50.9172" lon="12.86255">
        <ele>265.4</ele>
      </trkpt>
      <trkpt lat="50.91711" lon="12.86206">
        <ele>265.3</ele>
      </trkpt>
      <trkpt lat="50.91691" lon="12.8613">
        <ele>264.9</ele>
      </trkpt>
      <trkpt lat="50.91674" lon="12.86084">
        <ele>264.8</ele>
      </trkpt>
      <trkpt lat="50.91651" lon="12.86034">
        <ele>264.4</ele>
      </trkpt>
      <trkpt lat="50.91634" lon="12.86005">
        <ele>264.1</ele>
      </trkpt>
      <trkpt lat="50.91579" lon="12.85955">
        <ele>263.9</ele>
      </trkpt>
      <trkpt lat="50.91566" lon="12.85932">
        <ele>264.0</ele>
      </trkpt>
      <trkpt lat="50.91563" lon="12.85922">
        <ele>264.3</ele>
      </trkpt>
      <trkpt lat="50.91558" lon="12.85885">
        <ele>264.4</ele>
      </trkpt>
      <trkpt lat="50.91554" lon="12.85843">
        <ele>264.4</ele>
      </trkpt>
      <trkpt lat="50.91555" lon="12.85816">
        <ele>264.1</ele>
      </trkpt>
      <trkpt lat="50.9156" lon="12.85786">
        <ele>264.1</ele>
      </trkpt>
      <trkpt lat="50.91569" lon="12.85759">
        <ele>264.1</ele>
      </trkpt>
      <trkpt lat="50.91598" lon="12.85702">
        <ele>263.5</ele>
      </trkpt>
      <trkpt lat="50.91614" lon="12.85683">
        <ele>263.4</ele>
      </trkpt>
      <trkpt lat="50.91634" lon="12.85665">
        <ele>263.2</ele>
      </trkpt>
      <trkpt lat="50.91651" lon="12.85655">
        <ele>262.7</ele>
      </trkpt>
      <trkpt lat="50.91666" lon="12.85649">
        <ele>262.7</ele>
      </trkpt>
      <trkpt lat="50.91701" lon="12.85639">
        <ele>262.6</ele>
      </trkpt>
      <trkpt lat="50.91732" lon="12.85635">
        <ele>262.3</ele>
      </trkpt>
      <trkpt lat="50.91741" lon="12.85636">
        <ele>261.9</ele>
      </trkpt>
      <trkpt lat="50.91762" lon="12.85642">
        <ele>261.9</ele>
      </trkpt>
      <trkpt lat="50.91775" lon="12.8565">
        <ele>261.8</ele>
      </trkpt>
      <trkpt lat="50.918395" lon="12.857019">
        <ele>261.1</ele>
      </trkpt>
      <trkpt lat="50.91904" lon="12.85754">
        <ele>259.7</ele>
      </trkpt>
      <trkpt lat="50.91946" lon="12.85785">
        <ele>257.6</ele>
      </trkpt>
      <trkpt lat="50.91982" lon="12.85799">
        <ele>257.2</ele>
      </trkpt>
      <trkpt lat="50.92049" lon="12.85803">
        <ele>256.8</ele>
      </trkpt>
      <trkpt lat="50.92121" lon="12.85805">
        <ele>256.6</ele>
      </trkpt>
      <trkpt lat="50.92148" lon="12.858">
        <ele>256.5</ele>
      </trkpt>
      <trkpt lat="50.92163" lon="12.85794">
        <ele>256.5</ele>
      </trkpt>
      <trkpt lat="50.92198" lon="12.8577">
        <ele>256.4</ele>
      </trkpt>
      <trkpt lat="50.92242" lon="12.85735">
        <ele>256.7</ele>
      </trkpt>
      <trkpt lat="50.923086" lon="12.856803">
        <ele>257.2</ele>
      </trkpt>
      <trkpt lat="50.923753" lon="12.856256">
        <ele>257.9</ele>
      </trkpt>
      <trkpt lat="50.92442" lon="12.85571">
        <ele>258.8</ele>
      </trkpt>
      <trkpt lat="50.92461" lon="12.85553">
        <ele>258.8</ele>
      </trkpt>
      <trkpt lat="50.92527" lon="12.8547">
        <ele>257.8</ele>
      </trkpt>
      <trkpt lat="50.9257" lon="12.85414">
        <ele>256.9</ele>
      </trkpt>
      <trkpt lat="50.92524" lon="12.853409">
        <ele>256.2</ele>
      </trkpt>
      <trkpt lat="50.92478" lon="12.852679">
        <ele>256.0</ele>
      </trkpt>
      <trkpt lat="50.92432" lon="12.85195">
        <ele>255.7</ele>
      </trkpt>
      <trkpt lat="50.92379" lon="12.851194">
        <ele>255.9</ele>
      </trkpt>
      <trkpt lat="50.92326" lon="12.85044">
        <ele>257.4</ele>
      </trkpt>
      <trkpt lat="50.92315" lon="12.8503">
        <ele>258.1</ele>
      </trkpt>
      <trkpt lat="50.92272" lon="12.849849">
        <ele>259.9</ele>
      </trkpt>
      <trkpt lat="50.92229" lon="12.8494">
        <ele>263.7</ele>
      </trkpt>
      <trkpt lat="50.92212" lon="12.84921">
        <ele>265.0</ele>
      </trkpt>
      <trkpt lat="50.92188" lon="12.84883">
        <ele>266.3</ele>
      </trkpt>
      <trkpt lat="50.92173" lon="12.84851">
        <ele>270.1</ele>
      </trkpt>
      <trkpt lat="50.92158" lon="12.84805">
        <ele>271.8</ele>
      </trkpt>
      <trkpt lat="50.921355" lon="12.846851">
        <ele>277.0</ele>
      </trkpt>
      <trkpt lat="50.92113" lon="12.845652">
        <ele>282.4</ele>
      </trkpt>
      <trkpt lat="50.920905" lon="12.844453">
        <ele>286.0</ele>
      </trkpt>
      <trkpt lat="50.92068" lon="12.843254">
        <ele>287.8</ele>
      </trkpt>
      <trkpt lat="50.920455" lon="12.842056">
        <ele>291.5</ele>
      </trkpt>
      <trkpt lat="50.92023" lon="12.840857">
        <ele>297.8</ele>
      </trkpt>
      <trkpt lat="50.920005" lon="12.839658">
        <ele>304.7</ele>
      </trkpt>
      <trkpt lat="50.91978" lon="12.83846">
        <ele>307.8</ele>
      </trkpt>
      <trkpt lat="50.91962" lon="12.83769">
        <ele>309.3</ele>
      </trkpt>
      <trkpt lat="50.91944" lon="12.83691">
        <ele>310.8</ele>
      </trkpt>
      <trkpt lat="50.919107" lon="12.835659">
        <ele>312.7</ele>
      </trkpt>
      <trkpt lat="50.918774" lon="12.834409">
        <ele>314.0</ele>
      </trkpt>
      <trkpt lat="50.918441" lon="12.833159">
        <ele>314.6</ele>
      </trkpt>
      <trkpt lat="50.918108" lon="12.831909">
        <ele>315.4</ele>
      </trkpt>
      <trkpt lat="50.917775" lon="12.830659">
        <ele>315.9</ele>
      </trkpt>
      <trkpt lat="50.917442" lon="12.829409">
        <ele>316.7</ele>
      </trkpt>
      <trkpt lat="50.91711" lon="12.82816">
        <ele>318.4</ele>
      </trkpt>
      <trkpt lat="50.91696" lon="12.82751">
        <ele>320.3</ele>
      </trkpt>
      <trkpt lat="50.91689" lon="12.82697">
        <ele>321.2</ele>
      </trkpt>
      <trkpt lat="50.91685" lon="12.82643">
        <ele>322.0</ele>
      </trkpt>
      <trkpt lat="50.91687" lon="12.82554">
        <ele>321.5</ele>
      </trkpt>
      <trkpt lat="50.916966" lon="12.824286">
        <ele>318.4</ele>
      </trkpt>
      <trkpt lat="50.917063" lon="12.823033">
        <ele>316.2</ele>
      </trkpt>
      <trkpt lat="50.91716" lon="12.82178">
        <ele>313.1</ele>
      </trkpt>
      <trkpt lat="50.917256" lon="12.820526">
        <ele>310.5</ele>
      </trkpt>
      <trkpt lat="50.917353" lon="12.819273">
        <ele>308.8</ele>
      </trkpt>
      <trkpt lat="50.91745" lon="12.81802">
        <ele>309.6</ele>
      </trkpt>
      <trkpt lat="50.917533" lon="12.81702">
        <ele>310.5</ele>
      </trkpt>
      <trkpt lat="50.917616" lon="12.81602">
        <ele>311.0</ele>
      </trkpt>
      <trkpt lat="50.9177" lon="12.81502">
        <ele>311.3</ele>
      </trkpt>
      <trkpt lat="50.917745" lon="12.81431">
        <ele>311.1</ele>
      </trkpt>
      <trkpt lat="50.91779" lon="12.8136">
        <ele>310.6</ele>
      </trkpt>
      <trkpt lat="50.917865" lon="12.81265">
        <ele>309.9</ele>
      </trkpt>
      <trkpt lat="50.91794" lon="12.8117">
        <ele>309.2</ele>
      </trkpt>
      <trkpt lat="50.91796" lon="12.81113">
        <ele>307.6</ele>
      </trkpt>
      <trkpt lat="50.91802" lon="12.81029">
        <ele>306.4</ele>
      </trkpt>
      <trkpt lat="50.9181" lon="12.80926">
        <ele>306.0</ele>
      </trkpt>
      <trkpt lat="50.91818" lon="12.80823">
        <ele>306.1</ele>
      </trkpt>
      <trkpt lat="50.91826" lon="12.8072">
        <ele>306.3</ele>
      </trkpt>
      <trkpt lat="50.91828" lon="12.80674">
        <ele>306.1</ele>
      </trkpt>
      <trkpt lat="50.91827" lon="12.8057">
        <ele>305.3</ele>
      </trkpt>
      <trkpt lat="50.91831" lon="12.80528">
        <ele>304.3</ele>
      </trkpt>
      <trkpt lat="50.91837" lon="12.80504">
        <ele>304.1</ele>
      </trkpt>
      <trkpt lat="50.91846" lon="12.80423">
        <ele>302.5</ele>
      </trkpt>
      <trkpt lat="50.91855" lon="12.80342">
        <ele>301.8</ele>
      </trkpt>
      <trkpt lat="50.918055" lon="12.803269">
        <ele>302.4</ele>
      </trkpt>
      <trkpt lat="50.91756" lon="12.80312">
        <ele>303.4</ele>
      </trkpt>
      <trkpt lat="50.91735" lon="12.80307">
        <ele>304.5</ele>
      </trkpt>
      <trkpt lat="50.91691" lon="12.80304">
        <ele>306.0</ele>
      </trkpt>
      <trkpt lat="50.91608" lon="12.80313">
        <ele>307.8</ele>
      </trkpt>
      <trkpt lat="50.91557" lon="12.803165">
        <ele>308.7</ele>
      </trkpt>
      <trkpt lat="50.91506" lon="12.8032">
        <ele>308.8</ele>
      </trkpt>
      <trkpt lat="50.91466" lon="12.80309">
        <ele>308.9</ele>
      </trkpt>
      <trkpt lat="50.91444" lon="12.80299">
        <ele>308.8</ele>
      </trkpt>
      <trkpt lat="50.913712" lon="12.802517">
        <ele>308.2</ele>
      </trkpt>
      <trkpt lat="50.912985" lon="12.802044">
        <ele>308.3</ele>
      </trkpt>
      <trkpt lat="50.912257" lon="12.801572">
        <ele>308.4</ele>
      </trkpt>
      <trkpt lat="50.91153" lon="12.8011">
        <ele>308.2</ele>
      </trkpt>
      <trkpt lat="50.9111" lon="12.80085">
        <ele>308.0</ele>
      </trkpt>
      <trkpt lat="50.91076" lon="12.8007">
        <ele>308.3</ele>
      </trkpt>
      <trkpt lat="50.91039" lon="12.80064">
        <ele>308.8</ele>
      </trkpt>
      <trkpt lat="50.91014" lon="12.80064">
        <ele>309.0</ele>
      </trkpt>
      <trkpt lat="50.90977" lon="12.80073">
        <ele>309.1</ele>
      </trkpt>
      <trkpt lat="50.90959" lon="12.8008">
        <ele>309.1</ele>
      </trkpt>
      <trkpt lat="50.90918" lon="12.80109">
        <ele>308.9</ele>
      </trkpt>
      <trkpt lat="50.90896" lon="12.80129">
        <ele>308.4</ele>
      </trkpt>
      <trkpt lat="50.90879" lon="12.80149">
        <ele>308.4</ele>
      </trkpt>
      <trkpt lat="50.90852" lon="12.80187">
        <ele>307.8</ele>
      </trkpt>
      <trkpt lat="50.907972" lon="12.802707">
        <ele>307.0</ele>
      </trkpt>
      <trkpt lat="50.907425" lon="12.803545">
        <ele>306.1</ele>
      </trkpt>
      <trkpt lat="50.906877" lon="12.804382">
        <ele>305.1</ele>
      </trkpt>
      <trkpt lat="50.90633" lon="12.80522">
        <ele>304.4</ele>
      </trkpt>
      <trkpt lat="50.90597" lon="12.80574">
        <ele>303.6</ele>
      </trkpt>
      <trkpt lat="50.9056" lon="12.80622">
        <ele>303.0</ele>
      </trkpt>
      <trkpt lat="50.90548" lon="12.80635">
        <ele>302.9</ele>
      </trkpt>
      <trkpt lat="50.90514" lon="12.80662">
        <ele>302.5</ele>
      </trkpt>
      <trkpt lat="50.90497" lon="12.80673">
        <ele>302.6</ele>
      </trkpt>
      <trkpt lat="50.90463" lon="12.80694">
        <ele>302.7</ele>
      </trkpt>
      <trkpt lat="50.90423" lon="12.8071">
        <ele>302.7</ele>
      </trkpt>
      <trkpt lat="50.90374" lon="12.80719">
        <ele>302.9</ele>
      </trkpt>
      <trkpt lat="50.90344" lon="12.80716">
        <ele>303.1</ele>
      </trkpt>
      <trkpt lat="50.90322" lon="12.8071">
        <ele>303.3</ele>
      </trkpt>
      <trkpt lat="50.90275" lon="12.8069">
        <ele>303.4</ele>
      </trkpt>
      <trkpt lat="50.90256" lon="12.80678">
        <ele>303.6</ele>
      </trkpt>
      <trkpt lat="50.90212" lon="12.80643">
        <ele>304.2</ele>
      </trkpt>
      <trkpt lat="50.90184" lon="12.80616">
        <ele>304.2</ele>
      </trkpt>
      <trkpt lat="50.90165" lon="12.80594">
        <ele>304.3</ele>
      </trkpt>
      <trkpt lat="50.90111" lon="12.805222">
        <ele>305.0</ele>
      </trkpt>
      <trkpt lat="50.90057" lon="12.804504">
        <ele>306.3</ele>
      </trkpt>
      <trkpt lat="50.90003" lon="12.803787">
        <ele>308.0</ele>
      </trkpt>
      <trkpt lat="50.89949" lon="12.80307">
        <ele>309.3</ele>
      </trkpt>
      <trkpt lat="50.898875" lon="12.802284">
        <ele>311.3</ele>
      </trkpt>
      <trkpt lat="50.89826" lon="12.8015">
        <ele>312.7</ele>
      </trkpt>
      <trkpt lat="50.89777" lon="12.80092">
        <ele>313.6</ele>
      </trkpt>
      <trkpt lat="50.89777" lon="12.80093">
        <ele>309.9</ele>
      </trkpt>
      <trkpt lat="50.89726" lon="12.8004">
        <ele>310.4</ele>
      </trkpt>
      <trkpt lat="50.89666" lon="12.79984">
        <ele>311.2</ele>
      </trkpt>
      <trkpt lat="50.89606" lon="12.79933">
        <ele>311.7</ele>
      </trkpt>
      <trkpt lat="50.89545" lon="12.79882">
        <ele>312.0</ele>
      </trkpt>
      <trkpt lat="50.8951" lon="12.79851">
        <ele>311.9</ele>
      </trkpt>
      <trkpt lat="50.89469" lon="12.79811">
        <ele>311.5</ele>
      </trkpt>
      <trkpt lat="50.89453" lon="12.7979">
        <ele>311.4</ele>
      </trkpt>
      <trkpt lat="50.89436" lon="12.79764">
        <ele>311.3</ele>
      </trkpt>
      <trkpt lat="50.8942" lon="12.79736">
        <ele>311.1</ele>
      </trkpt>
      <trkpt lat="50.89406" lon="12.79707">
        <ele>311.0</ele>
      </trkpt>
      <trkpt lat="50.89394" lon="12.79674">
        <ele>311.0</ele>
      </trkpt>
      <trkpt lat="50.89386" lon="12.7965">
        <ele>311.2</ele>
      </trkpt>
      <trkpt lat="50.89374" lon="12.79597">
        <ele>311.8</ele>
      </trkpt>
      <trkpt lat="50.89365" lon="12.79548">
        <ele>312.2</ele>
      </trkpt>
      <trkpt lat="50.89342" lon="12.79416">
        <ele>313.3</ele>
      </trkpt>
      <trkpt lat="50.89319" lon="12.79283">
        <ele>315.4</ele>
      </trkpt>
      <trkpt lat="50.89296" lon="12.7915">
        <ele>318.6</ele>
      </trkpt>
      <trkpt lat="50.89288" lon="12.79104">
        <ele>319.3</ele>
      </trkpt>
      <trkpt lat="50.89278" lon="12.79059">
        <ele>319.8</ele>
      </trkpt>
      <trkpt lat="50.89265" lon="12.79018">
        <ele>320.0</ele>
      </trkpt>
      <trkpt lat="50.89252" lon="12.78987">
        <ele>320.2</ele>
      </trkpt>
      <trkpt lat="50.8924" lon="12.78963">
        <ele>320.3</ele>
      </trkpt>
      <trkpt lat="50.89233" lon="12.78952">
        <ele>320.4</ele>
      </trkpt>
      <trkpt lat="50.89202" lon="12.78907">
        <ele>320.5</ele>
      </trkpt>
      <trkpt lat="50.89142" lon="12.78824">
        <ele>320.6</ele>
      </trkpt>
      <trkpt lat="50.89095" lon="12.78755">
        <ele>320.4</ele>
      </trkpt>
      <trkpt lat="50.89048" lon="12.78686">
        <ele>321.5</ele>
      </trkpt>
      <trkpt lat="50.88982" lon="12.78593">
        <ele>324.1</ele>
      </trkpt>
      <trkpt lat="50.88947" lon="12.78546">
        <ele>325.4</ele>
      </trkpt>
      <trkpt lat="50.88947" lon="12.78546">
        <ele>325.4</ele>
      </trkpt>
      <trkpt lat="50.88909" lon="12.785">
        <ele>326.9</ele>
      </trkpt>
      <trkpt lat="50.88884" lon="12.78474">
        <ele>327.0</ele>
      </trkpt>
      <trkpt lat="50.88847" lon="12.78438">
        <ele>327.5</ele>
      </trkpt>
      <trkpt lat="50.88809" lon="12.78407">
        <ele>328.7</ele>
      </trkpt>
      <trkpt lat="50.8879" lon="12.78394">
        <ele>329.3</ele>
      </trkpt>
      <trkpt lat="50.88747" lon="12.78368">
        <ele>330.7</ele>
      </trkpt>
      <trkpt lat="50.88694" lon="12.78343">
        <ele>332.3</ele>
      </trkpt>
      <trkpt lat="50.88652" lon="12.7833">
        <ele>333.6</ele>
      </trkpt>
      <trkpt lat="50.88606" lon="12.78319">
        <ele>335.4</ele>
      </trkpt>
      <trkpt lat="50.88579" lon="12.78316">
        <ele>336.4</ele>
      </trkpt>
      <trkpt lat="50.88531" lon="12.78314">
        <ele>338.3</ele>
      </trkpt>
      <trkpt lat="50.88505" lon="12.78315">
        <ele>339.4</ele>
      </trkpt>
      <trkpt lat="50.88447" lon="12.78316">
        <ele>341.8</ele>
      </trkpt>
      <trkpt lat="50.88389" lon="12.78318">
        <ele>344.3</ele>
      </trkpt>
      <trkpt lat="50.88358" lon="12.78315">
        <ele>345.6</ele>
      </trkpt>
      <trkpt lat="50.88332" lon="12.78311">
        <ele>346.9</ele>
      </trkpt>
      <trkpt lat="50.88315" lon="12.78307">
        <ele>347.7</ele>
      </trkpt>
      <trkpt lat="50.88273" lon="12.78294">
        <ele>349.9</ele>
      </trkpt>
      <trkpt lat="50.88236" lon="12.78279">
        <ele>352.3</ele>
      </trkpt>
      <trkpt lat="50.88197" lon="12.7826">
        <ele>355.1</ele>
      </trkpt>
      <trkpt lat="50.88116" lon="12.78216">
        <ele>361.3</ele>
      </trkpt>
      <trkpt lat="50.88067" lon="12.78194">
        <ele>364.8</ele>
      </trkpt>
      <trkpt lat="50.88022" lon="12.78177">
        <ele>367.6</ele>
      </trkpt>
      <trkpt lat="50.87986" lon="12.78168">
        <ele>368.8</ele>
      </trkpt>
      <trkpt lat="50.87962" lon="12.78164">
        <ele>368.7</ele>
      </trkpt>
      <trkpt lat="50.87937" lon="12.78164">
        <ele>368.4</ele>
      </trkpt>
      <trkpt lat="50.87905" lon="12.78165">
        <ele>367.8</ele>
      </trkpt>
      <trkpt lat="50.87871" lon="12.78172">
        <ele>366.8</ele>
      </trkpt>
      <trkpt lat="50.87826" lon="12.78186">
        <ele>365.4</ele>
      </trkpt>
      <trkpt lat="50.87782" lon="12.78199">
        <ele>363.1</ele>
      </trkpt>
      <trkpt lat="50.87753" lon="12.78206">
        <ele>361.7</ele>
      </trkpt>
      <trkpt lat="50.87724" lon="12.78209">
        <ele>360.1</ele>
      </trkpt>
      <trkpt lat="50.87707" lon="12.7821">
        <ele>359.2</ele>
      </trkpt>
      <trkpt lat="50.87685" lon="12.78208">
        <ele>358.0</ele>
      </trkpt>
      <trkpt lat="50.87666" lon="12.78204">
        <ele>357.0</ele>
      </trkpt>
      <trkpt lat="50.87636" lon="12.78192">
        <ele>355.8</ele>
      </trkpt>
      <trkpt lat="50.87584" lon="12.78151">
        <ele>354.0</ele>
      </trkpt>
      <trkpt lat="50.87525" lon="12.781">
        <ele>353.6</ele>
      </trkpt>
      <trkpt lat="50.87466" lon="12.78049">
        <ele>352.5</ele>
      </trkpt>
      <trkpt lat="50.87387" lon="12.7798">
        <ele>353.5</ele>
      </trkpt>
      <trkpt lat="50.87309" lon="12.77911">
        <ele>353.7</ele>
      </trkpt>
      <trkpt lat="50.8728" lon="12.77885">
        <ele>353.4</ele>
      </trkpt>
      <trkpt lat="50.87269" lon="12.77878">
        <ele>353.2</ele>
      </trkpt>
      <trkpt lat="50.87218" lon="12.77831">
        <ele>353.7</ele>
      </trkpt>
      <trkpt lat="50.87205" lon="12.77821">
        <ele>353.9</ele>
      </trkpt>
      <trkpt lat="50.8714" lon="12.77765">
        <ele>354.6</ele>
      </trkpt>
      <trkpt lat="50.87069" lon="12.777">
        <ele>356.5</ele>
      </trkpt>
      <trkpt lat="50.87003" lon="12.77641">
        <ele>357.0</ele>
      </trkpt>
      <trkpt lat="50.86937" lon="12.77583">
        <ele>354.7</ele>
      </trkpt>
      <trkpt lat="50.8687" lon="12.77525">
        <ele>354.0</ele>
      </trkpt>
      <trkpt lat="50.86827" lon="12.77487">
        <ele>353.9</ele>
      </trkpt>
      <trkpt lat="50.86785" lon="12.77449">
        <ele>353.4</ele>
      </trkpt>
      <trkpt lat="50.86724" lon="12.77398">
        <ele>352.1</ele>
      </trkpt>
      <trkpt lat="50.86659" lon="12.77337">
        <ele>351.0</ele>
      </trkpt>
      <trkpt lat="50.86595" lon="12.77276">
        <ele>351.6</ele>
      </trkpt>
      <trkpt lat="50.8655" lon="12.77238">
        <ele>352.0</ele>
      </trkpt>
      <trkpt lat="50.86505" lon="12.772">
        <ele>351.5</ele>
      </trkpt>
      <trkpt lat="50.86451" lon="12.77152">
        <ele>354.1</ele>
      </trkpt>
      <trkpt lat="50.86384" lon="12.77094">
        <ele>358.0</ele>
      </trkpt>
      <trkpt lat="50.86316" lon="12.77036">
        <ele>361.4</ele>
      </trkpt>
      <trkpt lat="50.86278" lon="12.77002">
        <ele>364.6</ele>
      </trkpt>
      <trkpt lat="50.86234" lon="12.76969">
        <ele>367.8</ele>
      </trkpt>
      <trkpt lat="50.86176" lon="12.76934">
        <ele>371.1</ele>
      </trkpt>
      <trkpt lat="50.86164" lon="12.76927">
        <ele>371.8</ele>
      </trkpt>
      <trkpt lat="50.86081" lon="12.76875">
        <ele>376.6</ele>
      </trkpt>
      <trkpt lat="50.86022" lon="12.7684">
        <ele>377.6</ele>
      </trkpt>
      <trkpt lat="50.85976" lon="12.76811">
        <ele>377.2</ele>
      </trkpt>
      <trkpt lat="50.85931" lon="12.76782">
        <ele>376.2</ele>
      </trkpt>
      <trkpt lat="50.85904" lon="12.76766">
        <ele>375.5</ele>
      </trkpt>
      <trkpt lat="50.85864" lon="12.76745">
        <ele>374.9</ele>
      </trkpt>
      <trkpt lat="50.85866" lon="12.76762">
        <ele>375.3</ele>
      </trkpt>
      <trkpt lat="50.85855" lon="12.76846">
        <ele>376.6</ele>
      </trkpt>
      <trkpt lat="50.85847" lon="12.76886">
        <ele>376.4</ele>
      </trkpt>
      <trkpt lat="50.85831" lon="12.76984">
        <ele>375.1</ele>
      </trkpt>
      <trkpt lat="50.85822" lon="12.77029">
        <ele>374.6</ele>
      </trkpt>
      <trkpt lat="50.85815" lon="12.77049">
        <ele>374.5</ele>
      </trkpt>
      <trkpt lat="50.85802" lon="12.77075">
        <ele>374.2</ele>
      </trkpt>
      <trkpt lat="50.85759" lon="12.77134">
        <ele>373.8</ele>
      </trkpt>
      <trkpt lat="50.85716" lon="12.77194">
        <ele>375.3</ele>
      </trkpt>
      <trkpt lat="50.85701" lon="12.77215">
        <ele>376.0</ele>
      </trkpt>
      <trkpt lat="50.85666" lon="12.77283">
        <ele>377.8</ele>
      </trkpt>
      <trkpt lat="50.85628" lon="12.77371">
        <ele>380.6</ele>
      </trkpt>
      <trkpt lat="50.85593" lon="12.77474">
        <ele>382.5</ele>
      </trkpt>
      <trkpt lat="50.85569" lon="12.77552">
        <ele>383.3</ele>
      </trkpt>
      <trkpt lat="50.85494" lon="12.77546">
        <ele>385.2</ele>
      </trkpt>
      <trkpt lat="50.85419" lon="12.7754">
        <ele>387.9</ele>
      </trkpt>
      <trkpt lat="50.85345" lon="12.77533">
        <ele>388.0</ele>
      </trkpt>
      <trkpt lat="50.8527" lon="12.77527">
        <ele>387.2</ele>
      </trkpt>
      <trkpt lat="50.85195" lon="12.77521">
        <ele>387.7</ele>
      </trkpt>
      <trkpt lat="50.8512" lon="12.77515">
        <ele>388.6</ele>
      </trkpt>
      <trkpt lat="50.85047" lon="12.77506">
        <ele>389.4</ele>
      </trkpt>
      <trkpt lat="50.84974" lon="12.77498">
        <ele>389.4</ele>
      </trkpt>
      <trkpt lat="50.84932" lon="12.77482">
        <ele>388.5</ele>
      </trkpt>
      <trkpt lat="50.8491" lon="12.77472">
        <ele>388.3</ele>
      </trkpt>
      <trkpt lat="50.84874" lon="12.77449">
        <ele>388.4</ele>
      </trkpt>
      <trkpt lat="50.84833" lon="12.77421">
        <ele>388.9</ele>
      </trkpt>
      <trkpt lat="50.84779" lon="12.77375">
        <ele>389.2</ele>
      </trkpt>
      <trkpt lat="50.84726" lon="12.77328">
        <ele>389.8</ele>
      </trkpt>
      <trkpt lat="50.84672" lon="12.77282">
        <ele>390.3</ele>
      </trkpt>
      <trkpt lat="50.84605" lon="12.77226">
        <ele>389.7</ele>
      </trkpt>
      <trkpt lat="50.84539" lon="12.77169">
        <ele>390.1</ele>
      </trkpt>
      <trkpt lat="50.84472" lon="12.77112">
        <ele>389.9</ele>
      </trkpt>
      <trkpt lat="50.84405" lon="12.77056">
        <ele>390.1</ele>
      </trkpt>
      <trkpt lat="50.84339" lon="12.76999">
        <ele>390.9</ele>
      </trkpt>
      <trkpt lat="50.84266" lon="12.76936">
        <ele>390.1</ele>
      </trkpt>
      <trkpt lat="50.84205" lon="12.76884">
        <ele>390.4</ele>
      </trkpt>
      <trkpt lat="50.84144" lon="12.76833">
        <ele>391.5</ele>
      </trkpt>
      <trkpt lat="50.8409" lon="12.76785">
        <ele>392.3</ele>
      </trkpt>
      <trkpt lat="50.8409" lon="12.76785">
        <ele>392.3</ele>
      </trkpt>
      <trkpt lat="50.84017" lon="12.76723">
        <ele>392.7</ele>
      </trkpt>
      <trkpt lat="50.83945" lon="12.76661">
        <ele>394.9</ele>
      </trkpt>
      <trkpt lat="50.83872" lon="12.76599">
        <ele>396.8</ele>
      </trkpt>
      <trkpt lat="50.838" lon="12.76537">
        <ele>399.6</ele>
      </trkpt>
      <trkpt lat="50.83728" lon="12.76475">
        <ele>403.4</ele>
      </trkpt>
      <trkpt lat="50.8365" lon="12.76407">
        <ele>407.2</ele>
      </trkpt>
      <trkpt lat="50.83616" lon="12.76378">
        <ele>408.0</ele>
      </trkpt>
      <trkpt lat="50.83605" lon="12.76371">
        <ele>408.4</ele>
      </trkpt>
      <trkpt lat="50.83582" lon="12.76357">
        <ele>409.1</ele>
      </trkpt>
      <trkpt lat="50.83559" lon="12.76346">
        <ele>408.6</ele>
      </trkpt>
      <trkpt lat="50.83534" lon="12.76332">
        <ele>408.2</ele>
      </trkpt>
      <trkpt lat="50.83509" lon="12.76315">
        <ele>407.7</ele>
      </trkpt>
      <trkpt lat="50.83488" lon="12.76296">
        <ele>407.3</ele>
      </trkpt>
      <trkpt lat="50.83469" lon="12.76275">
        <ele>406.9</ele>
      </trkpt>
      <trkpt lat="50.83414" lon="12.76198">
        <ele>406.2</ele>
      </trkpt>
      <trkpt lat="50.83351" lon="12.76105">
        <ele>404.2</ele>
      </trkpt>
      <trkpt lat="50.83289" lon="12.76012">
        <ele>400.8</ele>
      </trkpt>
      <trkpt lat="50.83256" lon="12.75963">
        <ele>400.2</ele>
      </trkpt>
      <trkpt lat="50.83227" lon="12.75906">
        <ele>401.0</ele>
      </trkpt>
      <trkpt lat="50.83211" lon="12.75862">
        <ele>401.8</ele>
      </trkpt>
      <trkpt lat="50.83176" lon="12.75761">
        <ele>404.0</ele>
      </trkpt>
      <trkpt lat="50.83141" lon="12.75659">
        <ele>404.1</ele>
      </trkpt>
      <trkpt lat="50.83121" lon="12.75605">
        <ele>404.0</ele>
      </trkpt>
      <trkpt lat="50.83088" lon="12.75534">
        <ele>403.5</ele>
      </trkpt>
      <trkpt lat="50.83062" lon="12.75474">
        <ele>403.6</ele>
      </trkpt>
      <trkpt lat="50.83036" lon="12.75414">
        <ele>403.9</ele>
      </trkpt>
      <trkpt lat="50.8303" lon="12.75402">
        <ele>403.9</ele>
      </trkpt>
      <trkpt lat="50.83024" lon="12.75397">
        <ele>403.8</ele>
      </trkpt>
      <trkpt lat="50.83016" lon="12.75396">
        <ele>403.8</ele>
      </trkpt>
      <trkpt lat="50.83003" lon="12.75401">
        <ele>403.9</ele>
      </trkpt>
      <trkpt lat="50.82996" lon="12.75407">
        <ele>403.9</ele>
      </trkpt>
      <trkpt lat="50.82969" lon="12.75435">
        <ele>404.2</ele>
      </trkpt>
      <trkpt lat="50.82954" lon="12.7546">
        <ele>404.7</ele>
      </trkpt>
      <trkpt lat="50.82939" lon="12.75488">
        <ele>405.5</ele>
      </trkpt>
      <trkpt lat="50.82918" lon="12.75461">
        <ele>406.9</ele>
      </trkpt>
      <trkpt lat="50.82878" lon="12.75358">
        <ele>410.4</ele>
      </trkpt>
      <trkpt lat="50.82859" lon="12.75317">
        <ele>411.6</ele>
      </trkpt>
      <trkpt lat="50.82825" lon="12.75263">
        <ele>412.8</ele>
      </trkpt>
      <trkpt lat="50.8279" lon="12.75208">
        <ele>414.1</ele>
      </trkpt>
      <trkpt lat="50.82759" lon="12.75157">
        <ele>416.4</ele>
      </trkpt>
      <trkpt lat="50.82722" lon="12.75107">
        <ele>419.4</ele>
      </trkpt>
      <trkpt lat="50.82688" lon="12.75075">
        <ele>420.8</ele>
      </trkpt>
      <trkpt lat="50.82657" lon="12.75039">
        <ele>421.1</ele>
      </trkpt>
      <trkpt lat="50.82628" lon="12.74999">
        <ele>421.8</ele>
      </trkpt>
      <trkpt lat="50.82599" lon="12.74931">
        <ele>426.7</ele>
      </trkpt>
      <trkpt lat="50.82586" lon="12.74873">
        <ele>429.5</ele>
      </trkpt>
      <trkpt lat="50.82579" lon="12.74858">
        <ele>430.3</ele>
      </trkpt>
      <trkpt lat="50.82568" lon="12.74847">
        <ele>431.2</ele>
      </trkpt>
      <trkpt lat="50.82491" lon="12.74792">
        <ele>436.6</ele>
      </trkpt>
      <trkpt lat="50.82436" lon="12.74758">
        <ele>435.6</ele>
      </trkpt>
      <trkpt lat="50.82402" lon="12.74731">
        <ele>434.8</ele>
      </trkpt>
      <trkpt lat="50.82356" lon="12.74684">
        <ele>433.2</ele>
      </trkpt>
      <trkpt lat="50.82309" lon="12.74637">
        <ele>432.9</ele>
      </trkpt>
      <trkpt lat="50.82255" lon="12.74593">
        <ele>435.7</ele>
      </trkpt>
      <trkpt lat="50.82247" lon="12.74591">
        <ele>435.9</ele>
      </trkpt>
      <trkpt lat="50.82175" lon="12.74585">
        <ele>433.3</ele>
      </trkpt>
      <trkpt lat="50.82102" lon="12.7458">
        <ele>433.0</ele>
      </trkpt>
      <trkpt lat="50.82034" lon="12.74582">
        <ele>434.2</ele>
      </trkpt>
      <trkpt lat="50.8198" lon="12.74586">
        <ele>435.7</ele>
      </trkpt>
      <trkpt lat="50.81925" lon="12.74591">
        <ele>437.5</ele>
      </trkpt>
      <trkpt lat="50.81855" lon="12.74591">
        <ele>440.1</ele>
      </trkpt>
      <trkpt lat="50.81815" lon="12.74588">
        <ele>441.8</ele>
      </trkpt>
      <trkpt lat="50.81764" lon="12.74577">
        <ele>444.3</ele>
      </trkpt>
      <trkpt lat="50.81705" lon="12.74563">
        <ele>445.0</ele>
      </trkpt>
      <trkpt lat="50.81645" lon="12.74549">
        <ele>444.0</ele>
      </trkpt>
      <trkpt lat="50.81586" lon="12.74535">
        <ele>441.1</ele>
      </trkpt>
      <trkpt lat="50.81574" lon="12.7454">
        <ele>440.4</ele>
      </trkpt>
      <trkpt lat="50.8156" lon="12.74552">
        <ele>439.5</ele>
      </trkpt>
      <trkpt lat="50.81552" lon="12.74572">
        <ele>438.8</ele>
      </trkpt>
      <trkpt lat="50.81547" lon="12.74597">
        <ele>438.1</ele>
      </trkpt>
      <trkpt lat="50.81545" lon="12.74677">
        <ele>436.3</ele>
      </trkpt>
      <trkpt lat="50.81544" lon="12.74743">
        <ele>436.2</ele>
      </trkpt>
      <trkpt lat="50.81535" lon="12.74777">
        <ele>435.3</ele>
      </trkpt>
      <trkpt lat="50.81527" lon="12.74787">
        <ele>434.4</ele>
      </trkpt>
      <trkpt lat="50.8151" lon="12.74791">
        <ele>432.6</ele>
      </trkpt>
      <trkpt lat="50.81503" lon="12.74788">
        <ele>431.9</ele>
      </trkpt>
      <trkpt lat="50.81499" lon="12.74787">
        <ele>431.5</ele>
      </trkpt>
      <trkpt lat="50.81491" lon="12.74779">
        <ele>430.9</ele>
      </trkpt>
      <trkpt lat="50.81482" lon="12.74767">
        <ele>430.3</ele>
      </trkpt>
      <trkpt lat="50.81479" lon="12.74761">
        <ele>430.1</ele>
      </trkpt>
      <trkpt lat="50.81469" lon="12.74738">
        <ele>429.4</ele>
      </trkpt>
      <trkpt lat="50.81447" lon="12.74698">
        <ele>427.5</ele>
      </trkpt>
      <trkpt lat="50.81401" lon="12.74637">
        <ele>424.2</ele>
      </trkpt>
      <trkpt lat="50.81354" lon="12.74576">
        <ele>419.5</ele>
      </trkpt>
      <trkpt lat="50.81341" lon="12.74551">
        <ele>418.0</ele>
      </trkpt>
      <trkpt lat="50.81334" lon="12.74542">
        <ele>417.1</ele>
      </trkpt>
      <trkpt lat="50.81323" lon="12.74535">
        <ele>417.2</ele>
      </trkpt>
      <trkpt lat="50.81293" lon="12.74523">
        <ele>417.8</ele>
      </trkpt>
      <trkpt lat="50.81286" lon="12.74526">
        <ele>418.0</ele>
      </trkpt>
      <trkpt lat="50.81258" lon="12.74582">
        <ele>417.9</ele>
      </trkpt>
      <trkpt lat="50.81244" lon="12.746">
        <ele>417.7</ele>
      </trkpt>
      <trkpt lat="50.8123" lon="12.74612">
        <ele>417.5</ele>
      </trkpt>
      <trkpt lat="50.812" lon="12.74633">
        <ele>416.6</ele>
      </trkpt>
      <trkpt lat="50.81145" lon="12.74647">
        <ele>415.3</ele>
      </trkpt>
      <trkpt lat="50.81114" lon="12.74665">
        <ele>413.5</ele>
      </trkpt>
      <trkpt lat="50.81093" lon="12.7469">
        <ele>414.3</ele>
      </trkpt>
      <trkpt lat="50.81051" lon="12.74751">
        <ele>414.8</ele>
      </trkpt>
      <trkpt lat="50.81008" lon="12.74812">
        <ele>408.2</ele>
      </trkpt>
      <trkpt lat="50.80994" lon="12.7484">
        <ele>405.3</ele>
      </trkpt>
      <trkpt lat="50.80979" lon="12.74888">
        <ele>405.3</ele>
      </trkpt>
      <trkpt lat="50.80973" lon="12.74912">
        <ele>404.8</ele>
      </trkpt>
      <trkpt lat="50.80968" lon="12.74925">
        <ele>404.3</ele>
      </trkpt>
      <trkpt lat="50.80931" lon="12.75002">
        <ele>398.3</ele>
      </trkpt>
      <trkpt lat="50.809303" lon="12.75002">
        <ele>392.4</ele>
      </trkpt>
      <trkpt lat="50.80931" lon="12.75002">
        <ele>398.3</ele>
      </trkpt>
      <trkpt lat="50.80883" lon="12.75104">
        <ele>394.3</ele>
      </trkpt>
      <trkpt lat="50.80855" lon="12.75158">
        <ele>391.9</ele>
      </trkpt>
      <trkpt lat="50.80851" lon="12.75164">
        <ele>391.5</ele>
      </trkpt>
      <trkpt lat="50.80844" lon="12.75171">
        <ele>391.2</ele>
      </trkpt>
      <trkpt lat="50.80847" lon="12.75186">
        <ele>391.0</ele>
      </trkpt>
      <trkpt lat="50.80847" lon="12.75202">
        <ele>390.7</ele>
      </trkpt>
      <trkpt lat="50.80838" lon="12.75322">
        <ele>387.7</ele>
      </trkpt>
      <trkpt lat="50.8083" lon="12.75443">
        <ele>386.9</ele>
      </trkpt>
      <trkpt lat="50.80822" lon="12.75564">
        <ele>387.4</ele>
      </trkpt>
      <trkpt lat="50.80819" lon="12.75595">
        <ele>387.6</ele>
      </trkpt>
      <trkpt lat="50.80803" lon="12.7571">
        <ele>387.6</ele>
      </trkpt>
      <trkpt lat="50.808" lon="12.75743">
        <ele>387.3</ele>
      </trkpt>
      <trkpt lat="50.80801" lon="12.75759">
        <ele>387.1</ele>
      </trkpt>
      <trkpt lat="50.80748" lon="12.7578">
        <ele>385.6</ele>
      </trkpt>
      <trkpt lat="50.80696" lon="12.758">
        <ele>384.1</ele>
      </trkpt>
      <trkpt lat="50.80685" lon="12.75806">
        <ele>383.8</ele>
      </trkpt>
      <trkpt lat="50.80675" lon="12.75814">
        <ele>383.4</ele>
      </trkpt>
      <trkpt lat="50.80664" lon="12.75826">
        <ele>383.0</ele>
      </trkpt>
      <trkpt lat="50.80637" lon="12.7586">
        <ele>382.3</ele>
      </trkpt>
      <trkpt lat="50.80586" lon="12.7594">
        <ele>380.9</ele>
      </trkpt>
      <trkpt lat="50.80568" lon="12.75961">
        <ele>380.5</ele>
      </trkpt>
      <trkpt lat="50.8055" lon="12.75978">
        <ele>380.7</ele>
      </trkpt>
      <trkpt lat="50.80541" lon="12.75985">
        <ele>380.8</ele>
      </trkpt>
      <trkpt lat="50.80532" lon="12.7599">
        <ele>380.9</ele>
      </trkpt>
      <trkpt lat="50.80538" lon="12.7604">
        <ele>380.6</ele>
      </trkpt>
      <trkpt lat="50.80534" lon="12.76055">
        <ele>380.5</ele>
      </trkpt>
      <trkpt lat="50.805" lon="12.76134">
        <ele>380.4</ele>
      </trkpt>
      <trkpt lat="50.80486" lon="12.76172">
        <ele>380.0</ele>
      </trkpt>
      <trkpt lat="50.8048" lon="12.762">
        <ele>380.1</ele>
      </trkpt>
      <trkpt lat="50.80476" lon="12.76227">
        <ele>380.2</ele>
      </trkpt>
      <trkpt lat="50.80468" lon="12.76314">
        <ele>380.2</ele>
      </trkpt>
      <trkpt lat="50.80453" lon="12.76428">
        <ele>380.8</ele>
      </trkpt>
      <trkpt lat="50.80446" lon="12.76482">
        <ele>381.7</ele>
      </trkpt>
      <trkpt lat="50.80438" lon="12.76533">
        <ele>381.5</ele>
      </trkpt>
      <trkpt lat="50.80429" lon="12.76578">
        <ele>380.8</ele>
      </trkpt>
      <trkpt lat="50.80422" lon="12.76604">
        <ele>380.1</ele>
      </trkpt>
      <trkpt lat="50.80412" lon="12.76633">
        <ele>379.1</ele>
      </trkpt>
      <trkpt lat="50.80389" lon="12.76676">
        <ele>377.1</ele>
      </trkpt>
      <trkpt lat="50.8038" lon="12.76702">
        <ele>376.5</ele>
      </trkpt>
      <trkpt lat="50.80374" lon="12.76722">
        <ele>376.0</ele>
      </trkpt>
      <trkpt lat="50.80368" lon="12.76754">
        <ele>375.3</ele>
      </trkpt>
      <trkpt lat="50.80364" lon="12.76786">
        <ele>374.6</ele>
      </trkpt>
      <trkpt lat="50.80362" lon="12.76823">
        <ele>373.9</ele>
      </trkpt>
      <trkpt lat="50.80359" lon="12.76841">
        <ele>373.8</ele>
      </trkpt>
      <trkpt lat="50.80346" lon="12.76901">
        <ele>374.5</ele>
      </trkpt>
      <trkpt lat="50.80331" lon="12.76949">
        <ele>375.8</ele>
      </trkpt>
      <trkpt lat="50.80316" lon="12.76996">
        <ele>376.9</ele>
      </trkpt>
      <trkpt lat="50.80291" lon="12.77056">
        <ele>377.0</ele>
      </trkpt>
      <trkpt lat="50.80267" lon="12.77116">
        <ele>377.2</ele>
      </trkpt>
      <trkpt lat="50.80259" lon="12.77141">
        <ele>377.5</ele>
      </trkpt>
      <trkpt lat="50.8024" lon="12.77229">
        <ele>376.2</ele>
      </trkpt>
      <trkpt lat="50.80225" lon="12.77318">
        <ele>374.5</ele>
      </trkpt>
      <trkpt lat="50.80218" lon="12.77344">
        <ele>374.2</ele>
      </trkpt>
      <trkpt lat="50.80184" lon="12.77447">
        <ele>373.9</ele>
      </trkpt>
      <trkpt lat="50.80177" lon="12.77472">
        <ele>373.8</ele>
      </trkpt>
      <trkpt lat="50.80171" lon="12.77513">
        <ele>373.7</ele>
      </trkpt>
      <trkpt lat="50.80167" lon="12.77544">
        <ele>374.0</ele>
      </trkpt>
      <trkpt lat="50.80161" lon="12.77574">
        <ele>374.3</ele>
      </trkpt>
      <trkpt lat="50.80153" lon="12.77593">
        <ele>374.6</ele>
      </trkpt>
      <trkpt lat="50.80143" lon="12.77608">
        <ele>374.9</ele>
      </trkpt>
      <trkpt lat="50.80132" lon="12.77619">
        <ele>375.4</ele>
      </trkpt>
      <trkpt lat="50.80116" lon="12.77631">
        <ele>376.2</ele>
      </trkpt>
      <trkpt lat="50.80064" lon="12.77666">
        <ele>378.9</ele>
      </trkpt>
      <trkpt lat="50.80011" lon="12.77701">
        <ele>381.1</ele>
      </trkpt>
      <trkpt lat="50.79947" lon="12.77782">
        <ele>382.1</ele>
      </trkpt>
      <trkpt lat="50.79882" lon="12.77858">
        <ele>383.4</ele>
      </trkpt>
      <trkpt lat="50.79873" lon="12.77872">
        <ele>383.5</ele>
      </trkpt>
      <trkpt lat="50.79863" lon="12.77898">
        <ele>383.6</ele>
      </trkpt>
      <trkpt lat="50.79836" lon="12.77974">
        <ele>383.9</ele>
      </trkpt>
      <trkpt lat="50.7981" lon="12.78051">
        <ele>383.1</ele>
      </trkpt>
      <trkpt lat="50.79782" lon="12.78125">
        <ele>382.8</ele>
      </trkpt>
      <trkpt lat="50.79749" lon="12.78193">
        <ele>382.6</ele>
      </trkpt>
      <trkpt lat="50.79742" lon="12.7821">
        <ele>382.1</ele>
      </trkpt>
      <trkpt lat="50.79713" lon="12.78255">
        <ele>380.6</ele>
      </trkpt>
      <trkpt lat="50.79694" lon="12.78283">
        <ele>379.9</ele>
      </trkpt>
      <trkpt lat="50.79675" lon="12.78304">
        <ele>379.2</ele>
      </trkpt>
      <trkpt lat="50.79655" lon="12.7832">
        <ele>378.6</ele>
      </trkpt>
      <trkpt lat="50.79614" lon="12.78349">
        <ele>377.0</ele>
      </trkpt>
      <trkpt lat="50.79585" lon="12.78374">
        <ele>376.0</ele>
      </trkpt>
      <trkpt lat="50.79556" lon="12.78402">
        <ele>376.3</ele>
      </trkpt>
      <trkpt lat="50.79537" lon="12.78423">
        <ele>376.5</ele>
      </trkpt>
      <trkpt lat="50.79525" lon="12.78441">
        <ele>376.6</ele>
      </trkpt>
      <trkpt lat="50.79499" lon="12.78489">
        <ele>377.0</ele>
      </trkpt>
      <trkpt lat="50.79481" lon="12.78513">
        <ele>376.7</ele>
      </trkpt>
      <trkpt lat="50.79453" lon="12.78539">
        <ele>376.3</ele>
      </trkpt>
      <trkpt lat="50.79427" lon="12.78555">
        <ele>376.3</ele>
      </trkpt>
      <trkpt lat="50.79442" lon="12.78604">
        <ele>375.4</ele>
      </trkpt>
      <trkpt lat="50.79455" lon="12.78675">
        <ele>373.9</ele>
      </trkpt>
      <trkpt lat="50.79458" lon="12.787">
        <ele>373.2</ele>
      </trkpt>
      <trkpt lat="50.79464" lon="12.78771">
        <ele>371.2</ele>
      </trkpt>
      <trkpt lat="50.7947" lon="12.78842">
        <ele>369.2</ele>
      </trkpt>
      <trkpt lat="50.79465" lon="12.78844">
        <ele>369.4</ele>
      </trkpt>
      <trkpt lat="50.7947" lon="12.78869">
        <ele>369.5</ele>
      </trkpt>
      <trkpt lat="50.79474" lon="12.78888">
        <ele>369.6</ele>
      </trkpt>
      <trkpt lat="50.79485" lon="12.78914">
        <ele>369.5</ele>
      </trkpt>
      <trkpt lat="50.79499" lon="12.78943">
        <ele>369.4</ele>
      </trkpt>
      <trkpt lat="50.79503" lon="12.78953">
        <ele>369.3</ele>
      </trkpt>
      <trkpt lat="50.79509" lon="12.78972">
        <ele>369.3</ele>
      </trkpt>
      <trkpt lat="50.79513" lon="12.78997">
        <ele>369.3</ele>
      </trkpt>
      <trkpt lat="50.79516" lon="12.79021">
        <ele>369.4</ele>
      </trkpt>
      <trkpt lat="50.7952" lon="12.79019">
        <ele>369.2</ele>
      </trkpt>
      <trkpt lat="50.79523" lon="12.79052">
        <ele>369.3</ele>
      </trkpt>
      <trkpt lat="50.7953" lon="12.79134">
        <ele>369.4</ele>
      </trkpt>
      <trkpt lat="50.79534" lon="12.79167">
        <ele>369.1</ele>
      </trkpt>
      <trkpt lat="50.79546" lon="12.79237">
        <ele>368.6</ele>
      </trkpt>
      <trkpt lat="50.79556" lon="12.79261">
        <ele>368.1</ele>
      </trkpt>
      <trkpt lat="50.79575" lon="12.79293">
        <ele>367.1</ele>
      </trkpt>
      <trkpt lat="50.79597" lon="12.79324">
        <ele>366.2</ele>
      </trkpt>
      <trkpt lat="50.79615" lon="12.79346">
        <ele>365.6</ele>
      </trkpt>
      <trkpt lat="50.79625" lon="12.79358">
        <ele>365.3</ele>
      </trkpt>
      <trkpt lat="50.79638" lon="12.79369">
        <ele>364.9</ele>
      </trkpt>
      <trkpt lat="50.79653" lon="12.79379">
        <ele>364.6</ele>
      </trkpt>
      <trkpt lat="50.79694" lon="12.79395">
        <ele>364.0</ele>
      </trkpt>
      <trkpt lat="50.79707" lon="12.79403">
        <ele>364.0</ele>
      </trkpt>
      <trkpt lat="50.79732" lon="12.79426">
        <ele>364.6</ele>
      </trkpt>
      <trkpt lat="50.79749" lon="12.79447">
        <ele>365.5</ele>
      </trkpt>
      <trkpt lat="50.79801" lon="12.79516">
        <ele>365.0</ele>
      </trkpt>
      <trkpt lat="50.79856" lon="12.79572">
        <ele>363.1</ele>
      </trkpt>
      <trkpt lat="50.79867" lon="12.79587">
        <ele>362.5</ele>
      </trkpt>
      <trkpt lat="50.79874" lon="12.79601">
        <ele>362.2</ele>
      </trkpt>
      <trkpt lat="50.79881" lon="12.79618">
        <ele>362.0</ele>
      </trkpt>
      <trkpt lat="50.79886" lon="12.7964">
        <ele>362.2</ele>
      </trkpt>
      <trkpt lat="50.79894" lon="12.79713">
        <ele>362.4</ele>
      </trkpt>
      <trkpt lat="50.79897" lon="12.79727">
        <ele>362.1</ele>
      </trkpt>
      <trkpt lat="50.79901" lon="12.79746">
        <ele>361.8</ele>
      </trkpt>
      <trkpt lat="50.79927" lon="12.79823">
        <ele>360.9</ele>
      </trkpt>
      <trkpt lat="50.79948" lon="12.79911">
        <ele>359.0</ele>
      </trkpt>
      <trkpt lat="50.79969" lon="12.79985">
        <ele>356.2</ele>
      </trkpt>
      <trkpt lat="50.79972" lon="12.80002">
        <ele>355.7</ele>
      </trkpt>
      <trkpt lat="50.79975" lon="12.80022">
        <ele>355.8</ele>
      </trkpt>
      <trkpt lat="50.79978" lon="12.80079">
        <ele>356.5</ele>
      </trkpt>
      <trkpt lat="50.79982" lon="12.80127">
        <ele>357.2</ele>
      </trkpt>
      <trkpt lat="50.79988" lon="12.80145">
        <ele>357.2</ele>
      </trkpt>
      <trkpt lat="50.79994" lon="12.80159">
        <ele>357.2</ele>
      </trkpt>
      <trkpt lat="50.80036" lon="12.80231">
        <ele>355.5</ele>
      </trkpt>
      <trkpt lat="50.80078" lon="12.80308">
        <ele>353.9</ele>
      </trkpt>
      <trkpt lat="50.80092" lon="12.8033">
        <ele>353.3</ele>
      </trkpt>
      <trkpt lat="50.80161" lon="12.80418">
        <ele>351.3</ele>
      </trkpt>
      <trkpt lat="50.80184" lon="12.80451">
        <ele>352.1</ele>
      </trkpt>
      <trkpt lat="50.80223" lon="12.8051">
        <ele>353.1</ele>
      </trkpt>
      <trkpt lat="50.80262" lon="12.8057">
        <ele>352.2</ele>
      </trkpt>
      <trkpt lat="50.80279" lon="12.80594">
        <ele>351.8</ele>
      </trkpt>
      <trkpt lat="50.80293" lon="12.80607">
        <ele>351.5</ele>
      </trkpt>
      <trkpt lat="50.8031" lon="12.80618">
        <ele>351.1</ele>
      </trkpt>
      <trkpt lat="50.80325" lon="12.80624">
        <ele>350.8</ele>
      </trkpt>
      <trkpt lat="50.80356" lon="12.80635">
        <ele>350.3</ele>
      </trkpt>
      <trkpt lat="50.80398" lon="12.80656">
        <ele>350.1</ele>
      </trkpt>
      <trkpt lat="50.80398" lon="12.80655">
        <ele>351.8</ele>
      </trkpt>
      <trkpt lat="50.8043" lon="12.80673">
        <ele>351.1</ele>
      </trkpt>
      <trkpt lat="50.80491" lon="12.80714">
        <ele>349.8</ele>
      </trkpt>
      <trkpt lat="50.80533" lon="12.80726">
        <ele>347.5</ele>
      </trkpt>
      <trkpt lat="50.80542" lon="12.8073">
        <ele>347.5</ele>
      </trkpt>
      <trkpt lat="50.80564" lon="12.80748">
        <ele>346.3</ele>
      </trkpt>
      <trkpt lat="50.8058" lon="12.80773">
        <ele>346.0</ele>
      </trkpt>
      <trkpt lat="50.80593" lon="12.80802">
        <ele>345.6</ele>
      </trkpt>
      <trkpt lat="50.80628" lon="12.809">
        <ele>345.2</ele>
      </trkpt>
      <trkpt lat="50.80655" lon="12.809804">
        <ele>345.6</ele>
      </trkpt>
      <trkpt lat="50.80682" lon="12.81061">
        <ele>345.9</ele>
      </trkpt>
      <trkpt lat="50.80693" lon="12.81107">
        <ele>346.3</ele>
      </trkpt>
      <trkpt lat="50.807" lon="12.81153">
        <ele>346.7</ele>
      </trkpt>
      <trkpt lat="50.80707" lon="12.81177">
        <ele>346.9</ele>
      </trkpt>
      <trkpt lat="50.80733" lon="12.81241">
        <ele>347.7</ele>
      </trkpt>
      <trkpt lat="50.80767" lon="12.81345">
        <ele>349.2</ele>
      </trkpt>
      <trkpt lat="50.80793" lon="12.814324">
        <ele>349.0</ele>
      </trkpt>
      <trkpt lat="50.80819" lon="12.8152">
        <ele>347.9</ele>
      </trkpt>
      <trkpt lat="50.808445" lon="12.816134">
        <ele>347.2</ele>
      </trkpt>
      <trkpt lat="50.8087" lon="12.81707">
        <ele>345.1</ele>
      </trkpt>
      <trkpt lat="50.80877" lon="12.81738">
        <ele>344.3</ele>
      </trkpt>
      <trkpt lat="50.80882" lon="12.81771">
        <ele>341.7</ele>
      </trkpt>
      <trkpt lat="50.80884" lon="12.81823">
        <ele>341.7</ele>
      </trkpt>
      <trkpt lat="50.80878" lon="12.81878">
        <ele>339.6</ele>
      </trkpt>
      <trkpt lat="50.80863" lon="12.81946">
        <ele>337.5</ele>
      </trkpt>
      <trkpt lat="50.8086" lon="12.81986">
        <ele>337.1</ele>
      </trkpt>
      <trkpt lat="50.80861" lon="12.82021">
        <ele>336.9</ele>
      </trkpt>
      <trkpt lat="50.80857" lon="12.82036">
        <ele>336.6</ele>
      </trkpt>
      <trkpt lat="50.80859" lon="12.82051">
        <ele>336.6</ele>
      </trkpt>
      <trkpt lat="50.80864" lon="12.8206">
        <ele>336.5</ele>
      </trkpt>
      <trkpt lat="50.80869" lon="12.82064">
        <ele>336.5</ele>
      </trkpt>
      <trkpt lat="50.80876" lon="12.82064">
        <ele>336.5</ele>
      </trkpt>
      <trkpt lat="50.80881" lon="12.82068">
        <ele>336.1</ele>
      </trkpt>
      <trkpt lat="50.80896" lon="12.82091">
        <ele>335.7</ele>
      </trkpt>
      <trkpt lat="50.809" lon="12.82129">
        <ele>334.5</ele>
      </trkpt>
      <trkpt lat="50.809" lon="12.82144">
        <ele>334.5</ele>
      </trkpt>
      <trkpt lat="50.80896" lon="12.82171">
        <ele>333.4</ele>
      </trkpt>
      <trkpt lat="50.8089" lon="12.82192">
        <ele>332.4</ele>
      </trkpt>
      <trkpt lat="50.80868" lon="12.82249">
        <ele>330.8</ele>
      </trkpt>
      <trkpt lat="50.80862" lon="12.82278">
        <ele>329.6</ele>
      </trkpt>
      <trkpt lat="50.80862" lon="12.82295">
        <ele>329.6</ele>
      </trkpt>
      <trkpt lat="50.80868" lon="12.82335">
        <ele>329.0</ele>
      </trkpt>
      <trkpt lat="50.80876" lon="12.82359">
        <ele>328.7</ele>
      </trkpt>
      <trkpt lat="50.80899" lon="12.82403">
        <ele>328.6</ele>
      </trkpt>
      <trkpt lat="50.80939" lon="12.82459">
        <ele>328.4</ele>
      </trkpt>
      <trkpt lat="50.80982" lon="12.8253">
        <ele>328.1</ele>
      </trkpt>
      <trkpt lat="50.81014" lon="12.82577">
        <ele>327.9</ele>
      </trkpt>
      <trkpt lat="50.810585" lon="12.826334">
        <ele>327.2</ele>
      </trkpt>
      <trkpt lat="50.81103" lon="12.8269">
        <ele>326.7</ele>
      </trkpt>
      <trkpt lat="50.81139" lon="12.82764">
        <ele>326.4</ele>
      </trkpt>
      <trkpt lat="50.81175" lon="12.82828">
        <ele>326.0</ele>
      </trkpt>
      <trkpt lat="50.81191" lon="12.82862">
        <ele>325.6</ele>
      </trkpt>
      <trkpt lat="50.81212" lon="12.82897">
        <ele>325.5</ele>
      </trkpt>
      <trkpt lat="50.81229" lon="12.8295">
        <ele>325.4</ele>
      </trkpt>
      <trkpt lat="50.81266" lon="12.83051">
        <ele>326.0</ele>
      </trkpt>
      <trkpt lat="50.81301" lon="12.831304">
        <ele>326.4</ele>
      </trkpt>
      <trkpt lat="50.81336" lon="12.8321">
        <ele>326.2</ele>
      </trkpt>
      <trkpt lat="50.813596" lon="12.833099">
        <ele>326.2</ele>
      </trkpt>
      <trkpt lat="50.813833" lon="12.834099">
        <ele>326.0</ele>
      </trkpt>
      <trkpt lat="50.81407" lon="12.8351">
        <ele>325.7</ele>
      </trkpt>
      <trkpt lat="50.81434" lon="12.83614">
        <ele>325.2</ele>
      </trkpt>
      <trkpt lat="50.81469" lon="12.836904">
        <ele>324.3</ele>
      </trkpt>
      <trkpt lat="50.81504" lon="12.83767">
        <ele>323.1</ele>
      </trkpt>
      <trkpt lat="50.815353" lon="12.838626">
        <ele>321.0</ele>
      </trkpt>
      <trkpt lat="50.815666" lon="12.839583">
        <ele>320.7</ele>
      </trkpt>
      <trkpt lat="50.81598" lon="12.84054">
        <ele>321.4</ele>
      </trkpt>
      <trkpt lat="50.81597" lon="12.84053">
        <ele>321.4</ele>
      </trkpt>
      <trkpt lat="50.81613" lon="12.84117">
        <ele>322.0</ele>
      </trkpt>
      <trkpt lat="50.81629" lon="12.84201">
        <ele>321.8</ele>
      </trkpt>
      <trkpt lat="50.816506" lon="12.843289">
        <ele>321.7</ele>
      </trkpt>
      <trkpt lat="50.816723" lon="12.844569">
        <ele>321.5</ele>
      </trkpt>
      <trkpt lat="50.81694" lon="12.84585">
        <ele>321.1</ele>
      </trkpt>
      <trkpt lat="50.81705" lon="12.84638">
        <ele>321.0</ele>
      </trkpt>
      <trkpt lat="50.81732" lon="12.84749">
        <ele>320.6</ele>
      </trkpt>
      <trkpt lat="50.81737" lon="12.84782">
        <ele>320.4</ele>
      </trkpt>
      <trkpt lat="50.81749" lon="12.848739">
        <ele>320.4</ele>
      </trkpt>
      <trkpt lat="50.81761" lon="12.84966">
        <ele>320.2</ele>
      </trkpt>
      <trkpt lat="50.81773" lon="12.85021">
        <ele>319.9</ele>
      </trkpt>
      <trkpt lat="50.81788" lon="12.85073">
        <ele>319.4</ele>
      </trkpt>
      <trkpt lat="50.81814" lon="12.85147">
        <ele>319.1</ele>
      </trkpt>
      <trkpt lat="50.81823" lon="12.85186">
        <ele>318.7</ele>
      </trkpt>
      <trkpt lat="50.81842" lon="12.85323">
        <ele>318.2</ele>
      </trkpt>
      <trkpt lat="50.818635" lon="12.854379">
        <ele>317.5</ele>
      </trkpt>
      <trkpt lat="50.81885" lon="12.85553">
        <ele>316.9</ele>
      </trkpt>
      <trkpt lat="50.818935" lon="12.856629">
        <ele>316.5</ele>
      </trkpt>
      <trkpt lat="50.81902" lon="12.85773">
        <ele>316.5</ele>
      </trkpt>
      <trkpt lat="50.81913" lon="12.85847">
        <ele>316.4</ele>
      </trkpt>
      <trkpt lat="50.81939" lon="12.85978">
        <ele>316.1</ele>
      </trkpt>
      <trkpt lat="50.81943" lon="12.86013">
        <ele>316.0</ele>
      </trkpt>
      <trkpt lat="50.8194" lon="12.86084">
        <ele>315.8</ele>
      </trkpt>
      <trkpt lat="50.81937" lon="12.86155">
        <ele>315.6</ele>
      </trkpt>
      <trkpt lat="50.81938" lon="12.86211">
        <ele>315.4</ele>
      </trkpt>
      <trkpt lat="50.81946" lon="12.86302">
        <ele>314.9</ele>
      </trkpt>
      <trkpt lat="50.81943" lon="12.86419">
        <ele>314.9</ele>
      </trkpt>
      <trkpt lat="50.819385" lon="12.864945">
        <ele>315.2</ele>
      </trkpt>
      <trkpt lat="50.81934" lon="12.8657">
        <ele>315.8</ele>
      </trkpt>
      <trkpt lat="50.819275" lon="12.86643">
        <ele>317.3</ele>
      </trkpt>
      <trkpt lat="50.81921" lon="12.86716">
        <ele>318.1</ele>
      </trkpt>
      <trkpt lat="50.81903" lon="12.86854">
        <ele>319.0</ele>
      </trkpt>
      <trkpt lat="50.81903" lon="12.86925">
        <ele>318.6</ele>
      </trkpt>
      <trkpt lat="50.8191" lon="12.87048">
        <ele>317.0</ele>
      </trkpt>
      <trkpt lat="50.81922" lon="12.87162">
        <ele>314.3</ele>
      </trkpt>
      <trkpt lat="50.8194" lon="12.87273">
        <ele>313.1</ele>
      </trkpt>
      <trkpt lat="50.81946" lon="12.87322">
        <ele>313.0</ele>
      </trkpt>
      <trkpt lat="50.81945" lon="12.87347">
        <ele>313.5</ele>
      </trkpt>
      <trkpt lat="50.81927" lon="12.87428">
        <ele>315.1</ele>
      </trkpt>
      <trkpt lat="50.81925" lon="12.87449">
        <ele>315.6</ele>
      </trkpt>
      <trkpt lat="50.81925" lon="12.87468">
        <ele>315.9</ele>
      </trkpt>
      <trkpt lat="50.819345" lon="12.875384">
        <ele>317.0</ele>
      </trkpt>
      <trkpt lat="50.81944" lon="12.87609">
        <ele>316.9</ele>
      </trkpt>
      <trkpt lat="50.8195" lon="12.87633">
        <ele>316.3</ele>
      </trkpt>
      <trkpt lat="50.81957" lon="12.87651">
        <ele>316.3</ele>
      </trkpt>
      <trkpt lat="50.81979" lon="12.87687">
        <ele>315.0</ele>
      </trkpt>
      <trkpt lat="50.81993" lon="12.87703">
        <ele>314.3</ele>
      </trkpt>
      <trkpt lat="50.82007" lon="12.87726">
        <ele>313.3</ele>
      </trkpt>
      <trkpt lat="50.82014" lon="12.87742">
        <ele>313.3</ele>
      </trkpt>
      <trkpt lat="50.8202" lon="12.87763">
        <ele>312.9</ele>
      </trkpt>
      <trkpt lat="50.82023" lon="12.87904">
        <ele>312.2</ele>
      </trkpt>
      <trkpt lat="50.82027" lon="12.87938">
        <ele>312.0</ele>
      </trkpt>
      <trkpt lat="50.82049" lon="12.880319">
        <ele>311.2</ele>
      </trkpt>
      <trkpt lat="50.82071" lon="12.88126">
        <ele>310.6</ele>
      </trkpt>
      <trkpt lat="50.82084" lon="12.88239">
        <ele>309.6</ele>
      </trkpt>
      <trkpt lat="50.820943" lon="12.883409">
        <ele>309.3</ele>
      </trkpt>
      <trkpt lat="50.821046" lon="12.884429">
        <ele>308.9</ele>
      </trkpt>
      <trkpt lat="50.82115" lon="12.88545">
        <ele>308.6</ele>
      </trkpt>
      <trkpt lat="50.82133" lon="12.88608">
        <ele>308.7</ele>
      </trkpt>
      <trkpt lat="50.82134" lon="12.88609">
        <ele>309.7</ele>
      </trkpt>
      <trkpt lat="50.82157" lon="12.88675">
        <ele>310.2</ele>
      </trkpt>
      <trkpt lat="50.82162" lon="12.88705">
        <ele>310.1</ele>
      </trkpt>
      <trkpt lat="50.82176" lon="12.88838">
        <ele>309.7</ele>
      </trkpt>
      <trkpt lat="50.82189" lon="12.88972">
        <ele>310.6</ele>
      </trkpt>
      <trkpt lat="50.82193" lon="12.88995">
        <ele>310.7</ele>
      </trkpt>
      <trkpt lat="50.82208" lon="12.89081">
        <ele>310.0</ele>
      </trkpt>
      <trkpt lat="50.82217" lon="12.89157">
        <ele>310.1</ele>
      </trkpt>
      <trkpt lat="50.82225" lon="12.89232">
        <ele>309.9</ele>
      </trkpt>
      <trkpt lat="50.8223" lon="12.89251">
        <ele>309.7</ele>
      </trkpt>
      <trkpt lat="50.82251" lon="12.89332">
        <ele>308.0</ele>
      </trkpt>
      <trkpt lat="50.82259" lon="12.89365">
        <ele>307.6</ele>
      </trkpt>
      <trkpt lat="50.82277" lon="12.89476">
        <ele>306.9</ele>
      </trkpt>
      <trkpt lat="50.82282" lon="12.89505">
        <ele>306.9</ele>
      </trkpt>
      <trkpt lat="50.82309" lon="12.89614">
        <ele>307.0</ele>
      </trkpt>
      <trkpt lat="50.82336" lon="12.89723">
        <ele>306.2</ele>
      </trkpt>
      <trkpt lat="50.82354" lon="12.89796">
        <ele>304.7</ele>
      </trkpt>
      <trkpt lat="50.82359" lon="12.89826">
        <ele>304.2</ele>
      </trkpt>
      <trkpt lat="50.8236" lon="12.89853">
        <ele>304.1</ele>
      </trkpt>
      <trkpt lat="50.8236" lon="12.89862">
        <ele>304.2</ele>
      </trkpt>
      <trkpt lat="50.82379" lon="12.89863">
        <ele>303.6</ele>
      </trkpt>
      <trkpt lat="50.8239" lon="12.89866">
        <ele>303.2</ele>
      </trkpt>
      <trkpt lat="50.8241" lon="12.89879">
        <ele>302.7</ele>
      </trkpt>
      <trkpt lat="50.82415" lon="12.89886">
        <ele>302.7</ele>
      </trkpt>
      <trkpt lat="50.82422" lon="12.89902">
        <ele>302.8</ele>
      </trkpt>
      <trkpt lat="50.82426" lon="12.89913">
        <ele>303.0</ele>
      </trkpt>
      <trkpt lat="50.8243" lon="12.89935">
        <ele>303.2</ele>
      </trkpt>
      <trkpt lat="50.82452" lon="12.90017">
        <ele>304.0</ele>
      </trkpt>
      <trkpt lat="50.82474" lon="12.901">
        <ele>303.5</ele>
      </trkpt>
      <trkpt lat="50.82479" lon="12.90118">
        <ele>303.3</ele>
      </trkpt>
      <trkpt lat="50.82483" lon="12.90115">
        <ele>303.2</ele>
      </trkpt>
      <trkpt lat="50.82522" lon="12.90088">
        <ele>304.0</ele>
      </trkpt>
      <trkpt lat="50.82531" lon="12.90082">
        <ele>304.1</ele>
      </trkpt>
      <trkpt lat="50.8258" lon="12.90048">
        <ele>305.2</ele>
      </trkpt>
      <trkpt lat="50.82629" lon="12.90014">
        <ele>310.5</ele>
      </trkpt>
      <trkpt lat="50.827" lon="12.89976">
        <ele>319.0</ele>
      </trkpt>
      <trkpt lat="50.82771" lon="12.89938">
        <ele>327.5</ele>
      </trkpt>
      <trkpt lat="50.82817" lon="12.89913">
        <ele>331.2</ele>
      </trkpt>
      <trkpt lat="50.82862" lon="12.89889">
        <ele>333.8</ele>
      </trkpt>
      <trkpt lat="50.82945" lon="12.89845">
        <ele>334.9</ele>
      </trkpt>
      <trkpt lat="50.83027" lon="12.89802">
        <ele>332.3</ele>
      </trkpt>
      <trkpt lat="50.8311" lon="12.89759">
        <ele>329.1</ele>
      </trkpt>
      <trkpt lat="50.83142" lon="12.89741">
        <ele>327.8</ele>
      </trkpt>
      <trkpt lat="50.83151" lon="12.89737">
        <ele>327.4</ele>
      </trkpt>
      <trkpt lat="50.83163" lon="12.89811">
        <ele>328.5</ele>
      </trkpt>
      <trkpt lat="50.8318" lon="12.89929">
        <ele>330.0</ele>
      </trkpt>
      <trkpt lat="50.83197" lon="12.90048">
        <ele>331.8</ele>
      </trkpt>
      <trkpt lat="50.83214" lon="12.90167">
        <ele>332.9</ele>
      </trkpt>
      <trkpt lat="50.83232" lon="12.90291">
        <ele>331.2</ele>
      </trkpt>
      <trkpt lat="50.83251" lon="12.90415">
        <ele>330.0</ele>
      </trkpt>
    </trkseg>
  </trk>
</gpx>
